<?xml version="1.0"?><gpx version="1.0" creator="cycle.travel"  xmlns:xsi="http://www.w3.org/2001/XMLSchema-instance"  xmlns="http://www.topografix.com/GPX/1/0"  xsi:schemaLocation="http://www.topografix.com/GPX/1/0 http://www.topografix.com/GPX/1/0/gpx.xsd">  <trk>    <name>Gloucester + Ro</name>    <trkseg>      <trkpt lat="42.61646" lon="-70.66637"><ele>14</ele></trkpt>      <trkpt lat="42.61640" lon="-70.66646"><ele>14</ele></trkpt>      <trkpt lat="42.61628" lon="-70.66652"><ele>14</ele></trkpt>      <trkpt lat="42.61619" lon="-70.66616"><ele>14</ele></trkpt>      <trkpt lat="42.61614" lon="-70.66600"><ele>14</ele></trkpt>      <trkpt lat="42.61609" lon="-70.66586"><ele>14</ele></trkpt>      <trkpt lat="42.61606" lon="-70.66574"><ele>14</ele></trkpt>      <trkpt lat="42.61589" lon="-70.66520"><ele>14</ele></trkpt>      <trkpt lat="42.61578" lon="-70.66489"><ele>14</ele></trkpt>      <trkpt lat="42.61573" lon="-70.66479"><ele>14</ele></trkpt>      <trkpt lat="42.61556" lon="-70.66451"><ele>14</ele></trkpt>      <trkpt lat="42.61546" lon="-70.66438"><ele>14</ele></trkpt>      <trkpt lat="42.61539" lon="-70.66424"><ele>14</ele></trkpt>      <trkpt lat="42.61558" lon="-70.66423"><ele>14</ele></trkpt>      <trkpt lat="42.61592" lon="-70.66437"><ele>14</ele></trkpt>      <trkpt lat="42.61602" lon="-70.66442"><ele>14</ele></trkpt>      <trkpt lat="42.61634" lon="-70.66458"><ele>14</ele></trkpt>      <trkpt lat="42.61682" lon="-70.66483"><ele>14</ele></trkpt>      <trkpt lat="42.61712" lon="-70.66498"><ele>14</ele></trkpt>      <trkpt lat="42.61721" lon="-70.66509"><ele>14</ele></trkpt>      <trkpt lat="42.61733" lon="-70.66523"><ele>14</ele></trkpt>      <trkpt lat="42.61763" lon="-70.66563"><ele>14</ele></trkpt>      <trkpt lat="42.61780" lon="-70.66586"><ele>14</ele></trkpt>      <trkpt lat="42.61803" lon="-70.66616"><ele>14</ele></trkpt>      <trkpt lat="42.61828" lon="-70.66649"><ele>14</ele></trkpt>      <trkpt lat="42.61837" lon="-70.66661"><ele>14</ele></trkpt>      <trkpt lat="42.61891" lon="-70.66728"><ele>14</ele></trkpt>      <trkpt lat="42.61903" lon="-70.66744"><ele>14</ele></trkpt>      <trkpt lat="42.61948" lon="-70.66766"><ele>14</ele></trkpt>      <trkpt lat="42.61981" lon="-70.66781"><ele>14</ele></trkpt>      <trkpt lat="42.62025" lon="-70.66804"><ele>14</ele></trkpt>      <trkpt lat="42.62150" lon="-70.66866"><ele>14</ele></trkpt>      <trkpt lat="42.62318" lon="-70.66947"><ele>13</ele></trkpt>      <trkpt lat="42.62331" lon="-70.66951"><ele>12</ele></trkpt>      <trkpt lat="42.62344" lon="-70.66953"><ele>12</ele></trkpt>      <trkpt lat="42.62404" lon="-70.66954"><ele>8</ele></trkpt>      <trkpt lat="42.62419" lon="-70.66954"><ele>7</ele></trkpt>      <trkpt lat="42.62441" lon="-70.66954"><ele>7</ele></trkpt>      <trkpt lat="42.62450" lon="-70.66958"><ele>7</ele></trkpt>      <trkpt lat="42.62458" lon="-70.66977"><ele>7</ele></trkpt>      <trkpt lat="42.62464" lon="-70.67002"><ele>7</ele></trkpt>      <trkpt lat="42.62469" lon="-70.67027"><ele>7</ele></trkpt>      <trkpt lat="42.62472" lon="-70.67045"><ele>7</ele></trkpt>      <trkpt lat="42.62476" lon="-70.67065"><ele>7</ele></trkpt>      <trkpt lat="42.62478" lon="-70.67082"><ele>7</ele></trkpt>      <trkpt lat="42.62480" lon="-70.67099"><ele>7</ele></trkpt>      <trkpt lat="42.62481" lon="-70.67113"><ele>7</ele></trkpt>      <trkpt lat="42.62482" lon="-70.67126"><ele>7</ele></trkpt>      <trkpt lat="42.62482" lon="-70.67139"><ele>7</ele></trkpt>      <trkpt lat="42.62480" lon="-70.67155"><ele>7</ele></trkpt>      <trkpt lat="42.62477" lon="-70.67180"><ele>7</ele></trkpt>      <trkpt lat="42.62476" lon="-70.67192"><ele>7</ele></trkpt>      <trkpt lat="42.62473" lon="-70.67214"><ele>7</ele></trkpt>      <trkpt lat="42.62471" lon="-70.67229"><ele>6</ele></trkpt>      <trkpt lat="42.62466" lon="-70.67250"><ele>6</ele></trkpt>      <trkpt lat="42.62462" lon="-70.67269"><ele>6</ele></trkpt>      <trkpt lat="42.62455" lon="-70.67299"><ele>5</ele></trkpt>      <trkpt lat="42.62449" lon="-70.67322"><ele>5</ele></trkpt>      <trkpt lat="42.62445" lon="-70.67337"><ele>5</ele></trkpt>      <trkpt lat="42.62438" lon="-70.67359"><ele>5</ele></trkpt>      <trkpt lat="42.62431" lon="-70.67377"><ele>4</ele></trkpt>      <trkpt lat="42.62412" lon="-70.67425"><ele>3</ele></trkpt>      <trkpt lat="42.62397" lon="-70.67457"><ele>3</ele></trkpt>      <trkpt lat="42.62381" lon="-70.67492"><ele>3</ele></trkpt>      <trkpt lat="42.62319" lon="-70.67623"><ele>3</ele></trkpt>      <trkpt lat="42.62312" lon="-70.67642"><ele>3</ele></trkpt>      <trkpt lat="42.62307" lon="-70.67655"><ele>3</ele></trkpt>      <trkpt lat="42.62313" lon="-70.67663"><ele>3</ele></trkpt>      <trkpt lat="42.62328" lon="-70.67683"><ele>3</ele></trkpt>      <trkpt lat="42.62341" lon="-70.67698"><ele>4</ele></trkpt>      <trkpt lat="42.62367" lon="-70.67732"><ele>4</ele></trkpt>      <trkpt lat="42.62394" lon="-70.67764"><ele>4</ele></trkpt>      <trkpt lat="42.62418" lon="-70.67789"><ele>4</ele></trkpt>      <trkpt lat="42.62443" lon="-70.67814"><ele>5</ele></trkpt>      <trkpt lat="42.62453" lon="-70.67826"><ele>5</ele></trkpt>      <trkpt lat="42.62461" lon="-70.67835"><ele>5</ele></trkpt>      <trkpt lat="42.62472" lon="-70.67847"><ele>5</ele></trkpt>      <trkpt lat="42.62507" lon="-70.67887"><ele>6</ele></trkpt>      <trkpt lat="42.62516" lon="-70.67897"><ele>7</ele></trkpt>      <trkpt lat="42.62525" lon="-70.67907"><ele>7</ele></trkpt>      <trkpt lat="42.62535" lon="-70.67919"><ele>7</ele></trkpt>      <trkpt lat="42.62544" lon="-70.67928"><ele>8</ele></trkpt>      <trkpt lat="42.62589" lon="-70.67977"><ele>10</ele></trkpt>      <trkpt lat="42.62599" lon="-70.67988"><ele>10</ele></trkpt>      <trkpt lat="42.62611" lon="-70.68001"><ele>11</ele></trkpt>      <trkpt lat="42.62624" lon="-70.68013"><ele>11</ele></trkpt>      <trkpt lat="42.62634" lon="-70.68020"><ele>11</ele></trkpt>      <trkpt lat="42.62664" lon="-70.68033"><ele>11</ele></trkpt>      <trkpt lat="42.62673" lon="-70.68035"><ele>11</ele></trkpt>      <trkpt lat="42.62702" lon="-70.68040"><ele>11</ele></trkpt>      <trkpt lat="42.62719" lon="-70.68040"><ele>11</ele></trkpt>      <trkpt lat="42.62736" lon="-70.68036"><ele>10</ele></trkpt>      <trkpt lat="42.62763" lon="-70.68026"><ele>10</ele></trkpt>      <trkpt lat="42.62773" lon="-70.68020"><ele>9</ele></trkpt>      <trkpt lat="42.62843" lon="-70.67978"><ele>8</ele></trkpt>      <trkpt lat="42.62871" lon="-70.67962"><ele>8</ele></trkpt>      <trkpt lat="42.62895" lon="-70.67947"><ele>7</ele></trkpt>      <trkpt lat="42.62906" lon="-70.67939"><ele>7</ele></trkpt>      <trkpt lat="42.62923" lon="-70.67931"><ele>7</ele></trkpt>      <trkpt lat="42.62935" lon="-70.67928"><ele>6</ele></trkpt>      <trkpt lat="42.62994" lon="-70.67914"><ele>5</ele></trkpt>      <trkpt lat="42.63013" lon="-70.67908"><ele>4</ele></trkpt>      <trkpt lat="42.63050" lon="-70.67884"><ele>3</ele></trkpt>      <trkpt lat="42.63059" lon="-70.67879"><ele>2</ele></trkpt>      <trkpt lat="42.63068" lon="-70.67874"><ele>2</ele></trkpt>      <trkpt lat="42.63077" lon="-70.67871"><ele>2</ele></trkpt>      <trkpt lat="42.63089" lon="-70.67868"><ele>2</ele></trkpt>      <trkpt lat="42.63100" lon="-70.67867"><ele>2</ele></trkpt>      <trkpt lat="42.63137" lon="-70.67867"><ele>1</ele></trkpt>      <trkpt lat="42.63147" lon="-70.67867"><ele>1</ele></trkpt>      <trkpt lat="42.63182" lon="-70.67862"><ele>0</ele></trkpt>      <trkpt lat="42.63194" lon="-70.67860"><ele>0</ele></trkpt>      <trkpt lat="42.63210" lon="-70.67853"><ele>0</ele></trkpt>      <trkpt lat="42.63217" lon="-70.67848"><ele>0</ele></trkpt>      <trkpt lat="42.63225" lon="-70.67842"><ele>0</ele></trkpt>      <trkpt lat="42.63238" lon="-70.67827"><ele>0</ele></trkpt>      <trkpt lat="42.63251" lon="-70.67808"><ele>0</ele></trkpt>      <trkpt lat="42.63265" lon="-70.67787"><ele>0</ele></trkpt>      <trkpt lat="42.63274" lon="-70.67768"><ele>0</ele></trkpt>      <trkpt lat="42.63277" lon="-70.67757"><ele>0</ele></trkpt>      <trkpt lat="42.63281" lon="-70.67744"><ele>0</ele></trkpt>      <trkpt lat="42.63282" lon="-70.67732"><ele>0</ele></trkpt>      <trkpt lat="42.63283" lon="-70.67709"><ele>2</ele></trkpt>      <trkpt lat="42.63285" lon="-70.67669"><ele>4</ele></trkpt>      <trkpt lat="42.63288" lon="-70.67657"><ele>5</ele></trkpt>      <trkpt lat="42.63294" lon="-70.67643"><ele>6</ele></trkpt>      <trkpt lat="42.63302" lon="-70.67631"><ele>7</ele></trkpt>      <trkpt lat="42.63308" lon="-70.67621"><ele>9</ele></trkpt>      <trkpt lat="42.63319" lon="-70.67612"><ele>11</ele></trkpt>      <trkpt lat="42.63329" lon="-70.67604"><ele>12</ele></trkpt>      <trkpt lat="42.63357" lon="-70.67588"><ele>14</ele></trkpt>      <trkpt lat="42.63368" lon="-70.67578"><ele>15</ele></trkpt>      <trkpt lat="42.63375" lon="-70.67569"><ele>16</ele></trkpt>      <trkpt lat="42.63384" lon="-70.67557"><ele>17</ele></trkpt>      <trkpt lat="42.63392" lon="-70.67547"><ele>17</ele></trkpt>      <trkpt lat="42.63464" lon="-70.67516"><ele>19</ele></trkpt>      <trkpt lat="42.63473" lon="-70.67514"><ele>19</ele></trkpt>      <trkpt lat="42.63497" lon="-70.67510"><ele>20</ele></trkpt>      <trkpt lat="42.63505" lon="-70.67508"><ele>20</ele></trkpt>      <trkpt lat="42.63516" lon="-70.67504"><ele>20</ele></trkpt>      <trkpt lat="42.63527" lon="-70.67499"><ele>20</ele></trkpt>      <trkpt lat="42.63551" lon="-70.67487"><ele>20</ele></trkpt>      <trkpt lat="42.63567" lon="-70.67478"><ele>21</ele></trkpt>      <trkpt lat="42.63582" lon="-70.67466"><ele>21</ele></trkpt>      <trkpt lat="42.63591" lon="-70.67458"><ele>21</ele></trkpt>      <trkpt lat="42.63639" lon="-70.67411"><ele>21</ele></trkpt>      <trkpt lat="42.63647" lon="-70.67405"><ele>22</ele></trkpt>      <trkpt lat="42.63710" lon="-70.67369"><ele>22</ele></trkpt>      <trkpt lat="42.63726" lon="-70.67363"><ele>22</ele></trkpt>      <trkpt lat="42.63749" lon="-70.67360"><ele>21</ele></trkpt>      <trkpt lat="42.63758" lon="-70.67359"><ele>21</ele></trkpt>      <trkpt lat="42.63770" lon="-70.67355"><ele>20</ele></trkpt>      <trkpt lat="42.63795" lon="-70.67344"><ele>19</ele></trkpt>      <trkpt lat="42.63804" lon="-70.67340"><ele>19</ele></trkpt>      <trkpt lat="42.63841" lon="-70.67318"><ele>17</ele></trkpt>      <trkpt lat="42.63883" lon="-70.67294"><ele>15</ele></trkpt>      <trkpt lat="42.63907" lon="-70.67282"><ele>14</ele></trkpt>      <trkpt lat="42.63923" lon="-70.67275"><ele>14</ele></trkpt>      <trkpt lat="42.63943" lon="-70.67270"><ele>14</ele></trkpt>      <trkpt lat="42.63977" lon="-70.67266"><ele>14</ele></trkpt>      <trkpt lat="42.63992" lon="-70.67262"><ele>14</ele></trkpt>      <trkpt lat="42.64001" lon="-70.67259"><ele>14</ele></trkpt>      <trkpt lat="42.64014" lon="-70.67254"><ele>14</ele></trkpt>      <trkpt lat="42.64032" lon="-70.67243"><ele>14</ele></trkpt>      <trkpt lat="42.64074" lon="-70.67218"><ele>14</ele></trkpt>      <trkpt lat="42.64087" lon="-70.67209"><ele>14</ele></trkpt>      <trkpt lat="42.64114" lon="-70.67190"><ele>13</ele></trkpt>      <trkpt lat="42.64148" lon="-70.67157"><ele>12</ele></trkpt>      <trkpt lat="42.64157" lon="-70.67146"><ele>12</ele></trkpt>      <trkpt lat="42.64164" lon="-70.67137"><ele>12</ele></trkpt>      <trkpt lat="42.64171" lon="-70.67127"><ele>12</ele></trkpt>      <trkpt lat="42.64179" lon="-70.67112"><ele>12</ele></trkpt>      <trkpt lat="42.64188" lon="-70.67099"><ele>12</ele></trkpt>      <trkpt lat="42.64211" lon="-70.67084"><ele>14</ele></trkpt>      <trkpt lat="42.64232" lon="-70.67080"><ele>14</ele></trkpt>      <trkpt lat="42.64246" lon="-70.67080"><ele>15</ele></trkpt>      <trkpt lat="42.64257" lon="-70.67084"><ele>15</ele></trkpt>      <trkpt lat="42.64302" lon="-70.67111"><ele>14</ele></trkpt>      <trkpt lat="42.64333" lon="-70.67131"><ele>14</ele></trkpt>      <trkpt lat="42.64390" lon="-70.67169"><ele>13</ele></trkpt>      <trkpt lat="42.64429" lon="-70.67195"><ele>13</ele></trkpt>      <trkpt lat="42.64481" lon="-70.67231"><ele>13</ele></trkpt>      <trkpt lat="42.64516" lon="-70.67250"><ele>13</ele></trkpt>      <trkpt lat="42.64556" lon="-70.67273"><ele>10</ele></trkpt>      <trkpt lat="42.64568" lon="-70.67280"><ele>8</ele></trkpt>      <trkpt lat="42.64598" lon="-70.67300"><ele>6</ele></trkpt>      <trkpt lat="42.64624" lon="-70.67318"><ele>4</ele></trkpt>      <trkpt lat="42.64637" lon="-70.67327"><ele>3</ele></trkpt>      <trkpt lat="42.64656" lon="-70.67341"><ele>2</ele></trkpt>      <trkpt lat="42.64694" lon="-70.67360"><ele>2</ele></trkpt>      <trkpt lat="42.64717" lon="-70.67366"><ele>2</ele></trkpt>      <trkpt lat="42.64741" lon="-70.67368"><ele>1</ele></trkpt>      <trkpt lat="42.64764" lon="-70.67366"><ele>1</ele></trkpt>      <trkpt lat="42.64808" lon="-70.67356"><ele>1</ele></trkpt>      <trkpt lat="42.64877" lon="-70.67328"><ele>1</ele></trkpt>      <trkpt lat="42.64896" lon="-70.67320"><ele>1</ele></trkpt>      <trkpt lat="42.64952" lon="-70.67299"><ele>1</ele></trkpt>      <trkpt lat="42.64966" lon="-70.67292"><ele>2</ele></trkpt>      <trkpt lat="42.65039" lon="-70.67259"><ele>2</ele></trkpt>      <trkpt lat="42.65053" lon="-70.67252"><ele>2</ele></trkpt>      <trkpt lat="42.65097" lon="-70.67233"><ele>3</ele></trkpt>      <trkpt lat="42.65112" lon="-70.67226"><ele>3</ele></trkpt>      <trkpt lat="42.65130" lon="-70.67221"><ele>3</ele></trkpt>      <trkpt lat="42.65142" lon="-70.67220"><ele>4</ele></trkpt>      <trkpt lat="42.65152" lon="-70.67221"><ele>5</ele></trkpt>      <trkpt lat="42.65160" lon="-70.67223"><ele>6</ele></trkpt>      <trkpt lat="42.65177" lon="-70.67233"><ele>8</ele></trkpt>      <trkpt lat="42.65184" lon="-70.67238"><ele>8</ele></trkpt>      <trkpt lat="42.65191" lon="-70.67245"><ele>9</ele></trkpt>      <trkpt lat="42.65228" lon="-70.67285"><ele>12</ele></trkpt>      <trkpt lat="42.65263" lon="-70.67325"><ele>14</ele></trkpt>      <trkpt lat="42.65271" lon="-70.67333"><ele>15</ele></trkpt>      <trkpt lat="42.65279" lon="-70.67339"><ele>15</ele></trkpt>      <trkpt lat="42.65294" lon="-70.67350"><ele>16</ele></trkpt>      <trkpt lat="42.65310" lon="-70.67360"><ele>17</ele></trkpt>      <trkpt lat="42.65318" lon="-70.67365"><ele>16</ele></trkpt>      <trkpt lat="42.65330" lon="-70.67373"><ele>16</ele></trkpt>      <trkpt lat="42.65340" lon="-70.67378"><ele>16</ele></trkpt>      <trkpt lat="42.65354" lon="-70.67386"><ele>16</ele></trkpt>      <trkpt lat="42.65363" lon="-70.67391"><ele>16</ele></trkpt>      <trkpt lat="42.65376" lon="-70.67396"><ele>16</ele></trkpt>      <trkpt lat="42.65396" lon="-70.67401"><ele>16</ele></trkpt>      <trkpt lat="42.65405" lon="-70.67402"><ele>16</ele></trkpt>      <trkpt lat="42.65423" lon="-70.67402"><ele>16</ele></trkpt>      <trkpt lat="42.65435" lon="-70.67400"><ele>16</ele></trkpt>      <trkpt lat="42.65449" lon="-70.67398"><ele>16</ele></trkpt>      <trkpt lat="42.65468" lon="-70.67395"><ele>16</ele></trkpt>      <trkpt lat="42.65484" lon="-70.67391"><ele>16</ele></trkpt>      <trkpt lat="42.65506" lon="-70.67383"><ele>16</ele></trkpt>      <trkpt lat="42.65520" lon="-70.67379"><ele>16</ele></trkpt>      <trkpt lat="42.65620" lon="-70.67347"><ele>17</ele></trkpt>      <trkpt lat="42.65750" lon="-70.67317"><ele>17</ele></trkpt>      <trkpt lat="42.65770" lon="-70.67311"><ele>17</ele></trkpt>      <trkpt lat="42.65795" lon="-70.67305"><ele>17</ele></trkpt>      <trkpt lat="42.65807" lon="-70.67300"><ele>17</ele></trkpt>      <trkpt lat="42.65819" lon="-70.67294"><ele>17</ele></trkpt>      <trkpt lat="42.65860" lon="-70.67275"><ele>16</ele></trkpt>      <trkpt lat="42.65888" lon="-70.67260"><ele>15</ele></trkpt>      <trkpt lat="42.65913" lon="-70.67246"><ele>15</ele></trkpt>      <trkpt lat="42.65957" lon="-70.67223"><ele>13</ele></trkpt>      <trkpt lat="42.65995" lon="-70.67200"><ele>12</ele></trkpt>      <trkpt lat="42.66017" lon="-70.67184"><ele>12</ele></trkpt>      <trkpt lat="42.66034" lon="-70.67168"><ele>11</ele></trkpt>      <trkpt lat="42.66045" lon="-70.67155"><ele>11</ele></trkpt>      <trkpt lat="42.66060" lon="-70.67127"><ele>9</ele></trkpt>      <trkpt lat="42.66072" lon="-70.67107"><ele>8</ele></trkpt>      <trkpt lat="42.66085" lon="-70.67097"><ele>9</ele></trkpt>      <trkpt lat="42.66095" lon="-70.67095"><ele>9</ele></trkpt>      <trkpt lat="42.66115" lon="-70.67098"><ele>10</ele></trkpt>      <trkpt lat="42.66148" lon="-70.67104"><ele>12</ele></trkpt>      <trkpt lat="42.66161" lon="-70.67104"><ele>12</ele></trkpt>      <trkpt lat="42.66178" lon="-70.67096"><ele>13</ele></trkpt>      <trkpt lat="42.66195" lon="-70.67076"><ele>14</ele></trkpt>      <trkpt lat="42.66217" lon="-70.67033"><ele>15</ele></trkpt>      <trkpt lat="42.66227" lon="-70.67018"><ele>16</ele></trkpt>      <trkpt lat="42.66238" lon="-70.67013"><ele>16</ele></trkpt>      <trkpt lat="42.66246" lon="-70.67009"><ele>16</ele></trkpt>      <trkpt lat="42.66255" lon="-70.67007"><ele>16</ele></trkpt>      <trkpt lat="42.66269" lon="-70.67003"><ele>16</ele></trkpt>      <trkpt lat="42.66279" lon="-70.66998"><ele>16</ele></trkpt>      <trkpt lat="42.66289" lon="-70.66993"><ele>16</ele></trkpt>      <trkpt lat="42.66300" lon="-70.66987"><ele>16</ele></trkpt>      <trkpt lat="42.66324" lon="-70.66973"><ele>16</ele></trkpt>      <trkpt lat="42.66345" lon="-70.66959"><ele>16</ele></trkpt>      <trkpt lat="42.66358" lon="-70.66951"><ele>16</ele></trkpt>      <trkpt lat="42.66373" lon="-70.66938"><ele>16</ele></trkpt>      <trkpt lat="42.66390" lon="-70.66919"><ele>16</ele></trkpt>      <trkpt lat="42.66412" lon="-70.66895"><ele>16</ele></trkpt>      <trkpt lat="42.66431" lon="-70.66875"><ele>16</ele></trkpt>      <trkpt lat="42.66443" lon="-70.66862"><ele>16</ele></trkpt>      <trkpt lat="42.66454" lon="-70.66848"><ele>16</ele></trkpt>      <trkpt lat="42.66463" lon="-70.66836"><ele>16</ele></trkpt>      <trkpt lat="42.66473" lon="-70.66824"><ele>16</ele></trkpt>      <trkpt lat="42.66483" lon="-70.66811"><ele>16</ele></trkpt>      <trkpt lat="42.66497" lon="-70.66797"><ele>16</ele></trkpt>      <trkpt lat="42.66512" lon="-70.66787"><ele>16</ele></trkpt>      <trkpt lat="42.66520" lon="-70.66782"><ele>16</ele></trkpt>      <trkpt lat="42.66536" lon="-70.66779"><ele>16</ele></trkpt>      <trkpt lat="42.66564" lon="-70.66780"><ele>15</ele></trkpt>      <trkpt lat="42.66580" lon="-70.66781"><ele>15</ele></trkpt>      <trkpt lat="42.66588" lon="-70.66780"><ele>15</ele></trkpt>      <trkpt lat="42.66601" lon="-70.66779"><ele>15</ele></trkpt>      <trkpt lat="42.66614" lon="-70.66775"><ele>15</ele></trkpt>      <trkpt lat="42.66634" lon="-70.66767"><ele>14</ele></trkpt>      <trkpt lat="42.66646" lon="-70.66762"><ele>14</ele></trkpt>      <trkpt lat="42.66663" lon="-70.66753"><ele>13</ele></trkpt>      <trkpt lat="42.66697" lon="-70.66733"><ele>10</ele></trkpt>      <trkpt lat="42.66731" lon="-70.66711"><ele>7</ele></trkpt>      <trkpt lat="42.66771" lon="-70.66687"><ele>4</ele></trkpt>      <trkpt lat="42.66794" lon="-70.66675"><ele>3</ele></trkpt>      <trkpt lat="42.66820" lon="-70.66661"><ele>3</ele></trkpt>      <trkpt lat="42.66843" lon="-70.66649"><ele>4</ele></trkpt>      <trkpt lat="42.66904" lon="-70.66616"><ele>10</ele></trkpt>      <trkpt lat="42.66939" lon="-70.66598"><ele>13</ele></trkpt>      <trkpt lat="42.66967" lon="-70.66583"><ele>15</ele></trkpt>      <trkpt lat="42.67013" lon="-70.66551"><ele>16</ele></trkpt>      <trkpt lat="42.67046" lon="-70.66528"><ele>16</ele></trkpt>      <trkpt lat="42.67122" lon="-70.66476"><ele>16</ele></trkpt>      <trkpt lat="42.67165" lon="-70.66451"><ele>16</ele></trkpt>      <trkpt lat="42.67176" lon="-70.66445"><ele>15</ele></trkpt>      <trkpt lat="42.67214" lon="-70.66428"><ele>13</ele></trkpt>      <trkpt lat="42.67229" lon="-70.66422"><ele>11</ele></trkpt>      <trkpt lat="42.67239" lon="-70.66418"><ele>10</ele></trkpt>      <trkpt lat="42.67247" lon="-70.66413"><ele>10</ele></trkpt>      <trkpt lat="42.67260" lon="-70.66404"><ele>8</ele></trkpt>      <trkpt lat="42.67280" lon="-70.66387"><ele>7</ele></trkpt>      <trkpt lat="42.67294" lon="-70.66374"><ele>6</ele></trkpt>      <trkpt lat="42.67303" lon="-70.66365"><ele>5</ele></trkpt>      <trkpt lat="42.67323" lon="-70.66344"><ele>4</ele></trkpt>      <trkpt lat="42.67337" lon="-70.66327"><ele>4</ele></trkpt>      <trkpt lat="42.67345" lon="-70.66320"><ele>4</ele></trkpt>      <trkpt lat="42.67358" lon="-70.66307"><ele>6</ele></trkpt>      <trkpt lat="42.67385" lon="-70.66284"><ele>8</ele></trkpt>      <trkpt lat="42.67407" lon="-70.66265"><ele>10</ele></trkpt>      <trkpt lat="42.67414" lon="-70.66258"><ele>10</ele></trkpt>      <trkpt lat="42.67432" lon="-70.66240"><ele>12</ele></trkpt>      <trkpt lat="42.67453" lon="-70.66220"><ele>14</ele></trkpt>      <trkpt lat="42.67466" lon="-70.66208"><ele>16</ele></trkpt>      <trkpt lat="42.67475" lon="-70.66202"><ele>16</ele></trkpt>      <trkpt lat="42.67483" lon="-70.66197"><ele>17</ele></trkpt>      <trkpt lat="42.67504" lon="-70.66186"><ele>17</ele></trkpt>      <trkpt lat="42.67549" lon="-70.66161"><ele>18</ele></trkpt>      <trkpt lat="42.67566" lon="-70.66151"><ele>18</ele></trkpt>      <trkpt lat="42.67577" lon="-70.66145"><ele>18</ele></trkpt>      <trkpt lat="42.67592" lon="-70.66139"><ele>17</ele></trkpt>      <trkpt lat="42.67609" lon="-70.66135"><ele>16</ele></trkpt>      <trkpt lat="42.67622" lon="-70.66132"><ele>16</ele></trkpt>      <trkpt lat="42.67639" lon="-70.66123"><ele>15</ele></trkpt>      <trkpt lat="42.67652" lon="-70.66109"><ele>14</ele></trkpt>      <trkpt lat="42.67664" lon="-70.66090"><ele>13</ele></trkpt>      <trkpt lat="42.67671" lon="-70.66076"><ele>13</ele></trkpt>      <trkpt lat="42.67682" lon="-70.66051"><ele>13</ele></trkpt>      <trkpt lat="42.67693" lon="-70.66027"><ele>12</ele></trkpt>      <trkpt lat="42.67700" lon="-70.66016"><ele>12</ele></trkpt>      <trkpt lat="42.67708" lon="-70.66009"><ele>12</ele></trkpt>      <trkpt lat="42.67734" lon="-70.65990"><ele>10</ele></trkpt>      <trkpt lat="42.67741" lon="-70.65983"><ele>9</ele></trkpt>      <trkpt lat="42.67749" lon="-70.65971"><ele>9</ele></trkpt>      <trkpt lat="42.67753" lon="-70.65952"><ele>9</ele></trkpt>      <trkpt lat="42.67756" lon="-70.65921"><ele>9</ele></trkpt>      <trkpt lat="42.67764" lon="-70.65864"><ele>11</ele></trkpt>      <trkpt lat="42.67765" lon="-70.65847"><ele>11</ele></trkpt>      <trkpt lat="42.67768" lon="-70.65787"><ele>14</ele></trkpt>      <trkpt lat="42.67773" lon="-70.65768"><ele>14</ele></trkpt>      <trkpt lat="42.67785" lon="-70.65753"><ele>15</ele></trkpt>      <trkpt lat="42.67802" lon="-70.65739"><ele>15</ele></trkpt>      <trkpt lat="42.67822" lon="-70.65724"><ele>15</ele></trkpt>      <trkpt lat="42.67831" lon="-70.65711"><ele>15</ele></trkpt>      <trkpt lat="42.67835" lon="-70.65683"><ele>16</ele></trkpt>      <trkpt lat="42.67836" lon="-70.65667"><ele>16</ele></trkpt>      <trkpt lat="42.67837" lon="-70.65644"><ele>17</ele></trkpt>      <trkpt lat="42.67837" lon="-70.65626"><ele>17</ele></trkpt>      <trkpt lat="42.67835" lon="-70.65598"><ele>18</ele></trkpt>      <trkpt lat="42.67834" lon="-70.65577"><ele>18</ele></trkpt>      <trkpt lat="42.67831" lon="-70.65552"><ele>19</ele></trkpt>      <trkpt lat="42.67829" lon="-70.65536"><ele>19</ele></trkpt>      <trkpt lat="42.67825" lon="-70.65521"><ele>20</ele></trkpt>      <trkpt lat="42.67810" lon="-70.65476"><ele>21</ele></trkpt>      <trkpt lat="42.67802" lon="-70.65448"><ele>22</ele></trkpt>      <trkpt lat="42.67798" lon="-70.65432"><ele>22</ele></trkpt>      <trkpt lat="42.67796" lon="-70.65420"><ele>22</ele></trkpt>      <trkpt lat="42.67795" lon="-70.65409"><ele>23</ele></trkpt>      <trkpt lat="42.67794" lon="-70.65395"><ele>23</ele></trkpt>      <trkpt lat="42.67792" lon="-70.65366"><ele>23</ele></trkpt>      <trkpt lat="42.67792" lon="-70.65334"><ele>24</ele></trkpt>      <trkpt lat="42.67793" lon="-70.65320"><ele>24</ele></trkpt>      <trkpt lat="42.67795" lon="-70.65303"><ele>24</ele></trkpt>      <trkpt lat="42.67798" lon="-70.65291"><ele>24</ele></trkpt>      <trkpt lat="42.67803" lon="-70.65274"><ele>24</ele></trkpt>      <trkpt lat="42.67815" lon="-70.65246"><ele>25</ele></trkpt>      <trkpt lat="42.67830" lon="-70.65213"><ele>25</ele></trkpt>      <trkpt lat="42.67843" lon="-70.65182"><ele>25</ele></trkpt>      <trkpt lat="42.67854" lon="-70.65154"><ele>26</ele></trkpt>      <trkpt lat="42.67862" lon="-70.65133"><ele>26</ele></trkpt>      <trkpt lat="42.67872" lon="-70.65105"><ele>27</ele></trkpt>      <trkpt lat="42.67878" lon="-70.65087"><ele>27</ele></trkpt>      <trkpt lat="42.67883" lon="-70.65075"><ele>28</ele></trkpt>      <trkpt lat="42.67898" lon="-70.65036"><ele>28</ele></trkpt>      <trkpt lat="42.67922" lon="-70.64974"><ele>28</ele></trkpt>      <trkpt lat="42.67935" lon="-70.64944"><ele>26</ele></trkpt>      <trkpt lat="42.67944" lon="-70.64924"><ele>25</ele></trkpt>      <trkpt lat="42.67952" lon="-70.64909"><ele>24</ele></trkpt>      <trkpt lat="42.67976" lon="-70.64862"><ele>23</ele></trkpt>      <trkpt lat="42.68005" lon="-70.64805"><ele>21</ele></trkpt>      <trkpt lat="42.68010" lon="-70.64795"><ele>20</ele></trkpt>      <trkpt lat="42.68020" lon="-70.64776"><ele>20</ele></trkpt>      <trkpt lat="42.68028" lon="-70.64765"><ele>19</ele></trkpt>      <trkpt lat="42.68038" lon="-70.64755"><ele>19</ele></trkpt>      <trkpt lat="42.68098" lon="-70.64718"><ele>19</ele></trkpt>      <trkpt lat="42.68111" lon="-70.64705"><ele>19</ele></trkpt>      <trkpt lat="42.68125" lon="-70.64684"><ele>19</ele></trkpt>      <trkpt lat="42.68146" lon="-70.64653"><ele>19</ele></trkpt>      <trkpt lat="42.68184" lon="-70.64599"><ele>20</ele></trkpt>      <trkpt lat="42.68193" lon="-70.64588"><ele>20</ele></trkpt>      <trkpt lat="42.68201" lon="-70.64577"><ele>20</ele></trkpt>      <trkpt lat="42.68219" lon="-70.64558"><ele>19</ele></trkpt>      <trkpt lat="42.68248" lon="-70.64526"><ele>18</ele></trkpt>      <trkpt lat="42.68265" lon="-70.64506"><ele>17</ele></trkpt>      <trkpt lat="42.68273" lon="-70.64497"><ele>16</ele></trkpt>      <trkpt lat="42.68285" lon="-70.64488"><ele>16</ele></trkpt>      <trkpt lat="42.68301" lon="-70.64472"><ele>15</ele></trkpt>      <trkpt lat="42.68311" lon="-70.64466"><ele>14</ele></trkpt>      <trkpt lat="42.68324" lon="-70.64453"><ele>13</ele></trkpt>      <trkpt lat="42.68331" lon="-70.64439"><ele>13</ele></trkpt>      <trkpt lat="42.68336" lon="-70.64424"><ele>12</ele></trkpt>      <trkpt lat="42.68338" lon="-70.64413"><ele>12</ele></trkpt>      <trkpt lat="42.68338" lon="-70.64402"><ele>11</ele></trkpt>      <trkpt lat="42.68340" lon="-70.64376"><ele>10</ele></trkpt>      <trkpt lat="42.68340" lon="-70.64359"><ele>9</ele></trkpt>      <trkpt lat="42.68342" lon="-70.64338"><ele>9</ele></trkpt>      <trkpt lat="42.68344" lon="-70.64325"><ele>9</ele></trkpt>      <trkpt lat="42.68347" lon="-70.64311"><ele>9</ele></trkpt>      <trkpt lat="42.68351" lon="-70.64297"><ele>9</ele></trkpt>      <trkpt lat="42.68357" lon="-70.64282"><ele>9</ele></trkpt>      <trkpt lat="42.68370" lon="-70.64250"><ele>9</ele></trkpt>      <trkpt lat="42.68379" lon="-70.64231"><ele>9</ele></trkpt>      <trkpt lat="42.68386" lon="-70.64218"><ele>9</ele></trkpt>      <trkpt lat="42.68392" lon="-70.64207"><ele>9</ele></trkpt>      <trkpt lat="42.68405" lon="-70.64192"><ele>9</ele></trkpt>      <trkpt lat="42.68416" lon="-70.64183"><ele>9</ele></trkpt>      <trkpt lat="42.68423" lon="-70.64178"><ele>9</ele></trkpt>      <trkpt lat="42.68430" lon="-70.64174"><ele>9</ele></trkpt>      <trkpt lat="42.68440" lon="-70.64170"><ele>9</ele></trkpt>      <trkpt lat="42.68450" lon="-70.64167"><ele>9</ele></trkpt>      <trkpt lat="42.68462" lon="-70.64163"><ele>9</ele></trkpt>      <trkpt lat="42.68473" lon="-70.64159"><ele>9</ele></trkpt>      <trkpt lat="42.68484" lon="-70.64156"><ele>9</ele></trkpt>      <trkpt lat="42.68492" lon="-70.64152"><ele>9</ele></trkpt>      <trkpt lat="42.68503" lon="-70.64147"><ele>9</ele></trkpt>      <trkpt lat="42.68517" lon="-70.64137"><ele>9</ele></trkpt>      <trkpt lat="42.68529" lon="-70.64126"><ele>9</ele></trkpt>      <trkpt lat="42.68535" lon="-70.64119"><ele>9</ele></trkpt>      <trkpt lat="42.68542" lon="-70.64109"><ele>9</ele></trkpt>      <trkpt lat="42.68557" lon="-70.64090"><ele>9</ele></trkpt>      <trkpt lat="42.68568" lon="-70.64075"><ele>9</ele></trkpt>      <trkpt lat="42.68580" lon="-70.64060"><ele>9</ele></trkpt>      <trkpt lat="42.68602" lon="-70.64028"><ele>8</ele></trkpt>      <trkpt lat="42.68615" lon="-70.64009"><ele>8</ele></trkpt>      <trkpt lat="42.68626" lon="-70.63991"><ele>8</ele></trkpt>      <trkpt lat="42.68645" lon="-70.63961"><ele>7</ele></trkpt>      <trkpt lat="42.68659" lon="-70.63938"><ele>7</ele></trkpt>      <trkpt lat="42.68674" lon="-70.63913"><ele>6</ele></trkpt>      <trkpt lat="42.68690" lon="-70.63887"><ele>4</ele></trkpt>      <trkpt lat="42.68696" lon="-70.63877"><ele>4</ele></trkpt>      <trkpt lat="42.68711" lon="-70.63852"><ele>4</ele></trkpt>      <trkpt lat="42.68724" lon="-70.63830"><ele>4</ele></trkpt>      <trkpt lat="42.68737" lon="-70.63806"><ele>5</ele></trkpt>      <trkpt lat="42.68742" lon="-70.63794"><ele>6</ele></trkpt>      <trkpt lat="42.68747" lon="-70.63775"><ele>7</ele></trkpt>      <trkpt lat="42.68749" lon="-70.63755"><ele>8</ele></trkpt>      <trkpt lat="42.68748" lon="-70.63733"><ele>9</ele></trkpt>      <trkpt lat="42.68743" lon="-70.63712"><ele>10</ele></trkpt>      <trkpt lat="42.68740" lon="-70.63701"><ele>11</ele></trkpt>      <trkpt lat="42.68727" lon="-70.63667"><ele>11</ele></trkpt>      <trkpt lat="42.68720" lon="-70.63652"><ele>12</ele></trkpt>      <trkpt lat="42.68706" lon="-70.63623"><ele>12</ele></trkpt>      <trkpt lat="42.68690" lon="-70.63592"><ele>14</ele></trkpt>      <trkpt lat="42.68678" lon="-70.63563"><ele>14</ele></trkpt>      <trkpt lat="42.68665" lon="-70.63533"><ele>15</ele></trkpt>      <trkpt lat="42.68655" lon="-70.63507"><ele>16</ele></trkpt>      <trkpt lat="42.68645" lon="-70.63473"><ele>18</ele></trkpt>      <trkpt lat="42.68641" lon="-70.63457"><ele>18</ele></trkpt>      <trkpt lat="42.68636" lon="-70.63436"><ele>19</ele></trkpt>      <trkpt lat="42.68634" lon="-70.63417"><ele>20</ele></trkpt>      <trkpt lat="42.68632" lon="-70.63404"><ele>21</ele></trkpt>      <trkpt lat="42.68631" lon="-70.63391"><ele>21</ele></trkpt>      <trkpt lat="42.68629" lon="-70.63355"><ele>22</ele></trkpt>      <trkpt lat="42.68627" lon="-70.63324"><ele>23</ele></trkpt>      <trkpt lat="42.68625" lon="-70.63301"><ele>24</ele></trkpt>      <trkpt lat="42.68621" lon="-70.63285"><ele>24</ele></trkpt>      <trkpt lat="42.68612" lon="-70.63263"><ele>24</ele></trkpt>      <trkpt lat="42.68598" lon="-70.63243"><ele>25</ele></trkpt>      <trkpt lat="42.68587" lon="-70.63233"><ele>25</ele></trkpt>      <trkpt lat="42.68561" lon="-70.63216"><ele>25</ele></trkpt>      <trkpt lat="42.68534" lon="-70.63198"><ele>26</ele></trkpt>      <trkpt lat="42.68516" lon="-70.63185"><ele>26</ele></trkpt>      <trkpt lat="42.68494" lon="-70.63170"><ele>26</ele></trkpt>      <trkpt lat="42.68478" lon="-70.63159"><ele>26</ele></trkpt>      <trkpt lat="42.68459" lon="-70.63150"><ele>27</ele></trkpt>      <trkpt lat="42.68441" lon="-70.63144"><ele>27</ele></trkpt>      <trkpt lat="42.68414" lon="-70.63136"><ele>27</ele></trkpt>      <trkpt lat="42.68396" lon="-70.63134"><ele>27</ele></trkpt>      <trkpt lat="42.68376" lon="-70.63129"><ele>28</ele></trkpt>      <trkpt lat="42.68357" lon="-70.63123"><ele>28</ele></trkpt>      <trkpt lat="42.68337" lon="-70.63115"><ele>28</ele></trkpt>      <trkpt lat="42.68319" lon="-70.63104"><ele>28</ele></trkpt>      <trkpt lat="42.68304" lon="-70.63094"><ele>29</ele></trkpt>      <trkpt lat="42.68290" lon="-70.63087"><ele>29</ele></trkpt>      <trkpt lat="42.68276" lon="-70.63077"><ele>30</ele></trkpt>      <trkpt lat="42.68263" lon="-70.63065"><ele>30</ele></trkpt>      <trkpt lat="42.68245" lon="-70.63038"><ele>30</ele></trkpt>      <trkpt lat="42.68230" lon="-70.63005"><ele>30</ele></trkpt>      <trkpt lat="42.68217" lon="-70.62974"><ele>30</ele></trkpt>      <trkpt lat="42.68205" lon="-70.62946"><ele>30</ele></trkpt>      <trkpt lat="42.68195" lon="-70.62921"><ele>30</ele></trkpt>      <trkpt lat="42.68191" lon="-70.62909"><ele>30</ele></trkpt>      <trkpt lat="42.68186" lon="-70.62891"><ele>30</ele></trkpt>      <trkpt lat="42.68182" lon="-70.62872"><ele>30</ele></trkpt>      <trkpt lat="42.68172" lon="-70.62837"><ele>29</ele></trkpt>      <trkpt lat="42.68166" lon="-70.62815"><ele>29</ele></trkpt>      <trkpt lat="42.68157" lon="-70.62787"><ele>27</ele></trkpt>      <trkpt lat="42.68150" lon="-70.62768"><ele>26</ele></trkpt>      <trkpt lat="42.68134" lon="-70.62736"><ele>24</ele></trkpt>      <trkpt lat="42.68115" lon="-70.62702"><ele>21</ele></trkpt>      <trkpt lat="42.68105" lon="-70.62683"><ele>20</ele></trkpt>      <trkpt lat="42.68099" lon="-70.62674"><ele>19</ele></trkpt>      <trkpt lat="42.68092" lon="-70.62663"><ele>19</ele></trkpt>      <trkpt lat="42.68076" lon="-70.62646"><ele>18</ele></trkpt>      <trkpt lat="42.68050" lon="-70.62630"><ele>18</ele></trkpt>      <trkpt lat="42.68032" lon="-70.62622"><ele>18</ele></trkpt>      <trkpt lat="42.68020" lon="-70.62616"><ele>18</ele></trkpt>      <trkpt lat="42.68000" lon="-70.62601"><ele>17</ele></trkpt>      <trkpt lat="42.67988" lon="-70.62591"><ele>17</ele></trkpt>      <trkpt lat="42.67970" lon="-70.62576"><ele>17</ele></trkpt>      <trkpt lat="42.67950" lon="-70.62560"><ele>17</ele></trkpt>      <trkpt lat="42.67940" lon="-70.62555"><ele>17</ele></trkpt>      <trkpt lat="42.67921" lon="-70.62545"><ele>16</ele></trkpt>      <trkpt lat="42.67906" lon="-70.62537"><ele>15</ele></trkpt>      <trkpt lat="42.67894" lon="-70.62530"><ele>14</ele></trkpt>      <trkpt lat="42.67870" lon="-70.62515"><ele>12</ele></trkpt>      <trkpt lat="42.67830" lon="-70.62488"><ele>8</ele></trkpt>      <trkpt lat="42.67801" lon="-70.62471"><ele>5</ele></trkpt>      <trkpt lat="42.67785" lon="-70.62462"><ele>4</ele></trkpt>      <trkpt lat="42.67773" lon="-70.62455"><ele>3</ele></trkpt>      <trkpt lat="42.67759" lon="-70.62452"><ele>3</ele></trkpt>      <trkpt lat="42.67744" lon="-70.62451"><ele>3</ele></trkpt>      <trkpt lat="42.67726" lon="-70.62452"><ele>3</ele></trkpt>      <trkpt lat="42.67705" lon="-70.62453"><ele>3</ele></trkpt>      <trkpt lat="42.67689" lon="-70.62453"><ele>3</ele></trkpt>      <trkpt lat="42.67672" lon="-70.62451"><ele>3</ele></trkpt>      <trkpt lat="42.67648" lon="-70.62443"><ele>3</ele></trkpt>      <trkpt lat="42.67627" lon="-70.62437"><ele>4</ele></trkpt>      <trkpt lat="42.67612" lon="-70.62436"><ele>4</ele></trkpt>      <trkpt lat="42.67600" lon="-70.62437"><ele>5</ele></trkpt>      <trkpt lat="42.67584" lon="-70.62440"><ele>5</ele></trkpt>      <trkpt lat="42.67573" lon="-70.62440"><ele>6</ele></trkpt>      <trkpt lat="42.67560" lon="-70.62435"><ele>6</ele></trkpt>      <trkpt lat="42.67551" lon="-70.62423"><ele>7</ele></trkpt>      <trkpt lat="42.67543" lon="-70.62414"><ele>7</ele></trkpt>      <trkpt lat="42.67512" lon="-70.62381"><ele>8</ele></trkpt>      <trkpt lat="42.67501" lon="-70.62370"><ele>9</ele></trkpt>      <trkpt lat="42.67490" lon="-70.62360"><ele>9</ele></trkpt>      <trkpt lat="42.67480" lon="-70.62356"><ele>9</ele></trkpt>      <trkpt lat="42.67453" lon="-70.62355"><ele>10</ele></trkpt>      <trkpt lat="42.67427" lon="-70.62357"><ele>10</ele></trkpt>      <trkpt lat="42.67410" lon="-70.62358"><ele>11</ele></trkpt>      <trkpt lat="42.67396" lon="-70.62358"><ele>11</ele></trkpt>      <trkpt lat="42.67380" lon="-70.62355"><ele>12</ele></trkpt>      <trkpt lat="42.67363" lon="-70.62345"><ele>13</ele></trkpt>      <trkpt lat="42.67347" lon="-70.62336"><ele>13</ele></trkpt>      <trkpt lat="42.67325" lon="-70.62323"><ele>14</ele></trkpt>      <trkpt lat="42.67309" lon="-70.62316"><ele>14</ele></trkpt>      <trkpt lat="42.67293" lon="-70.62310"><ele>14</ele></trkpt>      <trkpt lat="42.67262" lon="-70.62301"><ele>14</ele></trkpt>      <trkpt lat="42.67245" lon="-70.62296"><ele>13</ele></trkpt>      <trkpt lat="42.67228" lon="-70.62291"><ele>12</ele></trkpt>      <trkpt lat="42.67210" lon="-70.62285"><ele>11</ele></trkpt>      <trkpt lat="42.67199" lon="-70.62280"><ele>11</ele></trkpt>      <trkpt lat="42.67176" lon="-70.62279"><ele>10</ele></trkpt>      <trkpt lat="42.67167" lon="-70.62280"><ele>10</ele></trkpt>      <trkpt lat="42.67159" lon="-70.62283"><ele>10</ele></trkpt>      <trkpt lat="42.67151" lon="-70.62287"><ele>11</ele></trkpt>      <trkpt lat="42.67143" lon="-70.62295"><ele>12</ele></trkpt>      <trkpt lat="42.67135" lon="-70.62306"><ele>13</ele></trkpt>      <trkpt lat="42.67117" lon="-70.62330"><ele>15</ele></trkpt>      <trkpt lat="42.67102" lon="-70.62350"><ele>16</ele></trkpt>      <trkpt lat="42.67083" lon="-70.62378"><ele>16</ele></trkpt>      <trkpt lat="42.67072" lon="-70.62389"><ele>15</ele></trkpt>      <trkpt lat="42.67059" lon="-70.62399"><ele>14</ele></trkpt>      <trkpt lat="42.67046" lon="-70.62404"><ele>14</ele></trkpt>      <trkpt lat="42.67029" lon="-70.62410"><ele>13</ele></trkpt>      <trkpt lat="42.66984" lon="-70.62422"><ele>11</ele></trkpt>      <trkpt lat="42.66967" lon="-70.62426"><ele>11</ele></trkpt>      <trkpt lat="42.66947" lon="-70.62431"><ele>11</ele></trkpt>      <trkpt lat="42.66911" lon="-70.62441"><ele>11</ele></trkpt>      <trkpt lat="42.66891" lon="-70.62447"><ele>11</ele></trkpt>      <trkpt lat="42.66867" lon="-70.62454"><ele>11</ele></trkpt>      <trkpt lat="42.66836" lon="-70.62463"><ele>10</ele></trkpt>      <trkpt lat="42.66812" lon="-70.62471"><ele>10</ele></trkpt>      <trkpt lat="42.66797" lon="-70.62476"><ele>10</ele></trkpt>      <trkpt lat="42.66774" lon="-70.62485"><ele>10</ele></trkpt>      <trkpt lat="42.66755" lon="-70.62490"><ele>10</ele></trkpt>      <trkpt lat="42.66742" lon="-70.62497"><ele>10</ele></trkpt>      <trkpt lat="42.66731" lon="-70.62505"><ele>10</ele></trkpt>      <trkpt lat="42.66715" lon="-70.62515"><ele>10</ele></trkpt>      <trkpt lat="42.66706" lon="-70.62521"><ele>10</ele></trkpt>      <trkpt lat="42.66697" lon="-70.62524"><ele>10</ele></trkpt>      <trkpt lat="42.66686" lon="-70.62527"><ele>10</ele></trkpt>      <trkpt lat="42.66669" lon="-70.62529"><ele>10</ele></trkpt>      <trkpt lat="42.66641" lon="-70.62527"><ele>10</ele></trkpt>      <trkpt lat="42.66628" lon="-70.62524"><ele>10</ele></trkpt>      <trkpt lat="42.66618" lon="-70.62519"><ele>9</ele></trkpt>      <trkpt lat="42.66608" lon="-70.62514"><ele>9</ele></trkpt>      <trkpt lat="42.66599" lon="-70.62508"><ele>9</ele></trkpt>      <trkpt lat="42.66586" lon="-70.62496"><ele>9</ele></trkpt>      <trkpt lat="42.66567" lon="-70.62483"><ele>9</ele></trkpt>      <trkpt lat="42.66551" lon="-70.62468"><ele>9</ele></trkpt>      <trkpt lat="42.66536" lon="-70.62454"><ele>9</ele></trkpt>      <trkpt lat="42.66519" lon="-70.62441"><ele>9</ele></trkpt>      <trkpt lat="42.66505" lon="-70.62436"><ele>8</ele></trkpt>      <trkpt lat="42.66493" lon="-70.62432"><ele>8</ele></trkpt>      <trkpt lat="42.66479" lon="-70.62429"><ele>8</ele></trkpt>      <trkpt lat="42.66469" lon="-70.62430"><ele>8</ele></trkpt>      <trkpt lat="42.66454" lon="-70.62430"><ele>8</ele></trkpt>      <trkpt lat="42.66437" lon="-70.62431"><ele>8</ele></trkpt>      <trkpt lat="42.66408" lon="-70.62436"><ele>7</ele></trkpt>      <trkpt lat="42.66390" lon="-70.62440"><ele>7</ele></trkpt>      <trkpt lat="42.66374" lon="-70.62442"><ele>7</ele></trkpt>      <trkpt lat="42.66361" lon="-70.62445"><ele>7</ele></trkpt>      <trkpt lat="42.66348" lon="-70.62447"><ele>7</ele></trkpt>      <trkpt lat="42.66329" lon="-70.62462"><ele>7</ele></trkpt>      <trkpt lat="42.66321" lon="-70.62470"><ele>7</ele></trkpt>      <trkpt lat="42.66310" lon="-70.62480"><ele>7</ele></trkpt>      <trkpt lat="42.66301" lon="-70.62490"><ele>7</ele></trkpt>      <trkpt lat="42.66289" lon="-70.62501"><ele>7</ele></trkpt>      <trkpt lat="42.66276" lon="-70.62509"><ele>7</ele></trkpt>      <trkpt lat="42.66253" lon="-70.62520"><ele>7</ele></trkpt>      <trkpt lat="42.66233" lon="-70.62528"><ele>7</ele></trkpt>      <trkpt lat="42.66210" lon="-70.62540"><ele>7</ele></trkpt>      <trkpt lat="42.66190" lon="-70.62555"><ele>7</ele></trkpt>      <trkpt lat="42.66174" lon="-70.62571"><ele>7</ele></trkpt>      <trkpt lat="42.66159" lon="-70.62591"><ele>7</ele></trkpt>      <trkpt lat="42.66134" lon="-70.62618"><ele>7</ele></trkpt>      <trkpt lat="42.66123" lon="-70.62627"><ele>7</ele></trkpt>      <trkpt lat="42.66113" lon="-70.62633"><ele>7</ele></trkpt>      <trkpt lat="42.66103" lon="-70.62639"><ele>7</ele></trkpt>      <trkpt lat="42.66091" lon="-70.62644"><ele>7</ele></trkpt>      <trkpt lat="42.66075" lon="-70.62651"><ele>7</ele></trkpt>      <trkpt lat="42.66059" lon="-70.62657"><ele>8</ele></trkpt>      <trkpt lat="42.66038" lon="-70.62663"><ele>8</ele></trkpt>      <trkpt lat="42.66015" lon="-70.62670"><ele>8</ele></trkpt>      <trkpt lat="42.66001" lon="-70.62673"><ele>8</ele></trkpt>      <trkpt lat="42.65988" lon="-70.62676"><ele>8</ele></trkpt>      <trkpt lat="42.65972" lon="-70.62678"><ele>9</ele></trkpt>      <trkpt lat="42.65961" lon="-70.62678"><ele>10</ele></trkpt>      <trkpt lat="42.65947" lon="-70.62678"><ele>10</ele></trkpt>      <trkpt lat="42.65934" lon="-70.62679"><ele>11</ele></trkpt>      <trkpt lat="42.65912" lon="-70.62679"><ele>12</ele></trkpt>      <trkpt lat="42.65890" lon="-70.62676"><ele>13</ele></trkpt>      <trkpt lat="42.65866" lon="-70.62673"><ele>14</ele></trkpt>      <trkpt lat="42.65836" lon="-70.62664"><ele>15</ele></trkpt>      <trkpt lat="42.65795" lon="-70.62648"><ele>15</ele></trkpt>      <trkpt lat="42.65756" lon="-70.62634"><ele>15</ele></trkpt>      <trkpt lat="42.65743" lon="-70.62632"><ele>15</ele></trkpt>      <trkpt lat="42.65712" lon="-70.62626"><ele>15</ele></trkpt>      <trkpt lat="42.65686" lon="-70.62620"><ele>15</ele></trkpt>      <trkpt lat="42.65662" lon="-70.62606"><ele>15</ele></trkpt>      <trkpt lat="42.65643" lon="-70.62593"><ele>15</ele></trkpt>      <trkpt lat="42.65621" lon="-70.62575"><ele>15</ele></trkpt>      <trkpt lat="42.65608" lon="-70.62562"><ele>15</ele></trkpt>      <trkpt lat="42.65601" lon="-70.62553"><ele>15</ele></trkpt>      <trkpt lat="42.65594" lon="-70.62539"><ele>15</ele></trkpt>      <trkpt lat="42.65581" lon="-70.62515"><ele>15</ele></trkpt>      <trkpt lat="42.65569" lon="-70.62487"><ele>16</ele></trkpt>      <trkpt lat="42.65559" lon="-70.62464"><ele>16</ele></trkpt>      <trkpt lat="42.65543" lon="-70.62432"><ele>16</ele></trkpt>      <trkpt lat="42.65535" lon="-70.62416"><ele>16</ele></trkpt>      <trkpt lat="42.65506" lon="-70.62354"><ele>18</ele></trkpt>      <trkpt lat="42.65489" lon="-70.62315"><ele>19</ele></trkpt>      <trkpt lat="42.65482" lon="-70.62301"><ele>19</ele></trkpt>      <trkpt lat="42.65490" lon="-70.62293"><ele>19</ele></trkpt>      <trkpt lat="42.65499" lon="-70.62277"><ele>19</ele></trkpt>      <trkpt lat="42.65512" lon="-70.62245"><ele>18</ele></trkpt>      <trkpt lat="42.65526" lon="-70.62213"><ele>18</ele></trkpt>      <trkpt lat="42.65548" lon="-70.62168"><ele>18</ele></trkpt>      <trkpt lat="42.65573" lon="-70.62115"><ele>16</ele></trkpt>      <trkpt lat="42.65591" lon="-70.62075"><ele>14</ele></trkpt>      <trkpt lat="42.65603" lon="-70.62049"><ele>14</ele></trkpt>      <trkpt lat="42.65627" lon="-70.62000"><ele>13</ele></trkpt>      <trkpt lat="42.65632" lon="-70.61989"><ele>13</ele></trkpt>      <trkpt lat="42.65649" lon="-70.61952"><ele>13</ele></trkpt>      <trkpt lat="42.65658" lon="-70.61933"><ele>13</ele></trkpt>      <trkpt lat="42.65673" lon="-70.61901"><ele>12</ele></trkpt>      <trkpt lat="42.65678" lon="-70.61889"><ele>11</ele></trkpt>      <trkpt lat="42.65699" lon="-70.61843"><ele>10</ele></trkpt>      <trkpt lat="42.65725" lon="-70.61786"><ele>8</ele></trkpt>      <trkpt lat="42.65744" lon="-70.61749"><ele>6</ele></trkpt>      <trkpt lat="42.65751" lon="-70.61734"><ele>5</ele></trkpt>      <trkpt lat="42.65757" lon="-70.61720"><ele>4</ele></trkpt>      <trkpt lat="42.65763" lon="-70.61708"><ele>4</ele></trkpt>      <trkpt lat="42.65771" lon="-70.61691"><ele>3</ele></trkpt>      <trkpt lat="42.65782" lon="-70.61667"><ele>3</ele></trkpt>      <trkpt lat="42.65789" lon="-70.61649"><ele>3</ele></trkpt>      <trkpt lat="42.65793" lon="-70.61638"><ele>3</ele></trkpt>      <trkpt lat="42.65799" lon="-70.61610"><ele>3</ele></trkpt>      <trkpt lat="42.65780" lon="-70.61585"><ele>3</ele></trkpt>      <trkpt lat="42.65763" lon="-70.61565"><ele>4</ele></trkpt>      <trkpt lat="42.65743" lon="-70.61534"><ele>6</ele></trkpt>      <trkpt lat="42.65728" lon="-70.61501"><ele>8</ele></trkpt>      <trkpt lat="42.65721" lon="-70.61491"><ele>9</ele></trkpt>      <trkpt lat="42.65700" lon="-70.61460"><ele>11</ele></trkpt>      <trkpt lat="42.65685" lon="-70.61438"><ele>13</ele></trkpt>      <trkpt lat="42.65657" lon="-70.61400"><ele>16</ele></trkpt>      <trkpt lat="42.65648" lon="-70.61382"><ele>17</ele></trkpt>      <trkpt lat="42.65640" lon="-70.61363"><ele>18</ele></trkpt>      <trkpt lat="42.65634" lon="-70.61346"><ele>18</ele></trkpt>      <trkpt lat="42.65625" lon="-70.61329"><ele>19</ele></trkpt>      <trkpt lat="42.65618" lon="-70.61314"><ele>19</ele></trkpt>      <trkpt lat="42.65611" lon="-70.61303"><ele>20</ele></trkpt>      <trkpt lat="42.65603" lon="-70.61295"><ele>20</ele></trkpt>      <trkpt lat="42.65594" lon="-70.61286"><ele>20</ele></trkpt>      <trkpt lat="42.65582" lon="-70.61275"><ele>21</ele></trkpt>      <trkpt lat="42.65570" lon="-70.61265"><ele>21</ele></trkpt>      <trkpt lat="42.65555" lon="-70.61254"><ele>22</ele></trkpt>      <trkpt lat="42.65537" lon="-70.61240"><ele>23</ele></trkpt>      <trkpt lat="42.65528" lon="-70.61232"><ele>23</ele></trkpt>      <trkpt lat="42.65521" lon="-70.61223"><ele>24</ele></trkpt>      <trkpt lat="42.65514" lon="-70.61207"><ele>24</ele></trkpt>      <trkpt lat="42.65509" lon="-70.61186"><ele>24</ele></trkpt>      <trkpt lat="42.65507" lon="-70.61171"><ele>24</ele></trkpt>      <trkpt lat="42.65506" lon="-70.61151"><ele>24</ele></trkpt>      <trkpt lat="42.65504" lon="-70.61128"><ele>24</ele></trkpt>      <trkpt lat="42.65503" lon="-70.61108"><ele>24</ele></trkpt>      <trkpt lat="42.65503" lon="-70.61090"><ele>24</ele></trkpt>      <trkpt lat="42.65502" lon="-70.61070"><ele>23</ele></trkpt>      <trkpt lat="42.65502" lon="-70.61053"><ele>23</ele></trkpt>      <trkpt lat="42.65502" lon="-70.61028"><ele>23</ele></trkpt>      <trkpt lat="42.65501" lon="-70.61005"><ele>22</ele></trkpt>      <trkpt lat="42.65499" lon="-70.60979"><ele>22</ele></trkpt>      <trkpt lat="42.65497" lon="-70.60942"><ele>21</ele></trkpt>      <trkpt lat="42.65495" lon="-70.60902"><ele>21</ele></trkpt>      <trkpt lat="42.65493" lon="-70.60864"><ele>21</ele></trkpt>      <trkpt lat="42.65491" lon="-70.60844"><ele>20</ele></trkpt>      <trkpt lat="42.65490" lon="-70.60827"><ele>20</ele></trkpt>      <trkpt lat="42.65487" lon="-70.60813"><ele>20</ele></trkpt>      <trkpt lat="42.65484" lon="-70.60799"><ele>20</ele></trkpt>      <trkpt lat="42.65480" lon="-70.60785"><ele>20</ele></trkpt>      <trkpt lat="42.65472" lon="-70.60753"><ele>20</ele></trkpt>      <trkpt lat="42.65467" lon="-70.60734"><ele>20</ele></trkpt>      <trkpt lat="42.65461" lon="-70.60712"><ele>20</ele></trkpt>      <trkpt lat="42.65458" lon="-70.60695"><ele>20</ele></trkpt>      <trkpt lat="42.65454" lon="-70.60676"><ele>21</ele></trkpt>      <trkpt lat="42.65450" lon="-70.60650"><ele>21</ele></trkpt>      <trkpt lat="42.65444" lon="-70.60618"><ele>22</ele></trkpt>      <trkpt lat="42.65441" lon="-70.60596"><ele>22</ele></trkpt>      <trkpt lat="42.65438" lon="-70.60575"><ele>22</ele></trkpt>      <trkpt lat="42.65433" lon="-70.60540"><ele>23</ele></trkpt>      <trkpt lat="42.65430" lon="-70.60521"><ele>23</ele></trkpt>      <trkpt lat="42.65428" lon="-70.60507"><ele>23</ele></trkpt>      <trkpt lat="42.65423" lon="-70.60469"><ele>24</ele></trkpt>      <trkpt lat="42.65417" lon="-70.60421"><ele>24</ele></trkpt>      <trkpt lat="42.65412" lon="-70.60394"><ele>24</ele></trkpt>      <trkpt lat="42.65408" lon="-70.60375"><ele>24</ele></trkpt>      <trkpt lat="42.65398" lon="-70.60339"><ele>23</ele></trkpt>      <trkpt lat="42.65389" lon="-70.60311"><ele>23</ele></trkpt>      <trkpt lat="42.65381" lon="-70.60289"><ele>23</ele></trkpt>      <trkpt lat="42.65368" lon="-70.60257"><ele>22</ele></trkpt>      <trkpt lat="42.65361" lon="-70.60241"><ele>22</ele></trkpt>      <trkpt lat="42.65349" lon="-70.60217"><ele>22</ele></trkpt>      <trkpt lat="42.65343" lon="-70.60204"><ele>22</ele></trkpt>      <trkpt lat="42.65339" lon="-70.60196"><ele>22</ele></trkpt>      <trkpt lat="42.65328" lon="-70.60176"><ele>22</ele></trkpt>      <trkpt lat="42.65316" lon="-70.60152"><ele>22</ele></trkpt>      <trkpt lat="42.65309" lon="-70.60140"><ele>22</ele></trkpt>      <trkpt lat="42.65304" lon="-70.60131"><ele>21</ele></trkpt>      <trkpt lat="42.65293" lon="-70.60116"><ele>21</ele></trkpt>      <trkpt lat="42.65278" lon="-70.60099"><ele>21</ele></trkpt>      <trkpt lat="42.65266" lon="-70.60085"><ele>21</ele></trkpt>      <trkpt lat="42.65252" lon="-70.60073"><ele>21</ele></trkpt>      <trkpt lat="42.65239" lon="-70.60064"><ele>21</ele></trkpt>      <trkpt lat="42.65225" lon="-70.60055"><ele>21</ele></trkpt>      <trkpt lat="42.65209" lon="-70.60046"><ele>20</ele></trkpt>      <trkpt lat="42.65191" lon="-70.60039"><ele>20</ele></trkpt>      <trkpt lat="42.65165" lon="-70.60028"><ele>20</ele></trkpt>      <trkpt lat="42.65148" lon="-70.60021"><ele>20</ele></trkpt>      <trkpt lat="42.65123" lon="-70.60011"><ele>19</ele></trkpt>      <trkpt lat="42.65109" lon="-70.60003"><ele>19</ele></trkpt>      <trkpt lat="42.65100" lon="-70.59997"><ele>18</ele></trkpt>      <trkpt lat="42.65088" lon="-70.59987"><ele>17</ele></trkpt>      <trkpt lat="42.65079" lon="-70.59976"><ele>17</ele></trkpt>      <trkpt lat="42.65068" lon="-70.59963"><ele>17</ele></trkpt>      <trkpt lat="42.65055" lon="-70.59944"><ele>17</ele></trkpt>      <trkpt lat="42.65044" lon="-70.59929"><ele>17</ele></trkpt>      <trkpt lat="42.65032" lon="-70.59919"><ele>17</ele></trkpt>      <trkpt lat="42.65018" lon="-70.59910"><ele>17</ele></trkpt>      <trkpt lat="42.65001" lon="-70.59902"><ele>17</ele></trkpt>      <trkpt lat="42.64981" lon="-70.59897"><ele>17</ele></trkpt>      <trkpt lat="42.64955" lon="-70.59891"><ele>17</ele></trkpt>      <trkpt lat="42.64944" lon="-70.59888"><ele>17</ele></trkpt>      <trkpt lat="42.64932" lon="-70.59886"><ele>17</ele></trkpt>      <trkpt lat="42.64911" lon="-70.59881"><ele>18</ele></trkpt>      <trkpt lat="42.64894" lon="-70.59878"><ele>18</ele></trkpt>      <trkpt lat="42.64876" lon="-70.59875"><ele>18</ele></trkpt>      <trkpt lat="42.64860" lon="-70.59873"><ele>18</ele></trkpt>      <trkpt lat="42.64836" lon="-70.59871"><ele>18</ele></trkpt>      <trkpt lat="42.64820" lon="-70.59871"><ele>18</ele></trkpt>      <trkpt lat="42.64800" lon="-70.59870"><ele>18</ele></trkpt>      <trkpt lat="42.64780" lon="-70.59869"><ele>18</ele></trkpt>      <trkpt lat="42.64762" lon="-70.59867"><ele>18</ele></trkpt>      <trkpt lat="42.64753" lon="-70.59866"><ele>19</ele></trkpt>      <trkpt lat="42.64736" lon="-70.59864"><ele>19</ele></trkpt>      <trkpt lat="42.64719" lon="-70.59861"><ele>19</ele></trkpt>      <trkpt lat="42.64696" lon="-70.59856"><ele>19</ele></trkpt>      <trkpt lat="42.64676" lon="-70.59854"><ele>19</ele></trkpt>      <trkpt lat="42.64654" lon="-70.59855"><ele>20</ele></trkpt>      <trkpt lat="42.64636" lon="-70.59857"><ele>20</ele></trkpt>      <trkpt lat="42.64620" lon="-70.59862"><ele>20</ele></trkpt>      <trkpt lat="42.64603" lon="-70.59867"><ele>20</ele></trkpt>      <trkpt lat="42.64588" lon="-70.59875"><ele>20</ele></trkpt>      <trkpt lat="42.64573" lon="-70.59884"><ele>20</ele></trkpt>      <trkpt lat="42.64562" lon="-70.59892"><ele>20</ele></trkpt>      <trkpt lat="42.64547" lon="-70.59904"><ele>20</ele></trkpt>      <trkpt lat="42.64540" lon="-70.59910"><ele>20</ele></trkpt>      <trkpt lat="42.64532" lon="-70.59918"><ele>20</ele></trkpt>      <trkpt lat="42.64513" lon="-70.59934"><ele>20</ele></trkpt>      <trkpt lat="42.64498" lon="-70.59947"><ele>21</ele></trkpt>      <trkpt lat="42.64486" lon="-70.59956"><ele>21</ele></trkpt>      <trkpt lat="42.64474" lon="-70.59964"><ele>21</ele></trkpt>      <trkpt lat="42.64461" lon="-70.59971"><ele>21</ele></trkpt>      <trkpt lat="42.64447" lon="-70.59978"><ele>21</ele></trkpt>      <trkpt lat="42.64433" lon="-70.59984"><ele>22</ele></trkpt>      <trkpt lat="42.64416" lon="-70.59989"><ele>22</ele></trkpt>      <trkpt lat="42.64385" lon="-70.59999"><ele>22</ele></trkpt>      <trkpt lat="42.64360" lon="-70.60007"><ele>22</ele></trkpt>      <trkpt lat="42.64338" lon="-70.60013"><ele>23</ele></trkpt>      <trkpt lat="42.64318" lon="-70.60018"><ele>23</ele></trkpt>      <trkpt lat="42.64302" lon="-70.60022"><ele>23</ele></trkpt>      <trkpt lat="42.64284" lon="-70.60025"><ele>24</ele></trkpt>      <trkpt lat="42.64268" lon="-70.60028"><ele>24</ele></trkpt>      <trkpt lat="42.64247" lon="-70.60032"><ele>24</ele></trkpt>      <trkpt lat="42.64226" lon="-70.60035"><ele>24</ele></trkpt>      <trkpt lat="42.64198" lon="-70.60040"><ele>22</ele></trkpt>      <trkpt lat="42.64172" lon="-70.60045"><ele>22</ele></trkpt>      <trkpt lat="42.64152" lon="-70.60049"><ele>22</ele></trkpt>      <trkpt lat="42.64135" lon="-70.60056"><ele>22</ele></trkpt>      <trkpt lat="42.64122" lon="-70.60063"><ele>22</ele></trkpt>      <trkpt lat="42.64112" lon="-70.60067"><ele>22</ele></trkpt>      <trkpt lat="42.64097" lon="-70.60076"><ele>22</ele></trkpt>      <trkpt lat="42.64086" lon="-70.60085"><ele>22</ele></trkpt>      <trkpt lat="42.64072" lon="-70.60097"><ele>22</ele></trkpt>      <trkpt lat="42.64060" lon="-70.60109"><ele>21</ele></trkpt>      <trkpt lat="42.64049" lon="-70.60122"><ele>21</ele></trkpt>      <trkpt lat="42.64037" lon="-70.60139"><ele>20</ele></trkpt>      <trkpt lat="42.64027" lon="-70.60154"><ele>19</ele></trkpt>      <trkpt lat="42.64018" lon="-70.60170"><ele>18</ele></trkpt>      <trkpt lat="42.64009" lon="-70.60191"><ele>17</ele></trkpt>      <trkpt lat="42.64001" lon="-70.60212"><ele>16</ele></trkpt>      <trkpt lat="42.63993" lon="-70.60237"><ele>15</ele></trkpt>      <trkpt lat="42.63982" lon="-70.60273"><ele>15</ele></trkpt>      <trkpt lat="42.63965" lon="-70.60330"><ele>15</ele></trkpt>      <trkpt lat="42.63951" lon="-70.60377"><ele>15</ele></trkpt>      <trkpt lat="42.63943" lon="-70.60401"><ele>15</ele></trkpt>      <trkpt lat="42.63936" lon="-70.60420"><ele>15</ele></trkpt>      <trkpt lat="42.63928" lon="-70.60437"><ele>14</ele></trkpt>      <trkpt lat="42.63920" lon="-70.60454"><ele>13</ele></trkpt>      <trkpt lat="42.63911" lon="-70.60469"><ele>13</ele></trkpt>      <trkpt lat="42.63902" lon="-70.60484"><ele>12</ele></trkpt>      <trkpt lat="42.63891" lon="-70.60498"><ele>11</ele></trkpt>      <trkpt lat="42.63882" lon="-70.60509"><ele>10</ele></trkpt>      <trkpt lat="42.63870" lon="-70.60520"><ele>10</ele></trkpt>      <trkpt lat="42.63860" lon="-70.60529"><ele>9</ele></trkpt>      <trkpt lat="42.63850" lon="-70.60537"><ele>9</ele></trkpt>      <trkpt lat="42.63843" lon="-70.60543"><ele>9</ele></trkpt>      <trkpt lat="42.63819" lon="-70.60558"><ele>8</ele></trkpt>      <trkpt lat="42.63800" lon="-70.60570"><ele>7</ele></trkpt>      <trkpt lat="42.63788" lon="-70.60578"><ele>7</ele></trkpt>      <trkpt lat="42.63765" lon="-70.60593"><ele>6</ele></trkpt>      <trkpt lat="42.63748" lon="-70.60606"><ele>6</ele></trkpt>      <trkpt lat="42.63734" lon="-70.60617"><ele>6</ele></trkpt>      <trkpt lat="42.63716" lon="-70.60637"><ele>7</ele></trkpt>      <trkpt lat="42.63706" lon="-70.60648"><ele>7</ele></trkpt>      <trkpt lat="42.63694" lon="-70.60666"><ele>7</ele></trkpt>      <trkpt lat="42.63682" lon="-70.60683"><ele>7</ele></trkpt>      <trkpt lat="42.63672" lon="-70.60700"><ele>7</ele></trkpt>      <trkpt lat="42.63664" lon="-70.60715"><ele>7</ele></trkpt>      <trkpt lat="42.63655" lon="-70.60733"><ele>7</ele></trkpt>      <trkpt lat="42.63646" lon="-70.60757"><ele>6</ele></trkpt>      <trkpt lat="42.63639" lon="-70.60776"><ele>6</ele></trkpt>      <trkpt lat="42.63633" lon="-70.60797"><ele>5</ele></trkpt>      <trkpt lat="42.63627" lon="-70.60817"><ele>5</ele></trkpt>      <trkpt lat="42.63616" lon="-70.60854"><ele>4</ele></trkpt>      <trkpt lat="42.63613" lon="-70.60866"><ele>4</ele></trkpt>      <trkpt lat="42.63608" lon="-70.60885"><ele>4</ele></trkpt>      <trkpt lat="42.63598" lon="-70.60919"><ele>3</ele></trkpt>      <trkpt lat="42.63587" lon="-70.60958"><ele>3</ele></trkpt>      <trkpt lat="42.63576" lon="-70.60995"><ele>3</ele></trkpt>      <trkpt lat="42.63572" lon="-70.61010"><ele>3</ele></trkpt>      <trkpt lat="42.63566" lon="-70.61029"><ele>3</ele></trkpt>      <trkpt lat="42.63560" lon="-70.61046"><ele>3</ele></trkpt>      <trkpt lat="42.63553" lon="-70.61067"><ele>3</ele></trkpt>      <trkpt lat="42.63545" lon="-70.61086"><ele>3</ele></trkpt>      <trkpt lat="42.63537" lon="-70.61105"><ele>3</ele></trkpt>      <trkpt lat="42.63531" lon="-70.61119"><ele>3</ele></trkpt>      <trkpt lat="42.63511" lon="-70.61160"><ele>3</ele></trkpt>      <trkpt lat="42.63494" lon="-70.61193"><ele>3</ele></trkpt>      <trkpt lat="42.63477" lon="-70.61224"><ele>3</ele></trkpt>      <trkpt lat="42.63452" lon="-70.61266"><ele>3</ele></trkpt>      <trkpt lat="42.63421" lon="-70.61320"><ele>3</ele></trkpt>      <trkpt lat="42.63400" lon="-70.61365"><ele>4</ele></trkpt>      <trkpt lat="42.63385" lon="-70.61398"><ele>4</ele></trkpt>      <trkpt lat="42.63368" lon="-70.61437"><ele>4</ele></trkpt>      <trkpt lat="42.63349" lon="-70.61476"><ele>4</ele></trkpt>      <trkpt lat="42.63325" lon="-70.61528"><ele>5</ele></trkpt>      <trkpt lat="42.63316" lon="-70.61548"><ele>5</ele></trkpt>      <trkpt lat="42.63304" lon="-70.61574"><ele>5</ele></trkpt>      <trkpt lat="42.63286" lon="-70.61610"><ele>6</ele></trkpt>      <trkpt lat="42.63268" lon="-70.61650"><ele>6</ele></trkpt>      <trkpt lat="42.63250" lon="-70.61689"><ele>7</ele></trkpt>      <trkpt lat="42.63231" lon="-70.61737"><ele>7</ele></trkpt>      <trkpt lat="42.63221" lon="-70.61778"><ele>7</ele></trkpt>      <trkpt lat="42.63218" lon="-70.61803"><ele>7</ele></trkpt>      <trkpt lat="42.63215" lon="-70.61830"><ele>7</ele></trkpt>      <trkpt lat="42.63214" lon="-70.61853"><ele>7</ele></trkpt>      <trkpt lat="42.63215" lon="-70.61872"><ele>7</ele></trkpt>      <trkpt lat="42.63217" lon="-70.61902"><ele>6</ele></trkpt>      <trkpt lat="42.63220" lon="-70.61933"><ele>5</ele></trkpt>      <trkpt lat="42.63224" lon="-70.61978"><ele>4</ele></trkpt>      <trkpt lat="42.63225" lon="-70.62018"><ele>3</ele></trkpt>      <trkpt lat="42.63223" lon="-70.62043"><ele>3</ele></trkpt>      <trkpt lat="42.63221" lon="-70.62059"><ele>3</ele></trkpt>      <trkpt lat="42.63215" lon="-70.62092"><ele>3</ele></trkpt>      <trkpt lat="42.63211" lon="-70.62107"><ele>3</ele></trkpt>      <trkpt lat="42.63205" lon="-70.62122"><ele>4</ele></trkpt>      <trkpt lat="42.63195" lon="-70.62143"><ele>4</ele></trkpt>      <trkpt lat="42.63186" lon="-70.62158"><ele>4</ele></trkpt>      <trkpt lat="42.63177" lon="-70.62170"><ele>5</ele></trkpt>      <trkpt lat="42.63151" lon="-70.62198"><ele>6</ele></trkpt>      <trkpt lat="42.63133" lon="-70.62216"><ele>6</ele></trkpt>      <trkpt lat="42.63109" lon="-70.62231"><ele>7</ele></trkpt>      <trkpt lat="42.63087" lon="-70.62242"><ele>8</ele></trkpt>      <trkpt lat="42.63075" lon="-70.62247"><ele>8</ele></trkpt>      <trkpt lat="42.63064" lon="-70.62250"><ele>8</ele></trkpt>      <trkpt lat="42.63043" lon="-70.62254"><ele>8</ele></trkpt>      <trkpt lat="42.63028" lon="-70.62254"><ele>8</ele></trkpt>      <trkpt lat="42.63016" lon="-70.62255"><ele>8</ele></trkpt>      <trkpt lat="42.62982" lon="-70.62253"><ele>8</ele></trkpt>      <trkpt lat="42.62943" lon="-70.62249"><ele>8</ele></trkpt>      <trkpt lat="42.62892" lon="-70.62243"><ele>8</ele></trkpt>      <trkpt lat="42.62882" lon="-70.62242"><ele>8</ele></trkpt>      <trkpt lat="42.62858" lon="-70.62241"><ele>8</ele></trkpt>      <trkpt lat="42.62833" lon="-70.62241"><ele>8</ele></trkpt>      <trkpt lat="42.62806" lon="-70.62246"><ele>8</ele></trkpt>      <trkpt lat="42.62791" lon="-70.62251"><ele>8</ele></trkpt>      <trkpt lat="42.62774" lon="-70.62258"><ele>8</ele></trkpt>      <trkpt lat="42.62760" lon="-70.62267"><ele>8</ele></trkpt>      <trkpt lat="42.62743" lon="-70.62278"><ele>8</ele></trkpt>      <trkpt lat="42.62723" lon="-70.62295"><ele>8</ele></trkpt>      <trkpt lat="42.62711" lon="-70.62306"><ele>8</ele></trkpt>      <trkpt lat="42.62600" lon="-70.62436"><ele>9</ele></trkpt>      <trkpt lat="42.62559" lon="-70.62483"><ele>10</ele></trkpt>      <trkpt lat="42.62541" lon="-70.62504"><ele>10</ele></trkpt>      <trkpt lat="42.62530" lon="-70.62518"><ele>11</ele></trkpt>      <trkpt lat="42.62519" lon="-70.62535"><ele>11</ele></trkpt>      <trkpt lat="42.62509" lon="-70.62552"><ele>11</ele></trkpt>      <trkpt lat="42.62500" lon="-70.62570"><ele>11</ele></trkpt>      <trkpt lat="42.62493" lon="-70.62588"><ele>10</ele></trkpt>      <trkpt lat="42.62428" lon="-70.62745"><ele>5</ele></trkpt>      <trkpt lat="42.62416" lon="-70.62772"><ele>5</ele></trkpt>      <trkpt lat="42.62409" lon="-70.62789"><ele>5</ele></trkpt>      <trkpt lat="42.62396" lon="-70.62816"><ele>5</ele></trkpt>      <trkpt lat="42.62375" lon="-70.62861"><ele>4</ele></trkpt>      <trkpt lat="42.62339" lon="-70.62936"><ele>3</ele></trkpt>      <trkpt lat="42.62334" lon="-70.62946"><ele>2</ele></trkpt>      <trkpt lat="42.62319" lon="-70.62977"><ele>2</ele></trkpt>      <trkpt lat="42.62306" lon="-70.63003"><ele>2</ele></trkpt>      <trkpt lat="42.62295" lon="-70.63028"><ele>2</ele></trkpt>      <trkpt lat="42.62288" lon="-70.63046"><ele>2</ele></trkpt>      <trkpt lat="42.62279" lon="-70.63076"><ele>2</ele></trkpt>      <trkpt lat="42.62271" lon="-70.63106"><ele>2</ele></trkpt>      <trkpt lat="42.62265" lon="-70.63134"><ele>2</ele></trkpt>      <trkpt lat="42.62262" lon="-70.63155"><ele>2</ele></trkpt>      <trkpt lat="42.62261" lon="-70.63177"><ele>2</ele></trkpt>      <trkpt lat="42.62259" lon="-70.63212"><ele>2</ele></trkpt>      <trkpt lat="42.62259" lon="-70.63232"><ele>2</ele></trkpt>      <trkpt lat="42.62261" lon="-70.63261"><ele>2</ele></trkpt>      <trkpt lat="42.62276" lon="-70.63400"><ele>1</ele></trkpt>      <trkpt lat="42.62278" lon="-70.63426"><ele>1</ele></trkpt>      <trkpt lat="42.62280" lon="-70.63438"><ele>1</ele></trkpt>      <trkpt lat="42.62283" lon="-70.63473"><ele>1</ele></trkpt>      <trkpt lat="42.62288" lon="-70.63518"><ele>1</ele></trkpt>      <trkpt lat="42.62291" lon="-70.63545"><ele>2</ele></trkpt>      <trkpt lat="42.62293" lon="-70.63578"><ele>2</ele></trkpt>      <trkpt lat="42.62292" lon="-70.63598"><ele>2</ele></trkpt>      <trkpt lat="42.62291" lon="-70.63622"><ele>2</ele></trkpt>      <trkpt lat="42.62289" lon="-70.63646"><ele>2</ele></trkpt>      <trkpt lat="42.62287" lon="-70.63663"><ele>2</ele></trkpt>      <trkpt lat="42.62284" lon="-70.63680"><ele>2</ele></trkpt>      <trkpt lat="42.62279" lon="-70.63702"><ele>2</ele></trkpt>      <trkpt lat="42.62274" lon="-70.63722"><ele>2</ele></trkpt>      <trkpt lat="42.62265" lon="-70.63747"><ele>2</ele></trkpt>      <trkpt lat="42.62256" lon="-70.63770"><ele>2</ele></trkpt>      <trkpt lat="42.62246" lon="-70.63790"><ele>2</ele></trkpt>      <trkpt lat="42.62239" lon="-70.63804"><ele>2</ele></trkpt>      <trkpt lat="42.62226" lon="-70.63824"><ele>2</ele></trkpt>      <trkpt lat="42.62215" lon="-70.63841"><ele>2</ele></trkpt>      <trkpt lat="42.62203" lon="-70.63856"><ele>2</ele></trkpt>      <trkpt lat="42.62186" lon="-70.63874"><ele>2</ele></trkpt>      <trkpt lat="42.62163" lon="-70.63893"><ele>2</ele></trkpt>      <trkpt lat="42.62154" lon="-70.63899"><ele>2</ele></trkpt>      <trkpt lat="42.62142" lon="-70.63908"><ele>2</ele></trkpt>      <trkpt lat="42.62135" lon="-70.63913"><ele>2</ele></trkpt>      <trkpt lat="42.62123" lon="-70.63919"><ele>2</ele></trkpt>      <trkpt lat="42.62108" lon="-70.63926"><ele>2</ele></trkpt>      <trkpt lat="42.62090" lon="-70.63933"><ele>2</ele></trkpt>      <trkpt lat="42.62074" lon="-70.63940"><ele>2</ele></trkpt>      <trkpt lat="42.62055" lon="-70.63948"><ele>2</ele></trkpt>      <trkpt lat="42.62017" lon="-70.63960"><ele>2</ele></trkpt>      <trkpt lat="42.62000" lon="-70.63964"><ele>2</ele></trkpt>      <trkpt lat="42.61985" lon="-70.63966"><ele>2</ele></trkpt>      <trkpt lat="42.61970" lon="-70.63967"><ele>2</ele></trkpt>      <trkpt lat="42.61957" lon="-70.63966"><ele>2</ele></trkpt>      <trkpt lat="42.61949" lon="-70.63965"><ele>2</ele></trkpt>      <trkpt lat="42.61937" lon="-70.63963"><ele>2</ele></trkpt>      <trkpt lat="42.61889" lon="-70.63949"><ele>2</ele></trkpt>      <trkpt lat="42.61872" lon="-70.63944"><ele>2</ele></trkpt>      <trkpt lat="42.61852" lon="-70.63938"><ele>2</ele></trkpt>      <trkpt lat="42.61844" lon="-70.63936"><ele>2</ele></trkpt>      <trkpt lat="42.61828" lon="-70.63932"><ele>2</ele></trkpt>      <trkpt lat="42.61816" lon="-70.63929"><ele>2</ele></trkpt>      <trkpt lat="42.61794" lon="-70.63919"><ele>3</ele></trkpt>      <trkpt lat="42.61788" lon="-70.63947"><ele>3</ele></trkpt>      <trkpt lat="42.61785" lon="-70.63974"><ele>3</ele></trkpt>      <trkpt lat="42.61780" lon="-70.64028"><ele>3</ele></trkpt>      <trkpt lat="42.61776" lon="-70.64062"><ele>4</ele></trkpt>      <trkpt lat="42.61765" lon="-70.64107"><ele>5</ele></trkpt>      <trkpt lat="42.61761" lon="-70.64120"><ele>5</ele></trkpt>      <trkpt lat="42.61754" lon="-70.64143"><ele>4</ele></trkpt>      <trkpt lat="42.61746" lon="-70.64170"><ele>4</ele></trkpt>      <trkpt lat="42.61700" lon="-70.64327"><ele>6</ele></trkpt>      <trkpt lat="42.61692" lon="-70.64357"><ele>6</ele></trkpt>      <trkpt lat="42.61672" lon="-70.64426"><ele>5</ele></trkpt>      <trkpt lat="42.61669" lon="-70.64438"><ele>5</ele></trkpt>      <trkpt lat="42.61663" lon="-70.64468"><ele>5</ele></trkpt>      <trkpt lat="42.61658" lon="-70.64494"><ele>5</ele></trkpt>      <trkpt lat="42.61648" lon="-70.64524"><ele>5</ele></trkpt>      <trkpt lat="42.61658" lon="-70.64533"><ele>4</ele></trkpt>      <trkpt lat="42.61674" lon="-70.64558"><ele>2</ele></trkpt>      <trkpt lat="42.61688" lon="-70.64576"><ele>2</ele></trkpt>      <trkpt lat="42.61697" lon="-70.64604"><ele>1</ele></trkpt>      <trkpt lat="42.61711" lon="-70.64641"><ele>1</ele></trkpt>      <trkpt lat="42.61722" lon="-70.64674"><ele>1</ele></trkpt>      <trkpt lat="42.61731" lon="-70.64704"><ele>1</ele></trkpt>      <trkpt lat="42.61732" lon="-70.64722"><ele>2</ele></trkpt>      <trkpt lat="42.61731" lon="-70.64771"><ele>3</ele></trkpt>      <trkpt lat="42.61729" lon="-70.64819"><ele>4</ele></trkpt>      <trkpt lat="42.61728" lon="-70.64834"><ele>4</ele></trkpt>      <trkpt lat="42.61726" lon="-70.64884"><ele>4</ele></trkpt>      <trkpt lat="42.61724" lon="-70.64903"><ele>4</ele></trkpt>      <trkpt lat="42.61722" lon="-70.64923"><ele>4</ele></trkpt>      <trkpt lat="42.61720" lon="-70.64947"><ele>4</ele></trkpt>      <trkpt lat="42.61719" lon="-70.64978"><ele>4</ele></trkpt>      <trkpt lat="42.61719" lon="-70.65000"><ele>4</ele></trkpt>      <trkpt lat="42.61718" lon="-70.65046"><ele>4</ele></trkpt>      <trkpt lat="42.61722" lon="-70.65065"><ele>4</ele></trkpt>      <trkpt lat="42.61735" lon="-70.65094"><ele>5</ele></trkpt>      <trkpt lat="42.61742" lon="-70.65109"><ele>5</ele></trkpt>      <trkpt lat="42.61744" lon="-70.65125"><ele>5</ele></trkpt>      <trkpt lat="42.61743" lon="-70.65151"><ele>5</ele></trkpt>      <trkpt lat="42.61738" lon="-70.65175"><ele>4</ele></trkpt>      <trkpt lat="42.61733" lon="-70.65191"><ele>4</ele></trkpt>      <trkpt lat="42.61726" lon="-70.65206"><ele>3</ele></trkpt>      <trkpt lat="42.61716" lon="-70.65215"><ele>3</ele></trkpt>      <trkpt lat="42.61711" lon="-70.65225"><ele>3</ele></trkpt>      <trkpt lat="42.61699" lon="-70.65256"><ele>3</ele></trkpt>      <trkpt lat="42.61690" lon="-70.65278"><ele>3</ele></trkpt>      <trkpt lat="42.61685" lon="-70.65297"><ele>2</ele></trkpt>      <trkpt lat="42.61679" lon="-70.65322"><ele>2</ele></trkpt>      <trkpt lat="42.61672" lon="-70.65353"><ele>2</ele></trkpt>      <trkpt lat="42.61663" lon="-70.65384"><ele>2</ele></trkpt>      <trkpt lat="42.61658" lon="-70.65397"><ele>2</ele></trkpt>      <trkpt lat="42.61652" lon="-70.65412"><ele>2</ele></trkpt>      <trkpt lat="42.61640" lon="-70.65436"><ele>3</ele></trkpt>      <trkpt lat="42.61625" lon="-70.65456"><ele>4</ele></trkpt>      <trkpt lat="42.61601" lon="-70.65487"><ele>5</ele></trkpt>      <trkpt lat="42.61595" lon="-70.65498"><ele>5</ele></trkpt>      <trkpt lat="42.61583" lon="-70.65523"><ele>5</ele></trkpt>      <trkpt lat="42.61573" lon="-70.65545"><ele>5</ele></trkpt>      <trkpt lat="42.61564" lon="-70.65563"><ele>6</ele></trkpt>      <trkpt lat="42.61562" lon="-70.65585"><ele>7</ele></trkpt>      <trkpt lat="42.61560" lon="-70.65610"><ele>8</ele></trkpt>      <trkpt lat="42.61560" lon="-70.65624"><ele>8</ele></trkpt>      <trkpt lat="42.61558" lon="-70.65637"><ele>8</ele></trkpt>      <trkpt lat="42.61548" lon="-70.65716"><ele>8</ele></trkpt>      <trkpt lat="42.61546" lon="-70.65729"><ele>8</ele></trkpt>      <trkpt lat="42.61543" lon="-70.65751"><ele>8</ele></trkpt>      <trkpt lat="42.61540" lon="-70.65771"><ele>8</ele></trkpt>      <trkpt lat="42.61538" lon="-70.65784"><ele>8</ele></trkpt>      <trkpt lat="42.61535" lon="-70.65798"><ele>8</ele></trkpt>      <trkpt lat="42.61531" lon="-70.65813"><ele>8</ele></trkpt>      <trkpt lat="42.61524" lon="-70.65831"><ele>7</ele></trkpt>      <trkpt lat="42.61515" lon="-70.65850"><ele>6</ele></trkpt>      <trkpt lat="42.61506" lon="-70.65862"><ele>5</ele></trkpt>      <trkpt lat="42.61498" lon="-70.65872"><ele>4</ele></trkpt>      <trkpt lat="42.61478" lon="-70.65894"><ele>3</ele></trkpt>      <trkpt lat="42.61470" lon="-70.65901"><ele>2</ele></trkpt>      <trkpt lat="42.61439" lon="-70.65921"><ele>1</ele></trkpt>      <trkpt lat="42.61408" lon="-70.65942"><ele>1</ele></trkpt>      <trkpt lat="42.61383" lon="-70.65960"><ele>1</ele></trkpt>      <trkpt lat="42.61364" lon="-70.65980"><ele>1</ele></trkpt>      <trkpt lat="42.61354" lon="-70.65995"><ele>1</ele></trkpt>      <trkpt lat="42.61345" lon="-70.66011"><ele>2</ele></trkpt>      <trkpt lat="42.61330" lon="-70.66043"><ele>3</ele></trkpt>      <trkpt lat="42.61313" lon="-70.66085"><ele>5</ele></trkpt>      <trkpt lat="42.61309" lon="-70.66095"><ele>5</ele></trkpt>      <trkpt lat="42.61288" lon="-70.66148"><ele>6</ele></trkpt>      <trkpt lat="42.61282" lon="-70.66167"><ele>6</ele></trkpt>      <trkpt lat="42.61278" lon="-70.66179"><ele>6</ele></trkpt>      <trkpt lat="42.61262" lon="-70.66230"><ele>6</ele></trkpt>      <trkpt lat="42.61254" lon="-70.66259"><ele>6</ele></trkpt>      <trkpt lat="42.61251" lon="-70.66280"><ele>6</ele></trkpt>      <trkpt lat="42.61248" lon="-70.66296"><ele>6</ele></trkpt>      <trkpt lat="42.61246" lon="-70.66321"><ele>6</ele></trkpt>      <trkpt lat="42.61250" lon="-70.66385"><ele>6</ele></trkpt>      <trkpt lat="42.61251" lon="-70.66396"><ele>6</ele></trkpt>      <trkpt lat="42.61252" lon="-70.66412"><ele>6</ele></trkpt>      <trkpt lat="42.61252" lon="-70.66430"><ele>6</ele></trkpt>      <trkpt lat="42.61252" lon="-70.66442"><ele>6</ele></trkpt>      <trkpt lat="42.61249" lon="-70.66462"><ele>5</ele></trkpt>      <trkpt lat="42.61242" lon="-70.66486"><ele>5</ele></trkpt>      <trkpt lat="42.61237" lon="-70.66495"><ele>5</ele></trkpt>      <trkpt lat="42.61218" lon="-70.66517"><ele>5</ele></trkpt>      <trkpt lat="42.61196" lon="-70.66540"><ele>5</ele></trkpt>      <trkpt lat="42.61182" lon="-70.66556"><ele>5</ele></trkpt>      <trkpt lat="42.61172" lon="-70.66567"><ele>5</ele></trkpt>      <trkpt lat="42.61161" lon="-70.66581"><ele>5</ele></trkpt>      <trkpt lat="42.61155" lon="-70.66589"><ele>5</ele></trkpt>      <trkpt lat="42.61150" lon="-70.66599"><ele>5</ele></trkpt>      <trkpt lat="42.61141" lon="-70.66616"><ele>6</ele></trkpt>      <trkpt lat="42.61138" lon="-70.66632"><ele>6</ele></trkpt>      <trkpt lat="42.61150" lon="-70.66647"><ele>6</ele></trkpt>      <trkpt lat="42.61170" lon="-70.66660"><ele>6</ele></trkpt>      <trkpt lat="42.61187" lon="-70.66670"><ele>6</ele></trkpt>      <trkpt lat="42.61196" lon="-70.66675"><ele>6</ele></trkpt>      <trkpt lat="42.61207" lon="-70.66689"><ele>7</ele></trkpt>      <trkpt lat="42.61213" lon="-70.66703"><ele>7</ele></trkpt>      <trkpt lat="42.61228" lon="-70.66711"><ele>7</ele></trkpt>      <trkpt lat="42.61255" lon="-70.66731"><ele>9</ele></trkpt>      <trkpt lat="42.61265" lon="-70.66739"><ele>9</ele></trkpt>      <trkpt lat="42.61300" lon="-70.66768"><ele>9</ele></trkpt>      <trkpt lat="42.61312" lon="-70.66778"><ele>10</ele></trkpt>      <trkpt lat="42.61331" lon="-70.66790"><ele>10</ele></trkpt>      <trkpt lat="42.61339" lon="-70.66793"><ele>10</ele></trkpt>      <trkpt lat="42.61355" lon="-70.66799"><ele>10</ele></trkpt>      <trkpt lat="42.61368" lon="-70.66802"><ele>10</ele></trkpt>      <trkpt lat="42.61398" lon="-70.66808"><ele>10</ele></trkpt>      <trkpt lat="42.61410" lon="-70.66809"><ele>11</ele></trkpt>      <trkpt lat="42.61431" lon="-70.66812"><ele>11</ele></trkpt>      <trkpt lat="42.61445" lon="-70.66816"><ele>11</ele></trkpt>      <trkpt lat="42.61454" lon="-70.66820"><ele>11</ele></trkpt>      <trkpt lat="42.61461" lon="-70.66827"><ele>11</ele></trkpt>      <trkpt lat="42.61479" lon="-70.66847"><ele>11</ele></trkpt>      <trkpt lat="42.61489" lon="-70.66854"><ele>11</ele></trkpt>      <trkpt lat="42.61504" lon="-70.66858"><ele>11</ele></trkpt>      <trkpt lat="42.61515" lon="-70.66860"><ele>12</ele></trkpt>      <trkpt lat="42.61524" lon="-70.66860"><ele>12</ele></trkpt>      <trkpt lat="42.61538" lon="-70.66858"><ele>12</ele></trkpt>      <trkpt lat="42.61555" lon="-70.66861"><ele>12</ele></trkpt>      <trkpt lat="42.61572" lon="-70.66868"><ele>13</ele></trkpt>      <trkpt lat="42.61584" lon="-70.66874"><ele>13</ele></trkpt>      <trkpt lat="42.61598" lon="-70.66883"><ele>13</ele></trkpt>      <trkpt lat="42.61613" lon="-70.66892"><ele>13</ele></trkpt>      <trkpt lat="42.61617" lon="-70.66880"><ele>13</ele></trkpt>      <trkpt lat="42.61622" lon="-70.66863"><ele>13</ele></trkpt>      <trkpt lat="42.61625" lon="-70.66853"><ele>12</ele></trkpt>      <trkpt lat="42.61630" lon="-70.66835"><ele>12</ele></trkpt>      <trkpt lat="42.61641" lon="-70.66798"><ele>12</ele></trkpt>      <trkpt lat="42.61645" lon="-70.66776"><ele>12</ele></trkpt>      <trkpt lat="42.61647" lon="-70.66764"><ele>12</ele></trkpt>      <trkpt lat="42.61646" lon="-70.66736"><ele>13</ele></trkpt>      <trkpt lat="42.61642" lon="-70.66709"><ele>13</ele></trkpt>      <trkpt lat="42.61628" lon="-70.66652"><ele>13</ele></trkpt>      <trkpt lat="42.61645" lon="-70.66643"><ele>13</ele></trkpt>      <trkpt lat="42.61650" lon="-70.66626"><ele>13</ele></trkpt>      <trkpt lat="42.61647" lon="-70.66615"><ele>13</ele></trkpt>    </trkseg>  </trk></gpx>