<?xml version="1.0"?><gpx version="1.0" creator="cycle.travel"  xmlns:xsi="http://www.w3.org/2001/XMLSchema-instance"  xmlns="http://www.topografix.com/GPX/1/0"  xsi:schemaLocation="http://www.topografix.com/GPX/1/0 http://www.topografix.com/GPX/1/0/gpx.xsd">  <trk>    <name>Lexington + Lin</name>    <trkseg>      <trkpt lat="42.44789" lon="-71.22649" />      <trkpt lat="42.44790" lon="-71.22648" />      <trkpt lat="42.44797" lon="-71.22671" />      <trkpt lat="42.44803" lon="-71.22690" />      <trkpt lat="42.44810" lon="-71.22710" />      <trkpt lat="42.44831" lon="-71.22772" />      <trkpt lat="42.44840" lon="-71.22785" />      <trkpt lat="42.44847" lon="-71.22800" />      <trkpt lat="42.44858" lon="-71.22821" />      <trkpt lat="42.44842" lon="-71.22841" />      <trkpt lat="42.44836" lon="-71.22850" />      <trkpt lat="42.44826" lon="-71.22862" />      <trkpt lat="42.44818" lon="-71.22872" />      <trkpt lat="42.44813" lon="-71.22863" />      <trkpt lat="42.44804" lon="-71.22846" />      <trkpt lat="42.44788" lon="-71.22815" />      <trkpt lat="42.44781" lon="-71.22801" />      <trkpt lat="42.44758" lon="-71.22759" />      <trkpt lat="42.44741" lon="-71.22725" />      <trkpt lat="42.44735" lon="-71.22715" />      <trkpt lat="42.44727" lon="-71.22722" />      <trkpt lat="42.44717" lon="-71.22732" />      <trkpt lat="42.44702" lon="-71.22746" />      <trkpt lat="42.44665" lon="-71.22780" />      <trkpt lat="42.44646" lon="-71.22797" />      <trkpt lat="42.44640" lon="-71.22803" />      <trkpt lat="42.44616" lon="-71.22823" />      <trkpt lat="42.44607" lon="-71.22831" />      <trkpt lat="42.44596" lon="-71.22841" />      <trkpt lat="42.44587" lon="-71.22849" />      <trkpt lat="42.44571" lon="-71.22856" />      <trkpt lat="42.44561" lon="-71.22860" />      <trkpt lat="42.44549" lon="-71.22864" />      <trkpt lat="42.44542" lon="-71.22867" />      <trkpt lat="42.44526" lon="-71.22872" />      <trkpt lat="42.44518" lon="-71.22875" />      <trkpt lat="42.44508" lon="-71.22879" />      <trkpt lat="42.44490" lon="-71.22886" />      <trkpt lat="42.44467" lon="-71.22893" />      <trkpt lat="42.44454" lon="-71.22898" />      <trkpt lat="42.44419" lon="-71.22915" />      <trkpt lat="42.44403" lon="-71.22927" />      <trkpt lat="42.44395" lon="-71.22933" />      <trkpt lat="42.44387" lon="-71.22941" />      <trkpt lat="42.44377" lon="-71.22950" />      <trkpt lat="42.44362" lon="-71.22962" />      <trkpt lat="42.44346" lon="-71.22976" />      <trkpt lat="42.44329" lon="-71.22990" />      <trkpt lat="42.44316" lon="-71.23001" />      <trkpt lat="42.44307" lon="-71.23009" />      <trkpt lat="42.44293" lon="-71.23021" />      <trkpt lat="42.44279" lon="-71.23033" />      <trkpt lat="42.44261" lon="-71.23050" />      <trkpt lat="42.44235" lon="-71.23077" />      <trkpt lat="42.44224" lon="-71.23089" />      <trkpt lat="42.44202" lon="-71.23111" />      <trkpt lat="42.44189" lon="-71.23127" />      <trkpt lat="42.44164" lon="-71.23157" />      <trkpt lat="42.44147" lon="-71.23179" />      <trkpt lat="42.44138" lon="-71.23191" />      <trkpt lat="42.44118" lon="-71.23215" />      <trkpt lat="42.44103" lon="-71.23233" />      <trkpt lat="42.44094" lon="-71.23244" />      <trkpt lat="42.44084" lon="-71.23257" />      <trkpt lat="42.44075" lon="-71.23267" />      <trkpt lat="42.44052" lon="-71.23288" />      <trkpt lat="42.44034" lon="-71.23301" />      <trkpt lat="42.44021" lon="-71.23309" />      <trkpt lat="42.44003" lon="-71.23318" />      <trkpt lat="42.43995" lon="-71.23321" />      <trkpt lat="42.43968" lon="-71.23332" />      <trkpt lat="42.43944" lon="-71.23341" />      <trkpt lat="42.43928" lon="-71.23353" />      <trkpt lat="42.43913" lon="-71.23363" />      <trkpt lat="42.43893" lon="-71.23380" />      <trkpt lat="42.43881" lon="-71.23392" />      <trkpt lat="42.43874" lon="-71.23398" />      <trkpt lat="42.43865" lon="-71.23408" />      <trkpt lat="42.43848" lon="-71.23426" />      <trkpt lat="42.43820" lon="-71.23456" />      <trkpt lat="42.43810" lon="-71.23466" />      <trkpt lat="42.43801" lon="-71.23474" />      <trkpt lat="42.43785" lon="-71.23483" />      <trkpt lat="42.43774" lon="-71.23486" />      <trkpt lat="42.43757" lon="-71.23487" />      <trkpt lat="42.43741" lon="-71.23487" />      <trkpt lat="42.43726" lon="-71.23485" />      <trkpt lat="42.43703" lon="-71.23481" />      <trkpt lat="42.43651" lon="-71.23475" />      <trkpt lat="42.43625" lon="-71.23472" />      <trkpt lat="42.43623" lon="-71.23489" />      <trkpt lat="42.43609" lon="-71.23493" />      <trkpt lat="42.43600" lon="-71.23503" />      <trkpt lat="42.43587" lon="-71.23505" />      <trkpt lat="42.43586" lon="-71.23521" />      <trkpt lat="42.43584" lon="-71.23536" />      <trkpt lat="42.43572" lon="-71.23618" />      <trkpt lat="42.43567" lon="-71.23650" />      <trkpt lat="42.43562" lon="-71.23677" />      <trkpt lat="42.43560" lon="-71.23688" />      <trkpt lat="42.43556" lon="-71.23705" />      <trkpt lat="42.43552" lon="-71.23720" />      <trkpt lat="42.43545" lon="-71.23744" />      <trkpt lat="42.43517" lon="-71.23838" />      <trkpt lat="42.43504" lon="-71.23880" />      <trkpt lat="42.43490" lon="-71.23929" />      <trkpt lat="42.43480" lon="-71.23963" />      <trkpt lat="42.43474" lon="-71.23981" />      <trkpt lat="42.43455" lon="-71.24047" />      <trkpt lat="42.43437" lon="-71.24109" />      <trkpt lat="42.43430" lon="-71.24142" />      <trkpt lat="42.43429" lon="-71.24159" />      <trkpt lat="42.43421" lon="-71.24165" />      <trkpt lat="42.43361" lon="-71.24220" />      <trkpt lat="42.43327" lon="-71.24252" />      <trkpt lat="42.43252" lon="-71.24322" />      <trkpt lat="42.43206" lon="-71.24363" />      <trkpt lat="42.43194" lon="-71.24373" />      <trkpt lat="42.43186" lon="-71.24380" />      <trkpt lat="42.43128" lon="-71.24431" />      <trkpt lat="42.43105" lon="-71.24450" />      <trkpt lat="42.43070" lon="-71.24480" />      <trkpt lat="42.43043" lon="-71.24502" />      <trkpt lat="42.42998" lon="-71.24541" />      <trkpt lat="42.42987" lon="-71.24550" />      <trkpt lat="42.42978" lon="-71.24558" />      <trkpt lat="42.42941" lon="-71.24590" />      <trkpt lat="42.42923" lon="-71.24605" />      <trkpt lat="42.42884" lon="-71.24638" />      <trkpt lat="42.42848" lon="-71.24667" />      <trkpt lat="42.42827" lon="-71.24685" />      <trkpt lat="42.42781" lon="-71.24723" />      <trkpt lat="42.42772" lon="-71.24731" />      <trkpt lat="42.42732" lon="-71.24763" />      <trkpt lat="42.42715" lon="-71.24780" />      <trkpt lat="42.42707" lon="-71.24787" />      <trkpt lat="42.42690" lon="-71.24808" />      <trkpt lat="42.42672" lon="-71.24835" />      <trkpt lat="42.42663" lon="-71.24851" />      <trkpt lat="42.42653" lon="-71.24868" />      <trkpt lat="42.42640" lon="-71.24894" />      <trkpt lat="42.42621" lon="-71.24926" />      <trkpt lat="42.42611" lon="-71.24944" />      <trkpt lat="42.42604" lon="-71.24955" />      <trkpt lat="42.42597" lon="-71.24965" />      <trkpt lat="42.42589" lon="-71.24977" />      <trkpt lat="42.42580" lon="-71.24988" />      <trkpt lat="42.42573" lon="-71.24996" />      <trkpt lat="42.42563" lon="-71.25005" />      <trkpt lat="42.42551" lon="-71.25015" />      <trkpt lat="42.42543" lon="-71.25021" />      <trkpt lat="42.42529" lon="-71.25031" />      <trkpt lat="42.42520" lon="-71.25038" />      <trkpt lat="42.42509" lon="-71.25045" />      <trkpt lat="42.42496" lon="-71.25052" />      <trkpt lat="42.42484" lon="-71.25058" />      <trkpt lat="42.42464" lon="-71.25067" />      <trkpt lat="42.42450" lon="-71.25072" />      <trkpt lat="42.42424" lon="-71.25082" />      <trkpt lat="42.42364" lon="-71.25105" />      <trkpt lat="42.42307" lon="-71.25126" />      <trkpt lat="42.42297" lon="-71.25130" />      <trkpt lat="42.42286" lon="-71.25133" />      <trkpt lat="42.42276" lon="-71.25136" />      <trkpt lat="42.42261" lon="-71.25138" />      <trkpt lat="42.42245" lon="-71.25140" />      <trkpt lat="42.42237" lon="-71.25140" />      <trkpt lat="42.42221" lon="-71.25140" />      <trkpt lat="42.42191" lon="-71.25138" />      <trkpt lat="42.42175" lon="-71.25136" />      <trkpt lat="42.42157" lon="-71.25135" />      <trkpt lat="42.42128" lon="-71.25133" />      <trkpt lat="42.42113" lon="-71.25132" />      <trkpt lat="42.42097" lon="-71.25130" />      <trkpt lat="42.42080" lon="-71.25130" />      <trkpt lat="42.42069" lon="-71.25131" />      <trkpt lat="42.42060" lon="-71.25132" />      <trkpt lat="42.42046" lon="-71.25133" />      <trkpt lat="42.41994" lon="-71.25142" />      <trkpt lat="42.41942" lon="-71.25151" />      <trkpt lat="42.41928" lon="-71.25153" />      <trkpt lat="42.41871" lon="-71.25163" />      <trkpt lat="42.41855" lon="-71.25166" />      <trkpt lat="42.41845" lon="-71.25168" />      <trkpt lat="42.41823" lon="-71.25173" />      <trkpt lat="42.41814" lon="-71.25176" />      <trkpt lat="42.41806" lon="-71.25179" />      <trkpt lat="42.41798" lon="-71.25182" />      <trkpt lat="42.41782" lon="-71.25190" />      <trkpt lat="42.41773" lon="-71.25194" />      <trkpt lat="42.41757" lon="-71.25203" />      <trkpt lat="42.41728" lon="-71.25221" />      <trkpt lat="42.41657" lon="-71.25267" />      <trkpt lat="42.41644" lon="-71.25275" />      <trkpt lat="42.41590" lon="-71.25307" />      <trkpt lat="42.41582" lon="-71.25312" />      <trkpt lat="42.41568" lon="-71.25320" />      <trkpt lat="42.41553" lon="-71.25329" />      <trkpt lat="42.41542" lon="-71.25334" />      <trkpt lat="42.41527" lon="-71.25340" />      <trkpt lat="42.41513" lon="-71.25343" />      <trkpt lat="42.41496" lon="-71.25345" />      <trkpt lat="42.41484" lon="-71.25345" />      <trkpt lat="42.41455" lon="-71.25345" />      <trkpt lat="42.41440" lon="-71.25345" />      <trkpt lat="42.41461" lon="-71.25435" />      <trkpt lat="42.41472" lon="-71.25481" />      <trkpt lat="42.41477" lon="-71.25499" />      <trkpt lat="42.41508" lon="-71.25626" />      <trkpt lat="42.41515" lon="-71.25655" />      <trkpt lat="42.41522" lon="-71.25687" />      <trkpt lat="42.41541" lon="-71.25765" />      <trkpt lat="42.41567" lon="-71.25867" />      <trkpt lat="42.41570" lon="-71.25879" />      <trkpt lat="42.41576" lon="-71.25902" />      <trkpt lat="42.41582" lon="-71.25923" />      <trkpt lat="42.41587" lon="-71.25939" />      <trkpt lat="42.41591" lon="-71.25952" />      <trkpt lat="42.41599" lon="-71.25977" />      <trkpt lat="42.41622" lon="-71.26043" />      <trkpt lat="42.41631" lon="-71.26072" />      <trkpt lat="42.41653" lon="-71.26147" />      <trkpt lat="42.41668" lon="-71.26201" />      <trkpt lat="42.41687" lon="-71.26268" />      <trkpt lat="42.41692" lon="-71.26283" />      <trkpt lat="42.41728" lon="-71.26412" />      <trkpt lat="42.41739" lon="-71.26450" />      <trkpt lat="42.41748" lon="-71.26478" />      <trkpt lat="42.41753" lon="-71.26490" />      <trkpt lat="42.41760" lon="-71.26501" />      <trkpt lat="42.41773" lon="-71.26519" />      <trkpt lat="42.41796" lon="-71.26545" />      <trkpt lat="42.41817" lon="-71.26569" />      <trkpt lat="42.41854" lon="-71.26609" />      <trkpt lat="42.41881" lon="-71.26640" />      <trkpt lat="42.41900" lon="-71.26661" />      <trkpt lat="42.41915" lon="-71.26675" />      <trkpt lat="42.41935" lon="-71.26693" />      <trkpt lat="42.41949" lon="-71.26706" />      <trkpt lat="42.41959" lon="-71.26717" />      <trkpt lat="42.41966" lon="-71.26727" />      <trkpt lat="42.41975" lon="-71.26740" />      <trkpt lat="42.41985" lon="-71.26755" />      <trkpt lat="42.41996" lon="-71.26773" />      <trkpt lat="42.42006" lon="-71.26790" />      <trkpt lat="42.42043" lon="-71.26861" />      <trkpt lat="42.42057" lon="-71.26887" />      <trkpt lat="42.42072" lon="-71.26916" />      <trkpt lat="42.42077" lon="-71.26926" />      <trkpt lat="42.42085" lon="-71.26942" />      <trkpt lat="42.42091" lon="-71.26954" />      <trkpt lat="42.42102" lon="-71.26978" />      <trkpt lat="42.42179" lon="-71.27151" />      <trkpt lat="42.42187" lon="-71.27169" />      <trkpt lat="42.42195" lon="-71.27191" />      <trkpt lat="42.42206" lon="-71.27222" />      <trkpt lat="42.42242" lon="-71.27322" />      <trkpt lat="42.42272" lon="-71.27407" />      <trkpt lat="42.42283" lon="-71.27437" />      <trkpt lat="42.42288" lon="-71.27454" />      <trkpt lat="42.42291" lon="-71.27471" />      <trkpt lat="42.42293" lon="-71.27491" />      <trkpt lat="42.42295" lon="-71.27544" />      <trkpt lat="42.42296" lon="-71.27585" />      <trkpt lat="42.42297" lon="-71.27615" />      <trkpt lat="42.42298" lon="-71.27649" />      <trkpt lat="42.42299" lon="-71.27690" />      <trkpt lat="42.42299" lon="-71.27702" />      <trkpt lat="42.42298" lon="-71.27717" />      <trkpt lat="42.42295" lon="-71.27750" />      <trkpt lat="42.42292" lon="-71.27779" />      <trkpt lat="42.42284" lon="-71.27827" />      <trkpt lat="42.42279" lon="-71.27861" />      <trkpt lat="42.42274" lon="-71.27886" />      <trkpt lat="42.42270" lon="-71.27916" />      <trkpt lat="42.42269" lon="-71.27930" />      <trkpt lat="42.42267" lon="-71.27959" />      <trkpt lat="42.42261" lon="-71.28020" />      <trkpt lat="42.42259" lon="-71.28040" />      <trkpt lat="42.42257" lon="-71.28062" />      <trkpt lat="42.42255" lon="-71.28081" />      <trkpt lat="42.42254" lon="-71.28095" />      <trkpt lat="42.42252" lon="-71.28110" />      <trkpt lat="42.42250" lon="-71.28124" />      <trkpt lat="42.42248" lon="-71.28150" />      <trkpt lat="42.42247" lon="-71.28172" />      <trkpt lat="42.42248" lon="-71.28196" />      <trkpt lat="42.42251" lon="-71.28225" />      <trkpt lat="42.42252" lon="-71.28237" />      <trkpt lat="42.42256" lon="-71.28271" />      <trkpt lat="42.42262" lon="-71.28331" />      <trkpt lat="42.42269" lon="-71.28390" />      <trkpt lat="42.42272" lon="-71.28411" />      <trkpt lat="42.42276" lon="-71.28451" />      <trkpt lat="42.42280" lon="-71.28490" />      <trkpt lat="42.42282" lon="-71.28520" />      <trkpt lat="42.42282" lon="-71.28562" />      <trkpt lat="42.42284" lon="-71.28597" />      <trkpt lat="42.42286" lon="-71.28624" />      <trkpt lat="42.42289" lon="-71.28653" />      <trkpt lat="42.42295" lon="-71.28690" />      <trkpt lat="42.42304" lon="-71.28730" />      <trkpt lat="42.42306" lon="-71.28743" />      <trkpt lat="42.42310" lon="-71.28761" />      <trkpt lat="42.42313" lon="-71.28783" />      <trkpt lat="42.42314" lon="-71.28805" />      <trkpt lat="42.42313" lon="-71.28829" />      <trkpt lat="42.42310" lon="-71.28855" />      <trkpt lat="42.42307" lon="-71.28883" />      <trkpt lat="42.42303" lon="-71.28903" />      <trkpt lat="42.42301" lon="-71.28922" />      <trkpt lat="42.42301" lon="-71.28942" />      <trkpt lat="42.42303" lon="-71.28959" />      <trkpt lat="42.42305" lon="-71.28974" />      <trkpt lat="42.42310" lon="-71.28987" />      <trkpt lat="42.42324" lon="-71.29035" />      <trkpt lat="42.42331" lon="-71.29060" />      <trkpt lat="42.42334" lon="-71.29080" />      <trkpt lat="42.42336" lon="-71.29100" />      <trkpt lat="42.42338" lon="-71.29126" />      <trkpt lat="42.42343" lon="-71.29229" />      <trkpt lat="42.42347" lon="-71.29290" />      <trkpt lat="42.42348" lon="-71.29316" />      <trkpt lat="42.42349" lon="-71.29329" />      <trkpt lat="42.42350" lon="-71.29341" />      <trkpt lat="42.42352" lon="-71.29358" />      <trkpt lat="42.42355" lon="-71.29376" />      <trkpt lat="42.42358" lon="-71.29388" />      <trkpt lat="42.42363" lon="-71.29407" />      <trkpt lat="42.42369" lon="-71.29426" />      <trkpt lat="42.42375" lon="-71.29442" />      <trkpt lat="42.42382" lon="-71.29459" />      <trkpt lat="42.42389" lon="-71.29478" />      <trkpt lat="42.42419" lon="-71.29556" />      <trkpt lat="42.42432" lon="-71.29587" />      <trkpt lat="42.42444" lon="-71.29618" />      <trkpt lat="42.42466" lon="-71.29664" />      <trkpt lat="42.42483" lon="-71.29697" />      <trkpt lat="42.42496" lon="-71.29722" />      <trkpt lat="42.42505" lon="-71.29744" />      <trkpt lat="42.42509" lon="-71.29760" />      <trkpt lat="42.42512" lon="-71.29786" />      <trkpt lat="42.42522" lon="-71.29885" />      <trkpt lat="42.42525" lon="-71.29919" />      <trkpt lat="42.42527" lon="-71.29937" />      <trkpt lat="42.42539" lon="-71.30028" />      <trkpt lat="42.42544" lon="-71.30072" />      <trkpt lat="42.42553" lon="-71.30154" />      <trkpt lat="42.42566" lon="-71.30253" />      <trkpt lat="42.42567" lon="-71.30266" />      <trkpt lat="42.42577" lon="-71.30351" />      <trkpt lat="42.42579" lon="-71.30372" />      <trkpt lat="42.42582" lon="-71.30388" />      <trkpt lat="42.42590" lon="-71.30409" />      <trkpt lat="42.42597" lon="-71.30436" />      <trkpt lat="42.42608" lon="-71.30471" />      <trkpt lat="42.42613" lon="-71.30488" />      <trkpt lat="42.42617" lon="-71.30503" />      <trkpt lat="42.42623" lon="-71.30525" />      <trkpt lat="42.42626" lon="-71.30541" />      <trkpt lat="42.42629" lon="-71.30557" />      <trkpt lat="42.42632" lon="-71.30579" />      <trkpt lat="42.42633" lon="-71.30604" />      <trkpt lat="42.42633" lon="-71.30634" />      <trkpt lat="42.42634" lon="-71.30653" />      <trkpt lat="42.42633" lon="-71.30692" />      <trkpt lat="42.42633" lon="-71.30715" />      <trkpt lat="42.42634" lon="-71.30738" />      <trkpt lat="42.42636" lon="-71.30754" />      <trkpt lat="42.42637" lon="-71.30767" />      <trkpt lat="42.42646" lon="-71.30797" />      <trkpt lat="42.42657" lon="-71.30828" />      <trkpt lat="42.42677" lon="-71.30872" />      <trkpt lat="42.42688" lon="-71.30900" />      <trkpt lat="42.42696" lon="-71.30924" />      <trkpt lat="42.42703" lon="-71.30952" />      <trkpt lat="42.42712" lon="-71.30978" />      <trkpt lat="42.42723" lon="-71.30999" />      <trkpt lat="42.42742" lon="-71.31025" />      <trkpt lat="42.42756" lon="-71.31043" />      <trkpt lat="42.42773" lon="-71.31064" />      <trkpt lat="42.42784" lon="-71.31080" />      <trkpt lat="42.42789" lon="-71.31090" />      <trkpt lat="42.42797" lon="-71.31106" />      <trkpt lat="42.42801" lon="-71.31115" />      <trkpt lat="42.42810" lon="-71.31139" />      <trkpt lat="42.42818" lon="-71.31161" />      <trkpt lat="42.42822" lon="-71.31184" />      <trkpt lat="42.42830" lon="-71.31232" />      <trkpt lat="42.42833" lon="-71.31254" />      <trkpt lat="42.42835" lon="-71.31269" />      <trkpt lat="42.42840" lon="-71.31299" />      <trkpt lat="42.42843" lon="-71.31311" />      <trkpt lat="42.42850" lon="-71.31347" />      <trkpt lat="42.42856" lon="-71.31370" />      <trkpt lat="42.42862" lon="-71.31403" />      <trkpt lat="42.42871" lon="-71.31445" />      <trkpt lat="42.42881" lon="-71.31494" />      <trkpt lat="42.42885" lon="-71.31515" />      <trkpt lat="42.42889" lon="-71.31544" />      <trkpt lat="42.42876" lon="-71.31556" />      <trkpt lat="42.42860" lon="-71.31571" />      <trkpt lat="42.42851" lon="-71.31586" />      <trkpt lat="42.42842" lon="-71.31609" />      <trkpt lat="42.42820" lon="-71.31673" />      <trkpt lat="42.42801" lon="-71.31729" />      <trkpt lat="42.42797" lon="-71.31742" />      <trkpt lat="42.42792" lon="-71.31757" />      <trkpt lat="42.42774" lon="-71.31812" />      <trkpt lat="42.42752" lon="-71.31880" />      <trkpt lat="42.42739" lon="-71.31909" />      <trkpt lat="42.42725" lon="-71.31938" />      <trkpt lat="42.42721" lon="-71.31947" />      <trkpt lat="42.42703" lon="-71.31984" />      <trkpt lat="42.42683" lon="-71.32026" />      <trkpt lat="42.42667" lon="-71.32064" />      <trkpt lat="42.42656" lon="-71.32098" />      <trkpt lat="42.42655" lon="-71.32108" />      <trkpt lat="42.42654" lon="-71.32133" />      <trkpt lat="42.42654" lon="-71.32152" />      <trkpt lat="42.42656" lon="-71.32181" />      <trkpt lat="42.42657" lon="-71.32200" />      <trkpt lat="42.42660" lon="-71.32229" />      <trkpt lat="42.42662" lon="-71.32250" />      <trkpt lat="42.42665" lon="-71.32272" />      <trkpt lat="42.42670" lon="-71.32286" />      <trkpt lat="42.42680" lon="-71.32301" />      <trkpt lat="42.42691" lon="-71.32311" />      <trkpt lat="42.42715" lon="-71.32325" />      <trkpt lat="42.42751" lon="-71.32344" />      <trkpt lat="42.42780" lon="-71.32359" />      <trkpt lat="42.42787" lon="-71.32365" />      <trkpt lat="42.42795" lon="-71.32382" />      <trkpt lat="42.42796" lon="-71.32411" />      <trkpt lat="42.42786" lon="-71.32464" />      <trkpt lat="42.42778" lon="-71.32500" />      <trkpt lat="42.42769" lon="-71.32547" />      <trkpt lat="42.42766" lon="-71.32561" />      <trkpt lat="42.42762" lon="-71.32585" />      <trkpt lat="42.42761" lon="-71.32604" />      <trkpt lat="42.42763" lon="-71.32625" />      <trkpt lat="42.42770" lon="-71.32663" />      <trkpt lat="42.42775" lon="-71.32689" />      <trkpt lat="42.42782" lon="-71.32730" />      <trkpt lat="42.42788" lon="-71.32762" />      <trkpt lat="42.42791" lon="-71.32773" />      <trkpt lat="42.42798" lon="-71.32809" />      <trkpt lat="42.42810" lon="-71.32865" />      <trkpt lat="42.42818" lon="-71.32902" />      <trkpt lat="42.42821" lon="-71.32917" />      <trkpt lat="42.42828" lon="-71.32944" />      <trkpt lat="42.42832" lon="-71.32957" />      <trkpt lat="42.42839" lon="-71.32974" />      <trkpt lat="42.42850" lon="-71.32995" />      <trkpt lat="42.42863" lon="-71.33014" />      <trkpt lat="42.42880" lon="-71.33034" />      <trkpt lat="42.42897" lon="-71.33055" />      <trkpt lat="42.42928" lon="-71.33091" />      <trkpt lat="42.42941" lon="-71.33109" />      <trkpt lat="42.42953" lon="-71.33131" />      <trkpt lat="42.42962" lon="-71.33149" />      <trkpt lat="42.42976" lon="-71.33178" />      <trkpt lat="42.43007" lon="-71.33246" />      <trkpt lat="42.43030" lon="-71.33298" />      <trkpt lat="42.43036" lon="-71.33310" />      <trkpt lat="42.43070" lon="-71.33385" />      <trkpt lat="42.43093" lon="-71.33436" />      <trkpt lat="42.43105" lon="-71.33462" />      <trkpt lat="42.43112" lon="-71.33477" />      <trkpt lat="42.43121" lon="-71.33470" />      <trkpt lat="42.43138" lon="-71.33456" />      <trkpt lat="42.43156" lon="-71.33444" />      <trkpt lat="42.43178" lon="-71.33433" />      <trkpt lat="42.43194" lon="-71.33431" />      <trkpt lat="42.43207" lon="-71.33434" />      <trkpt lat="42.43225" lon="-71.33444" />      <trkpt lat="42.43240" lon="-71.33456" />      <trkpt lat="42.43256" lon="-71.33477" />      <trkpt lat="42.43268" lon="-71.33496" />      <trkpt lat="42.43286" lon="-71.33522" />      <trkpt lat="42.43303" lon="-71.33548" />      <trkpt lat="42.43327" lon="-71.33571" />      <trkpt lat="42.43348" lon="-71.33582" />      <trkpt lat="42.43374" lon="-71.33586" />      <trkpt lat="42.43393" lon="-71.33588" />      <trkpt lat="42.43414" lon="-71.33587" />      <trkpt lat="42.43436" lon="-71.33586" />      <trkpt lat="42.43462" lon="-71.33583" />      <trkpt lat="42.43490" lon="-71.33571" />      <trkpt lat="42.43526" lon="-71.33554" />      <trkpt lat="42.43549" lon="-71.33540" />      <trkpt lat="42.43564" lon="-71.33533" />      <trkpt lat="42.43591" lon="-71.33516" />      <trkpt lat="42.43609" lon="-71.33505" />      <trkpt lat="42.43628" lon="-71.33492" />      <trkpt lat="42.43647" lon="-71.33480" />      <trkpt lat="42.43663" lon="-71.33467" />      <trkpt lat="42.43681" lon="-71.33450" />      <trkpt lat="42.43693" lon="-71.33438" />      <trkpt lat="42.43708" lon="-71.33422" />      <trkpt lat="42.43724" lon="-71.33408" />      <trkpt lat="42.43734" lon="-71.33402" />      <trkpt lat="42.43757" lon="-71.33390" />      <trkpt lat="42.43812" lon="-71.33368" />      <trkpt lat="42.43851" lon="-71.33355" />      <trkpt lat="42.43881" lon="-71.33351" />      <trkpt lat="42.43909" lon="-71.33353" />      <trkpt lat="42.43922" lon="-71.33356" />      <trkpt lat="42.43942" lon="-71.33364" />      <trkpt lat="42.43952" lon="-71.33368" />      <trkpt lat="42.43963" lon="-71.33374" />      <trkpt lat="42.43974" lon="-71.33383" />      <trkpt lat="42.43991" lon="-71.33400" />      <trkpt lat="42.44003" lon="-71.33414" />      <trkpt lat="42.44014" lon="-71.33428" />      <trkpt lat="42.44027" lon="-71.33446" />      <trkpt lat="42.44039" lon="-71.33466" />      <trkpt lat="42.44079" lon="-71.33533" />      <trkpt lat="42.44088" lon="-71.33547" />      <trkpt lat="42.44119" lon="-71.33600" />      <trkpt lat="42.44128" lon="-71.33615" />      <trkpt lat="42.44173" lon="-71.33692" />      <trkpt lat="42.44184" lon="-71.33708" />      <trkpt lat="42.44221" lon="-71.33772" />      <trkpt lat="42.44253" lon="-71.33820" />      <trkpt lat="42.44267" lon="-71.33839" />      <trkpt lat="42.44310" lon="-71.33897" />      <trkpt lat="42.44338" lon="-71.33929" />      <trkpt lat="42.44347" lon="-71.33940" />      <trkpt lat="42.44373" lon="-71.33964" />      <trkpt lat="42.44393" lon="-71.33979" />      <trkpt lat="42.44405" lon="-71.33988" />      <trkpt lat="42.44421" lon="-71.34001" />      <trkpt lat="42.44438" lon="-71.34012" />      <trkpt lat="42.44453" lon="-71.34022" />      <trkpt lat="42.44475" lon="-71.34037" />      <trkpt lat="42.44494" lon="-71.34048" />      <trkpt lat="42.44538" lon="-71.34078" />      <trkpt lat="42.44562" lon="-71.34095" />      <trkpt lat="42.44570" lon="-71.34101" />      <trkpt lat="42.44640" lon="-71.34156" />      <trkpt lat="42.44682" lon="-71.34184" />      <trkpt lat="42.44722" lon="-71.34206" />      <trkpt lat="42.44760" lon="-71.34226" />      <trkpt lat="42.44798" lon="-71.34246" />      <trkpt lat="42.44835" lon="-71.34266" />      <trkpt lat="42.44861" lon="-71.34281" />      <trkpt lat="42.44874" lon="-71.34289" />      <trkpt lat="42.44887" lon="-71.34295" />      <trkpt lat="42.44920" lon="-71.34312" />      <trkpt lat="42.44918" lon="-71.34331" />      <trkpt lat="42.44922" lon="-71.34351" />      <trkpt lat="42.44972" lon="-71.34443" />      <trkpt lat="42.45016" lon="-71.34524" />      <trkpt lat="42.45053" lon="-71.34593" />      <trkpt lat="42.45090" lon="-71.34662" />      <trkpt lat="42.45119" lon="-71.34714" />      <trkpt lat="42.45147" lon="-71.34766" />      <trkpt lat="42.45158" lon="-71.34785" />      <trkpt lat="42.45205" lon="-71.34873" />      <trkpt lat="42.45213" lon="-71.34888" />      <trkpt lat="42.45221" lon="-71.34902" />      <trkpt lat="42.45226" lon="-71.34911" />      <trkpt lat="42.45257" lon="-71.34966" />      <trkpt lat="42.45264" lon="-71.34979" />      <trkpt lat="42.45293" lon="-71.35032" />      <trkpt lat="42.45312" lon="-71.35066" />      <trkpt lat="42.45325" lon="-71.35091" />      <trkpt lat="42.45332" lon="-71.35104" />      <trkpt lat="42.45340" lon="-71.35118" />      <trkpt lat="42.45363" lon="-71.35163" />      <trkpt lat="42.45386" lon="-71.35207" />      <trkpt lat="42.45420" lon="-71.35268" />      <trkpt lat="42.45431" lon="-71.35287" />      <trkpt lat="42.45440" lon="-71.35304" />      <trkpt lat="42.45453" lon="-71.35328" />      <trkpt lat="42.45480" lon="-71.35382" />      <trkpt lat="42.45494" lon="-71.35405" />      <trkpt lat="42.45511" lon="-71.35435" />      <trkpt lat="42.45532" lon="-71.35477" />      <trkpt lat="42.45577" lon="-71.35558" />      <trkpt lat="42.45591" lon="-71.35583" />      <trkpt lat="42.45598" lon="-71.35596" />      <trkpt lat="42.45603" lon="-71.35606" />      <trkpt lat="42.45615" lon="-71.35627" />      <trkpt lat="42.45621" lon="-71.35637" />      <trkpt lat="42.45632" lon="-71.35656" />      <trkpt lat="42.45649" lon="-71.35688" />      <trkpt lat="42.45655" lon="-71.35698" />      <trkpt lat="42.45664" lon="-71.35715" />      <trkpt lat="42.45672" lon="-71.35726" />      <trkpt lat="42.45684" lon="-71.35745" />      <trkpt lat="42.45696" lon="-71.35762" />      <trkpt lat="42.45706" lon="-71.35779" />      <trkpt lat="42.45713" lon="-71.35789" />      <trkpt lat="42.45730" lon="-71.35812" />      <trkpt lat="42.45743" lon="-71.35823" />      <trkpt lat="42.45773" lon="-71.35843" />      <trkpt lat="42.45818" lon="-71.35874" />      <trkpt lat="42.45837" lon="-71.35886" />      <trkpt lat="42.45846" lon="-71.35891" />      <trkpt lat="42.45856" lon="-71.35895" />      <trkpt lat="42.45866" lon="-71.35899" />      <trkpt lat="42.45867" lon="-71.35888" />      <trkpt lat="42.45875" lon="-71.35830" />      <trkpt lat="42.45878" lon="-71.35800" />      <trkpt lat="42.45881" lon="-71.35760" />      <trkpt lat="42.45885" lon="-71.35718" />      <trkpt lat="42.45887" lon="-71.35694" />      <trkpt lat="42.45889" lon="-71.35674" />      <trkpt lat="42.45894" lon="-71.35620" />      <trkpt lat="42.45896" lon="-71.35594" />      <trkpt lat="42.45904" lon="-71.35521" />      <trkpt lat="42.45905" lon="-71.35503" />      <trkpt lat="42.45908" lon="-71.35477" />      <trkpt lat="42.45913" lon="-71.35413" />      <trkpt lat="42.45917" lon="-71.35380" />      <trkpt lat="42.45921" lon="-71.35339" />      <trkpt lat="42.45921" lon="-71.35328" />      <trkpt lat="42.45924" lon="-71.35291" />      <trkpt lat="42.45926" lon="-71.35274" />      <trkpt lat="42.45928" lon="-71.35260" />      <trkpt lat="42.45931" lon="-71.35246" />      <trkpt lat="42.45934" lon="-71.35234" />      <trkpt lat="42.45940" lon="-71.35213" />      <trkpt lat="42.45946" lon="-71.35191" />      <trkpt lat="42.45954" lon="-71.35163" />      <trkpt lat="42.45965" lon="-71.35124" />      <trkpt lat="42.45968" lon="-71.35114" />      <trkpt lat="42.45981" lon="-71.35065" />      <trkpt lat="42.45988" lon="-71.35043" />      <trkpt lat="42.45990" lon="-71.35031" />      <trkpt lat="42.45990" lon="-71.35019" />      <trkpt lat="42.46004" lon="-71.34970" />      <trkpt lat="42.46008" lon="-71.34957" />      <trkpt lat="42.46011" lon="-71.34945" />      <trkpt lat="42.46016" lon="-71.34928" />      <trkpt lat="42.46021" lon="-71.34908" />      <trkpt lat="42.46032" lon="-71.34872" />      <trkpt lat="42.46041" lon="-71.34860" />      <trkpt lat="42.46055" lon="-71.34866" />      <trkpt lat="42.46067" lon="-71.34878" />      <trkpt lat="42.46074" lon="-71.34883" />      <trkpt lat="42.46082" lon="-71.34874" />      <trkpt lat="42.46090" lon="-71.34860" />      <trkpt lat="42.46112" lon="-71.34820" />      <trkpt lat="42.46121" lon="-71.34803" />      <trkpt lat="42.46130" lon="-71.34788" />      <trkpt lat="42.46142" lon="-71.34767" />      <trkpt lat="42.46165" lon="-71.34724" />      <trkpt lat="42.46174" lon="-71.34711" />      <trkpt lat="42.46182" lon="-71.34701" />      <trkpt lat="42.46186" lon="-71.34692" />      <trkpt lat="42.46187" lon="-71.34618" />      <trkpt lat="42.46188" lon="-71.34579" />      <trkpt lat="42.46190" lon="-71.34561" />      <trkpt lat="42.46193" lon="-71.34544" />      <trkpt lat="42.46208" lon="-71.34482" />      <trkpt lat="42.46222" lon="-71.34438" />      <trkpt lat="42.46271" lon="-71.34308" />      <trkpt lat="42.46287" lon="-71.34264" />      <trkpt lat="42.46313" lon="-71.34195" />      <trkpt lat="42.46376" lon="-71.34019" />      <trkpt lat="42.46443" lon="-71.33839" />      <trkpt lat="42.46479" lon="-71.33753" />      <trkpt lat="42.46505" lon="-71.33699" />      <trkpt lat="42.46513" lon="-71.33683" />      <trkpt lat="42.46557" lon="-71.33592" />      <trkpt lat="42.46569" lon="-71.33569" />      <trkpt lat="42.46617" lon="-71.33470" />      <trkpt lat="42.46670" lon="-71.33365" />      <trkpt lat="42.46695" lon="-71.33313" />      <trkpt lat="42.46716" lon="-71.33273" />      <trkpt lat="42.46734" lon="-71.33236" />      <trkpt lat="42.46745" lon="-71.33214" />      <trkpt lat="42.46830" lon="-71.33053" />      <trkpt lat="42.46845" lon="-71.33016" />      <trkpt lat="42.46861" lon="-71.32964" />      <trkpt lat="42.46873" lon="-71.32913" />      <trkpt lat="42.46892" lon="-71.32831" />      <trkpt lat="42.46905" lon="-71.32775" />      <trkpt lat="42.46913" lon="-71.32739" />      <trkpt lat="42.46931" lon="-71.32664" />      <trkpt lat="42.46966" lon="-71.32543" />      <trkpt lat="42.47001" lon="-71.32422" />      <trkpt lat="42.47014" lon="-71.32383" />      <trkpt lat="42.47022" lon="-71.32369" />      <trkpt lat="42.47037" lon="-71.32351" />      <trkpt lat="42.47045" lon="-71.32342" />      <trkpt lat="42.47069" lon="-71.32322" />      <trkpt lat="42.47090" lon="-71.32303" />      <trkpt lat="42.47103" lon="-71.32292" />      <trkpt lat="42.47154" lon="-71.32247" />      <trkpt lat="42.47172" lon="-71.32232" />      <trkpt lat="42.47181" lon="-71.32223" />      <trkpt lat="42.47206" lon="-71.32199" />      <trkpt lat="42.47243" lon="-71.32163" />      <trkpt lat="42.47259" lon="-71.32146" />      <trkpt lat="42.47279" lon="-71.32125" />      <trkpt lat="42.47293" lon="-71.32111" />      <trkpt lat="42.47318" lon="-71.32091" />      <trkpt lat="42.47341" lon="-71.32079" />      <trkpt lat="42.47368" lon="-71.32066" />      <trkpt lat="42.47388" lon="-71.32059" />      <trkpt lat="42.47415" lon="-71.32046" />      <trkpt lat="42.47431" lon="-71.32037" />      <trkpt lat="42.47438" lon="-71.32032" />      <trkpt lat="42.47464" lon="-71.32011" />      <trkpt lat="42.47477" lon="-71.31995" />      <trkpt lat="42.47501" lon="-71.31960" />      <trkpt lat="42.47520" lon="-71.31926" />      <trkpt lat="42.47541" lon="-71.31893" />      <trkpt lat="42.47573" lon="-71.31844" />      <trkpt lat="42.47589" lon="-71.31819" />      <trkpt lat="42.47605" lon="-71.31796" />      <trkpt lat="42.47639" lon="-71.31737" />      <trkpt lat="42.47655" lon="-71.31713" />      <trkpt lat="42.47668" lon="-71.31694" />      <trkpt lat="42.47680" lon="-71.31682" />      <trkpt lat="42.47702" lon="-71.31658" />      <trkpt lat="42.47711" lon="-71.31650" />      <trkpt lat="42.47720" lon="-71.31644" />      <trkpt lat="42.47730" lon="-71.31636" />      <trkpt lat="42.47741" lon="-71.31628" />      <trkpt lat="42.47752" lon="-71.31622" />      <trkpt lat="42.47769" lon="-71.31613" />      <trkpt lat="42.47778" lon="-71.31608" />      <trkpt lat="42.47808" lon="-71.31592" />      <trkpt lat="42.47825" lon="-71.31581" />      <trkpt lat="42.47849" lon="-71.31564" />      <trkpt lat="42.47878" lon="-71.31544" />      <trkpt lat="42.47892" lon="-71.31536" />      <trkpt lat="42.47927" lon="-71.31514" />      <trkpt lat="42.47935" lon="-71.31508" />      <trkpt lat="42.47954" lon="-71.31495" />      <trkpt lat="42.47963" lon="-71.31489" />      <trkpt lat="42.47970" lon="-71.31484" />      <trkpt lat="42.47981" lon="-71.31476" />      <trkpt lat="42.47989" lon="-71.31470" />      <trkpt lat="42.47999" lon="-71.31461" />      <trkpt lat="42.48007" lon="-71.31452" />      <trkpt lat="42.48035" lon="-71.31417" />      <trkpt lat="42.48046" lon="-71.31397" />      <trkpt lat="42.48056" lon="-71.31374" />      <trkpt lat="42.48064" lon="-71.31352" />      <trkpt lat="42.48071" lon="-71.31324" />      <trkpt lat="42.48079" lon="-71.31282" />      <trkpt lat="42.48087" lon="-71.31235" />      <trkpt lat="42.48091" lon="-71.31215" />      <trkpt lat="42.48102" lon="-71.31153" />      <trkpt lat="42.48108" lon="-71.31114" />      <trkpt lat="42.48115" lon="-71.31061" />      <trkpt lat="42.48118" lon="-71.31014" />      <trkpt lat="42.48119" lon="-71.30991" />      <trkpt lat="42.48120" lon="-71.30964" />      <trkpt lat="42.48122" lon="-71.30913" />      <trkpt lat="42.48126" lon="-71.30877" />      <trkpt lat="42.48132" lon="-71.30848" />      <trkpt lat="42.48138" lon="-71.30818" />      <trkpt lat="42.48147" lon="-71.30787" />      <trkpt lat="42.48160" lon="-71.30741" />      <trkpt lat="42.48171" lon="-71.30706" />      <trkpt lat="42.48179" lon="-71.30678" />      <trkpt lat="42.48211" lon="-71.30584" />      <trkpt lat="42.48233" lon="-71.30524" />      <trkpt lat="42.48278" lon="-71.30394" />      <trkpt lat="42.48298" lon="-71.30336" />      <trkpt lat="42.48340" lon="-71.30197" />      <trkpt lat="42.48334" lon="-71.30196" />      <trkpt lat="42.48388" lon="-71.30001" />      <trkpt lat="42.48407" lon="-71.29958" />      <trkpt lat="42.48419" lon="-71.29931" />      <trkpt lat="42.48432" lon="-71.29907" />      <trkpt lat="42.48475" lon="-71.29833" />      <trkpt lat="42.48505" lon="-71.29783" />      <trkpt lat="42.48530" lon="-71.29739" />      <trkpt lat="42.48570" lon="-71.29669" />      <trkpt lat="42.48587" lon="-71.29641" />      <trkpt lat="42.48604" lon="-71.29617" />      <trkpt lat="42.48619" lon="-71.29598" />      <trkpt lat="42.48638" lon="-71.29577" />      <trkpt lat="42.48660" lon="-71.29549" />      <trkpt lat="42.48705" lon="-71.29494" />      <trkpt lat="42.48728" lon="-71.29469" />      <trkpt lat="42.48740" lon="-71.29454" />      <trkpt lat="42.48754" lon="-71.29437" />      <trkpt lat="42.48771" lon="-71.29418" />      <trkpt lat="42.48786" lon="-71.29398" />      <trkpt lat="42.48805" lon="-71.29363" />      <trkpt lat="42.48812" lon="-71.29342" />      <trkpt lat="42.48821" lon="-71.29324" />      <trkpt lat="42.48833" lon="-71.29296" />      <trkpt lat="42.48843" lon="-71.29275" />      <trkpt lat="42.48856" lon="-71.29246" />      <trkpt lat="42.48870" lon="-71.29222" />      <trkpt lat="42.48882" lon="-71.29204" />      <trkpt lat="42.48896" lon="-71.29184" />      <trkpt lat="42.48914" lon="-71.29166" />      <trkpt lat="42.48935" lon="-71.29145" />      <trkpt lat="42.48948" lon="-71.29136" />      <trkpt lat="42.48960" lon="-71.29132" />      <trkpt lat="42.48983" lon="-71.29120" />      <trkpt lat="42.49014" lon="-71.29110" />      <trkpt lat="42.49053" lon="-71.29098" />      <trkpt lat="42.49064" lon="-71.29095" />      <trkpt lat="42.49072" lon="-71.29093" />      <trkpt lat="42.49096" lon="-71.29085" />      <trkpt lat="42.49114" lon="-71.29079" />      <trkpt lat="42.49144" lon="-71.29065" />      <trkpt lat="42.49182" lon="-71.29047" />      <trkpt lat="42.49194" lon="-71.29038" />      <trkpt lat="42.49207" lon="-71.29032" />      <trkpt lat="42.49217" lon="-71.29026" />      <trkpt lat="42.49228" lon="-71.29017" />      <trkpt lat="42.49240" lon="-71.29002" />      <trkpt lat="42.49254" lon="-71.28982" />      <trkpt lat="42.49259" lon="-71.28970" />      <trkpt lat="42.49264" lon="-71.28952" />      <trkpt lat="42.49269" lon="-71.28930" />      <trkpt lat="42.49273" lon="-71.28892" />      <trkpt lat="42.49278" lon="-71.28853" />      <trkpt lat="42.49285" lon="-71.28811" />      <trkpt lat="42.49294" lon="-71.28767" />      <trkpt lat="42.49299" lon="-71.28739" />      <trkpt lat="42.49306" lon="-71.28710" />      <trkpt lat="42.49314" lon="-71.28665" />      <trkpt lat="42.49317" lon="-71.28653" />      <trkpt lat="42.49328" lon="-71.28594" />      <trkpt lat="42.49336" lon="-71.28554" />      <trkpt lat="42.49346" lon="-71.28511" />      <trkpt lat="42.49350" lon="-71.28490" />      <trkpt lat="42.49352" lon="-71.28471" />      <trkpt lat="42.49353" lon="-71.28451" />      <trkpt lat="42.49353" lon="-71.28436" />      <trkpt lat="42.49351" lon="-71.28421" />      <trkpt lat="42.49348" lon="-71.28404" />      <trkpt lat="42.49342" lon="-71.28382" />      <trkpt lat="42.49332" lon="-71.28341" />      <trkpt lat="42.49324" lon="-71.28311" />      <trkpt lat="42.49336" lon="-71.28306" />      <trkpt lat="42.49330" lon="-71.28282" />      <trkpt lat="42.49317" lon="-71.28287" />      <trkpt lat="42.49313" lon="-71.28267" />      <trkpt lat="42.49300" lon="-71.28227" />      <trkpt lat="42.49295" lon="-71.28211" />      <trkpt lat="42.49290" lon="-71.28198" />      <trkpt lat="42.49278" lon="-71.28162" />      <trkpt lat="42.49257" lon="-71.28105" />      <trkpt lat="42.49253" lon="-71.28093" />      <trkpt lat="42.49242" lon="-71.28061" />      <trkpt lat="42.49237" lon="-71.28050" />      <trkpt lat="42.49229" lon="-71.28028" />      <trkpt lat="42.49218" lon="-71.28001" />      <trkpt lat="42.49210" lon="-71.27988" />      <trkpt lat="42.49182" lon="-71.27917" />      <trkpt lat="42.49178" lon="-71.27904" />      <trkpt lat="42.49167" lon="-71.27911" />      <trkpt lat="42.49143" lon="-71.27923" />      <trkpt lat="42.49134" lon="-71.27927" />      <trkpt lat="42.49118" lon="-71.27933" />      <trkpt lat="42.49108" lon="-71.27937" />      <trkpt lat="42.49097" lon="-71.27938" />      <trkpt lat="42.49078" lon="-71.27937" />      <trkpt lat="42.49043" lon="-71.27930" />      <trkpt lat="42.48983" lon="-71.27918" />      <trkpt lat="42.48928" lon="-71.27904" />      <trkpt lat="42.48870" lon="-71.27889" />      <trkpt lat="42.48806" lon="-71.27870" />      <trkpt lat="42.48793" lon="-71.27866" />      <trkpt lat="42.48777" lon="-71.27861" />      <trkpt lat="42.48776" lon="-71.27868" />      <trkpt lat="42.48741" lon="-71.27856" />      <trkpt lat="42.48720" lon="-71.27848" />      <trkpt lat="42.48692" lon="-71.27832" />      <trkpt lat="42.48675" lon="-71.27821" />      <trkpt lat="42.48653" lon="-71.27806" />      <trkpt lat="42.48645" lon="-71.27800" />      <trkpt lat="42.48635" lon="-71.27792" />      <trkpt lat="42.48621" lon="-71.27784" />      <trkpt lat="42.48602" lon="-71.27775" />      <trkpt lat="42.48595" lon="-71.27765" />      <trkpt lat="42.48600" lon="-71.27745" />      <trkpt lat="42.48590" lon="-71.27737" />      <trkpt lat="42.48584" lon="-71.27729" />      <trkpt lat="42.48585" lon="-71.27694" />      <trkpt lat="42.48584" lon="-71.27655" />      <trkpt lat="42.48581" lon="-71.27617" />      <trkpt lat="42.48574" lon="-71.27564" />      <trkpt lat="42.48564" lon="-71.27528" />      <trkpt lat="42.48555" lon="-71.27493" />      <trkpt lat="42.48546" lon="-71.27470" />      <trkpt lat="42.48530" lon="-71.27428" />      <trkpt lat="42.48516" lon="-71.27402" />      <trkpt lat="42.48501" lon="-71.27377" />      <trkpt lat="42.48472" lon="-71.27340" />      <trkpt lat="42.48436" lon="-71.27297" />      <trkpt lat="42.48397" lon="-71.27252" />      <trkpt lat="42.48317" lon="-71.27163" />      <trkpt lat="42.48260" lon="-71.27100" />      <trkpt lat="42.48201" lon="-71.27034" />      <trkpt lat="42.48052" lon="-71.26869" />      <trkpt lat="42.48032" lon="-71.26846" />      <trkpt lat="42.47986" lon="-71.26795" />      <trkpt lat="42.47957" lon="-71.26762" />      <trkpt lat="42.47943" lon="-71.26747" />      <trkpt lat="42.47934" lon="-71.26738" />      <trkpt lat="42.47905" lon="-71.26706" />      <trkpt lat="42.47604" lon="-71.26373" />      <trkpt lat="42.47593" lon="-71.26361" />      <trkpt lat="42.47586" lon="-71.26352" />      <trkpt lat="42.47574" lon="-71.26339" />      <trkpt lat="42.47555" lon="-71.26319" />      <trkpt lat="42.47487" lon="-71.26244" />      <trkpt lat="42.47345" lon="-71.26082" />      <trkpt lat="42.47333" lon="-71.26083" />      <trkpt lat="42.47323" lon="-71.26082" />      <trkpt lat="42.47319" lon="-71.26062" />      <trkpt lat="42.47315" lon="-71.26053" />      <trkpt lat="42.47309" lon="-71.26042" />      <trkpt lat="42.47292" lon="-71.26023" />      <trkpt lat="42.47268" lon="-71.25997" />      <trkpt lat="42.47259" lon="-71.25988" />      <trkpt lat="42.47246" lon="-71.25969" />      <trkpt lat="42.47208" lon="-71.25916" />      <trkpt lat="42.47164" lon="-71.25836" />      <trkpt lat="42.47137" lon="-71.25779" />      <trkpt lat="42.46863" lon="-71.25183" />      <trkpt lat="42.46810" lon="-71.25057" />      <trkpt lat="42.46768" lon="-71.24965" />      <trkpt lat="42.46741" lon="-71.24909" />      <trkpt lat="42.46694" lon="-71.24812" />      <trkpt lat="42.46662" lon="-71.24756" />      <trkpt lat="42.46634" lon="-71.24703" />      <trkpt lat="42.46590" lon="-71.24635" />      <trkpt lat="42.46560" lon="-71.24595" />      <trkpt lat="42.46527" lon="-71.24552" />      <trkpt lat="42.46374" lon="-71.24374" />      <trkpt lat="42.46365" lon="-71.24364" />      <trkpt lat="42.46322" lon="-71.24311" />      <trkpt lat="42.46288" lon="-71.24264" />      <trkpt lat="42.46276" lon="-71.24247" />      <trkpt lat="42.46228" lon="-71.24168" />      <trkpt lat="42.46186" lon="-71.24074" />      <trkpt lat="42.46147" lon="-71.23953" />      <trkpt lat="42.46142" lon="-71.23933" />      <trkpt lat="42.46135" lon="-71.23875" />      <trkpt lat="42.46127" lon="-71.23807" />      <trkpt lat="42.46108" lon="-71.23615" />      <trkpt lat="42.46098" lon="-71.23555" />      <trkpt lat="42.46092" lon="-71.23532" />      <trkpt lat="42.46080" lon="-71.23478" />      <trkpt lat="42.46057" lon="-71.23413" />      <trkpt lat="42.46022" lon="-71.23347" />      <trkpt lat="42.45984" lon="-71.23292" />      <trkpt lat="42.45946" lon="-71.23247" />      <trkpt lat="42.45901" lon="-71.23211" />      <trkpt lat="42.45888" lon="-71.23204" />      <trkpt lat="42.45877" lon="-71.23195" />      <trkpt lat="42.45860" lon="-71.23186" />      <trkpt lat="42.45841" lon="-71.23177" />      <trkpt lat="42.45820" lon="-71.23169" />      <trkpt lat="42.45800" lon="-71.23159" />      <trkpt lat="42.45778" lon="-71.23152" />      <trkpt lat="42.45754" lon="-71.23148" />      <trkpt lat="42.45707" lon="-71.23142" />      <trkpt lat="42.45661" lon="-71.23135" />      <trkpt lat="42.45561" lon="-71.23120" />      <trkpt lat="42.45512" lon="-71.23113" />      <trkpt lat="42.45353" lon="-71.23088" />      <trkpt lat="42.45315" lon="-71.23082" />      <trkpt lat="42.45204" lon="-71.23065" />      <trkpt lat="42.45188" lon="-71.23061" />      <trkpt lat="42.45172" lon="-71.23057" />      <trkpt lat="42.45140" lon="-71.23047" />      <trkpt lat="42.45120" lon="-71.23038" />      <trkpt lat="42.45085" lon="-71.23018" />      <trkpt lat="42.45067" lon="-71.23007" />      <trkpt lat="42.45057" lon="-71.22999" />      <trkpt lat="42.45046" lon="-71.22991" />      <trkpt lat="42.45022" lon="-71.22972" />      <trkpt lat="42.44973" lon="-71.22931" />      <trkpt lat="42.44954" lon="-71.22913" />      <trkpt lat="42.44932" lon="-71.22888" />      <trkpt lat="42.44918" lon="-71.22868" />      <trkpt lat="42.44912" lon="-71.22861" />      <trkpt lat="42.44904" lon="-71.22849" />      <trkpt lat="42.44893" lon="-71.22832" />      <trkpt lat="42.44874" lon="-71.22801" />      <trkpt lat="42.44852" lon="-71.22762" />      <trkpt lat="42.44846" lon="-71.22751" />      <trkpt lat="42.44839" lon="-71.22737" />      <trkpt lat="42.44822" lon="-71.22703" />      <trkpt lat="42.44816" lon="-71.22685" />      <trkpt lat="42.44799" lon="-71.22628" />      <trkpt lat="42.44779" lon="-71.22558" />      <trkpt lat="42.44774" lon="-71.22567" />      <trkpt lat="42.44768" lon="-71.22577" />      <trkpt lat="42.44777" lon="-71.22606" />      <trkpt lat="42.44784" lon="-71.22629" />      <trkpt lat="42.44790" lon="-71.22649" />    </trkseg>  </trk></gpx>