<?xml version='1.0' encoding='UTF-8'?>
<gpx version="1.1" creator="https://www.komoot.de" xmlns="http://www.topografix.com/GPX/1/1" xmlns:xsi="http://www.w3.org/2001/XMLSchema-instance" xsi:schemaLocation="http://www.topografix.com/GPX/1/1 http://www.topografix.com/GPX/1/1/gpx.xsd">
  <metadata>
    <name>Littleton + Westford + Groton + Ayer Mains</name>
    <author>
      <link href="https://www.komoot.de">
        <text>komoot</text>
        <type>text/html</type>
      </link>
    </author>
  </metadata>
  <trk>
    <name>Littleton + Westford + Groton + Ayer Mains</name>
    <type>touring_bicycle</type>
    <trkseg>
      <trkpt lat="42.538371" lon="-71.512988">
        <ele>68.944837</ele>
        <time>2026-08-11T11:17:37.966Z</time>
      </trkpt>
      <trkpt lat="42.538239" lon="-71.512777">
        <ele>68.944837</ele>
        <time>2026-08-11T11:17:41.916Z</time>
      </trkpt>
      <trkpt lat="42.538065" lon="-71.512566">
        <ele>68.944837</ele>
        <time>2026-08-11T11:17:46.346Z</time>
      </trkpt>
      <trkpt lat="42.538114" lon="-71.512484">
        <ele>68.944837</ele>
        <time>2026-08-11T11:17:47.799Z</time>
      </trkpt>
      <trkpt lat="42.538262" lon="-71.512222">
        <ele>68.944837</ele>
        <time>2026-08-11T11:17:52.296Z</time>
      </trkpt>
      <trkpt lat="42.538852" lon="-71.511087">
        <ele>68.432844</ele>
        <time>2026-08-11T11:18:11.738Z</time>
      </trkpt>
      <trkpt lat="42.538880" lon="-71.511035">
        <ele>68.405312</ele>
        <time>2026-08-11T11:18:12.687Z</time>
      </trkpt>
      <trkpt lat="42.539068" lon="-71.510706">
        <ele>68.227331</ele>
        <time>2026-08-11T11:18:19.085Z</time>
      </trkpt>
      <trkpt lat="42.539242" lon="-71.510449">
        <ele>68.078130</ele>
        <time>2026-08-11T11:18:24.729Z</time>
      </trkpt>
      <trkpt lat="42.539210" lon="-71.510379">
        <ele>68.042914</ele>
        <time>2026-08-11T11:18:26.138Z</time>
      </trkpt>
      <trkpt lat="42.539142" lon="-71.510179">
        <ele>67.948754</ele>
        <time>2026-08-11T11:18:29.862Z</time>
      </trkpt>
      <trkpt lat="42.539084" lon="-71.509908">
        <ele>67.933854</ele>
        <time>2026-08-11T11:18:34.727Z</time>
      </trkpt>
      <trkpt lat="42.539076" lon="-71.509833">
        <ele>67.948260</ele>
        <time>2026-08-11T11:18:36.039Z</time>
      </trkpt>
      <trkpt lat="42.539055" lon="-71.509135">
        <ele>68.081062</ele>
        <time>2026-08-11T11:18:48.257Z</time>
      </trkpt>
      <trkpt lat="42.539046" lon="-71.508774">
        <ele>68.149728</ele>
        <time>2026-08-11T11:18:54.333Z</time>
      </trkpt>
      <trkpt lat="42.539036" lon="-71.508348">
        <ele>68.230753</ele>
        <time>2026-08-11T11:19:01.483Z</time>
      </trkpt>
      <trkpt lat="42.539034" lon="-71.508290">
        <ele>68.241791</ele>
        <time>2026-08-11T11:19:02.488Z</time>
      </trkpt>
      <trkpt lat="42.539048" lon="-71.507579">
        <ele>68.389559</ele>
        <time>2026-08-11T11:19:14.797Z</time>
      </trkpt>
      <trkpt lat="42.539097" lon="-71.506726">
        <ele>68.727731</ele>
        <time>2026-08-11T11:19:30.183Z</time>
      </trkpt>
      <trkpt lat="42.539108" lon="-71.506631">
        <ele>68.765741</ele>
        <time>2026-08-11T11:19:31.984Z</time>
      </trkpt>
      <trkpt lat="42.539155" lon="-71.505690">
        <ele>69.138525</ele>
        <time>2026-08-11T11:19:49.658Z</time>
      </trkpt>
      <trkpt lat="42.539191" lon="-71.505238">
        <ele>69.318219</ele>
        <time>2026-08-11T11:19:57.736Z</time>
      </trkpt>
      <trkpt lat="42.539240" lon="-71.504701">
        <ele>69.310805</ele>
        <time>2026-08-11T11:20:06.933Z</time>
      </trkpt>
      <trkpt lat="42.539255" lon="-71.504555">
        <ele>69.305204</ele>
        <time>2026-08-11T11:20:09.366Z</time>
      </trkpt>
      <trkpt lat="42.539294" lon="-71.504179">
        <ele>69.290776</ele>
        <time>2026-08-11T11:20:15.558Z</time>
      </trkpt>
      <trkpt lat="42.539308" lon="-71.504049">
        <ele>69.285784</ele>
        <time>2026-08-11T11:20:17.664Z</time>
      </trkpt>
      <trkpt lat="42.539344" lon="-71.503763">
        <ele>69.274759</ele>
        <time>2026-08-11T11:20:22.242Z</time>
      </trkpt>
      <trkpt lat="42.539442" lon="-71.503040">
        <ele>69.246826</ele>
        <time>2026-08-11T11:20:33.687Z</time>
      </trkpt>
      <trkpt lat="42.539730" lon="-71.501518">
        <ele>68.926689</ele>
        <time>2026-08-11T11:20:57.977Z</time>
      </trkpt>
      <trkpt lat="42.540076" lon="-71.500011">
        <ele>68.720697</ele>
        <time>2026-08-11T11:21:22.557Z</time>
      </trkpt>
      <trkpt lat="42.540176" lon="-71.499358">
        <ele>68.801316</ele>
        <time>2026-08-11T11:21:33.731Z</time>
      </trkpt>
      <trkpt lat="42.540205" lon="-71.498982">
        <ele>68.847014</ele>
        <time>2026-08-11T11:21:40.329Z</time>
      </trkpt>
      <trkpt lat="42.540216" lon="-71.498598">
        <ele>68.893466</ele>
        <time>2026-08-11T11:21:47.176Z</time>
      </trkpt>
      <trkpt lat="42.540223" lon="-71.498398">
        <ele>68.917669</ele>
        <time>2026-08-11T11:21:50.816Z</time>
      </trkpt>
      <trkpt lat="42.540232" lon="-71.498155">
        <ele>68.947079</ele>
        <time>2026-08-11T11:21:55.219Z</time>
      </trkpt>
      <trkpt lat="42.540259" lon="-71.496877">
        <ele>68.951407</ele>
        <time>2026-08-11T11:22:16.745Z</time>
      </trkpt>
      <trkpt lat="42.540266" lon="-71.496399">
        <ele>68.947940</ele>
        <time>2026-08-11T11:22:24.390Z</time>
      </trkpt>
      <trkpt lat="42.540261" lon="-71.496162">
        <ele>68.946220</ele>
        <time>2026-08-11T11:22:28.105Z</time>
      </trkpt>
      <trkpt lat="42.540201" lon="-71.495601">
        <ele>68.938093</ele>
        <time>2026-08-11T11:22:36.980Z</time>
      </trkpt>
      <trkpt lat="42.540156" lon="-71.495330">
        <ele>68.852179</ele>
        <time>2026-08-11T11:22:41.290Z</time>
      </trkpt>
      <trkpt lat="42.540024" lon="-71.494536">
        <ele>68.600446</ele>
        <time>2026-08-11T11:22:53.948Z</time>
      </trkpt>
      <trkpt lat="42.539875" lon="-71.493494">
        <ele>68.272175</ele>
        <time>2026-08-11T11:23:10.244Z</time>
      </trkpt>
      <trkpt lat="42.539714" lon="-71.492435">
        <ele>67.453881</ele>
        <time>2026-08-11T11:23:26.833Z</time>
      </trkpt>
      <trkpt lat="42.539673" lon="-71.492191">
        <ele>67.226361</ele>
        <time>2026-08-11T11:23:30.351Z</time>
      </trkpt>
      <trkpt lat="42.539516" lon="-71.491166">
        <ele>66.274590</ele>
        <time>2026-08-11T11:23:44.421Z</time>
      </trkpt>
      <trkpt lat="42.539413" lon="-71.490336">
        <ele>65.686439</ele>
        <time>2026-08-11T11:23:55.519Z</time>
      </trkpt>
      <trkpt lat="42.539387" lon="-71.489622">
        <ele>65.287454</ele>
        <time>2026-08-11T11:24:05.343Z</time>
      </trkpt>
      <trkpt lat="42.539386" lon="-71.489519">
        <ele>65.229962</ele>
        <time>2026-08-11T11:24:06.816Z</time>
      </trkpt>
      <trkpt lat="42.539398" lon="-71.488635">
        <ele>64.736499</ele>
        <time>2026-08-11T11:24:20.322Z</time>
      </trkpt>
      <trkpt lat="42.539415" lon="-71.488353">
        <ele>64.680046</ele>
        <time>2026-08-11T11:24:25.246Z</time>
      </trkpt>
      <trkpt lat="42.539460" lon="-71.487543">
        <ele>65.934120</ele>
        <time>2026-08-11T11:24:41.604Z</time>
      </trkpt>
      <trkpt lat="42.539437" lon="-71.487126">
        <ele>66.579710</ele>
        <time>2026-08-11T11:24:50.800Z</time>
      </trkpt>
      <trkpt lat="42.539079" lon="-71.484787">
        <ele>70.819559</ele>
        <time>2026-08-11T11:25:52.777Z</time>
      </trkpt>
      <trkpt lat="42.539006" lon="-71.484359">
        <ele>71.695400</ele>
        <time>2026-08-11T11:26:04.029Z</time>
      </trkpt>
      <trkpt lat="42.538998" lon="-71.484153">
        <ele>72.106660</ele>
        <time>2026-08-11T11:26:09.105Z</time>
      </trkpt>
      <trkpt lat="42.539009" lon="-71.483978">
        <ele>72.456814</ele>
        <time>2026-08-11T11:26:13.246Z</time>
      </trkpt>
      <trkpt lat="42.539113" lon="-71.483358">
        <ele>73.224691</ele>
        <time>2026-08-11T11:26:26.885Z</time>
      </trkpt>
      <trkpt lat="42.539198" lon="-71.483054">
        <ele>73.202926</ele>
        <time>2026-08-11T11:26:32.815Z</time>
      </trkpt>
      <trkpt lat="42.539269" lon="-71.482922">
        <ele>73.191986</ele>
        <time>2026-08-11T11:26:35.406Z</time>
      </trkpt>
      <trkpt lat="42.539377" lon="-71.482670">
        <ele>73.172471</ele>
        <time>2026-08-11T11:26:39.614Z</time>
      </trkpt>
      <trkpt lat="42.539870" lon="-71.481650">
        <ele>73.090812</ele>
        <time>2026-08-11T11:26:56.734Z</time>
      </trkpt>
      <trkpt lat="42.539912" lon="-71.481571">
        <ele>73.084291</ele>
        <time>2026-08-11T11:26:58.104Z</time>
      </trkpt>
      <trkpt lat="42.540000" lon="-71.481420">
        <ele>73.166090</ele>
        <time>2026-08-11T11:27:00.914Z</time>
      </trkpt>
      <trkpt lat="42.540693" lon="-71.480538">
        <ele>74.415991</ele>
        <time>2026-08-11T11:27:26.050Z</time>
      </trkpt>
      <trkpt lat="42.540829" lon="-71.480386">
        <ele>74.647776</ele>
        <time>2026-08-11T11:27:31.677Z</time>
      </trkpt>
      <trkpt lat="42.541020" lon="-71.480177">
        <ele>74.970561</ele>
        <time>2026-08-11T11:27:39.610Z</time>
      </trkpt>
      <trkpt lat="42.541062" lon="-71.480130">
        <ele>75.042178</ele>
        <time>2026-08-11T11:27:41.344Z</time>
      </trkpt>
      <trkpt lat="42.541241" lon="-71.479967">
        <ele>75.325771</ele>
        <time>2026-08-11T11:27:48.315Z</time>
      </trkpt>
      <trkpt lat="42.541322" lon="-71.479897">
        <ele>75.452114</ele>
        <time>2026-08-11T11:27:51.364Z</time>
      </trkpt>
      <trkpt lat="42.541464" lon="-71.479771">
        <ele>75.675528</ele>
        <time>2026-08-11T11:27:56.814Z</time>
      </trkpt>
      <trkpt lat="42.541606" lon="-71.479650">
        <ele>75.896324</ele>
        <time>2026-08-11T11:28:02.193Z</time>
      </trkpt>
      <trkpt lat="42.543518" lon="-71.477996">
        <ele>78.847517</ele>
        <time>2026-08-11T11:29:01.189Z</time>
      </trkpt>
      <trkpt lat="42.543585" lon="-71.477939">
        <ele>78.948278</ele>
        <time>2026-08-11T11:29:03.321Z</time>
      </trkpt>
      <trkpt lat="42.543876" lon="-71.477687">
        <ele>79.388135</ele>
        <time>2026-08-11T11:29:12.935Z</time>
      </trkpt>
      <trkpt lat="42.544486" lon="-71.477141">
        <ele>80.325855</ele>
        <time>2026-08-11T11:29:34.263Z</time>
      </trkpt>
      <trkpt lat="42.544739" lon="-71.476816">
        <ele>80.783403</ele>
        <time>2026-08-11T11:29:44.352Z</time>
      </trkpt>
      <trkpt lat="42.544879" lon="-71.476537">
        <ele>81.110072</ele>
        <time>2026-08-11T11:29:51.424Z</time>
      </trkpt>
      <trkpt lat="42.545013" lon="-71.476238">
        <ele>81.448748</ele>
        <time>2026-08-11T11:29:58.600Z</time>
      </trkpt>
      <trkpt lat="42.545048" lon="-71.476156">
        <ele>81.540456</ele>
        <time>2026-08-11T11:30:00.493Z</time>
      </trkpt>
      <trkpt lat="42.545167" lon="-71.475863">
        <ele>81.864226</ele>
        <time>2026-08-11T11:30:07.139Z</time>
      </trkpt>
      <trkpt lat="42.545179" lon="-71.475831">
        <ele>81.898973</ele>
        <time>2026-08-11T11:30:07.860Z</time>
      </trkpt>
      <trkpt lat="42.545417" lon="-71.475215">
        <ele>82.514474</ele>
        <time>2026-08-11T11:30:21.209Z</time>
      </trkpt>
      <trkpt lat="42.545444" lon="-71.475148">
        <ele>82.547879</ele>
        <time>2026-08-11T11:30:22.607Z</time>
      </trkpt>
      <trkpt lat="42.545477" lon="-71.475065">
        <ele>82.589133</ele>
        <time>2026-08-11T11:30:24.335Z</time>
      </trkpt>
      <trkpt lat="42.545583" lon="-71.474801">
        <ele>82.720647</ele>
        <time>2026-08-11T11:30:29.694Z</time>
      </trkpt>
      <trkpt lat="42.545656" lon="-71.474624">
        <ele>82.809375</ele>
        <time>2026-08-11T11:30:33.340Z</time>
      </trkpt>
      <trkpt lat="42.545781" lon="-71.474310">
        <ele>82.965492</ele>
        <time>2026-08-11T11:30:39.767Z</time>
      </trkpt>
      <trkpt lat="42.545810" lon="-71.474246">
        <ele>82.998358</ele>
        <time>2026-08-11T11:30:41.129Z</time>
      </trkpt>
      <trkpt lat="42.545948" lon="-71.473960">
        <ele>83.147901</ele>
        <time>2026-08-11T11:30:47.193Z</time>
      </trkpt>
      <trkpt lat="42.545987" lon="-71.473880">
        <ele>83.189861</ele>
        <time>2026-08-11T11:30:48.942Z</time>
      </trkpt>
      <trkpt lat="42.546118" lon="-71.473621">
        <ele>83.327279</ele>
        <time>2026-08-11T11:30:54.651Z</time>
      </trkpt>
      <trkpt lat="42.546423" lon="-71.473002">
        <ele>83.706208</ele>
        <time>2026-08-11T11:31:07.917Z</time>
      </trkpt>
      <trkpt lat="42.546458" lon="-71.472930">
        <ele>83.760925</ele>
        <time>2026-08-11T11:31:09.410Z</time>
      </trkpt>
      <trkpt lat="42.546507" lon="-71.472835">
        <ele>83.834487</ele>
        <time>2026-08-11T11:31:11.396Z</time>
      </trkpt>
      <trkpt lat="42.546705" lon="-71.472449">
        <ele>84.132838</ele>
        <time>2026-08-11T11:31:19.595Z</time>
      </trkpt>
      <trkpt lat="42.546812" lon="-71.472241">
        <ele>84.293758</ele>
        <time>2026-08-11T11:31:24.253Z</time>
      </trkpt>
      <trkpt lat="42.546963" lon="-71.471948">
        <ele>84.520573</ele>
        <time>2026-08-11T11:31:31.106Z</time>
      </trkpt>
      <trkpt lat="42.546978" lon="-71.471918">
        <ele>84.543571</ele>
        <time>2026-08-11T11:31:31.826Z</time>
      </trkpt>
      <trkpt lat="42.546988" lon="-71.471900">
        <ele>84.557871</ele>
        <time>2026-08-11T11:31:32.263Z</time>
      </trkpt>
      <trkpt lat="42.546996" lon="-71.471883">
        <ele>84.570667</ele>
        <time>2026-08-11T11:31:32.666Z</time>
      </trkpt>
      <trkpt lat="42.547227" lon="-71.471434">
        <ele>84.918048</ele>
        <time>2026-08-11T11:31:43.958Z</time>
      </trkpt>
      <trkpt lat="42.547256" lon="-71.471377">
        <ele>84.961987</ele>
        <time>2026-08-11T11:31:45.392Z</time>
      </trkpt>
      <trkpt lat="42.547340" lon="-71.471213">
        <ele>85.088149</ele>
        <time>2026-08-11T11:31:49.482Z</time>
      </trkpt>
      <trkpt lat="42.547642" lon="-71.470628">
        <ele>85.494619</ele>
        <time>2026-08-11T11:32:03.866Z</time>
      </trkpt>
      <trkpt lat="42.547819" lon="-71.470282">
        <ele>85.734310</ele>
        <time>2026-08-11T11:32:12.287Z</time>
      </trkpt>
      <trkpt lat="42.548405" lon="-71.469089">
        <ele>86.412806</ele>
        <time>2026-08-11T11:32:37.854Z</time>
      </trkpt>
      <trkpt lat="42.548936" lon="-71.468059">
        <ele>85.859941</ele>
        <time>2026-08-11T11:32:56.730Z</time>
      </trkpt>
      <trkpt lat="42.549208" lon="-71.467519">
        <ele>85.572261</ele>
        <time>2026-08-11T11:33:06.231Z</time>
      </trkpt>
      <trkpt lat="42.549635" lon="-71.466722">
        <ele>84.736435</ele>
        <time>2026-08-11T11:33:20.015Z</time>
      </trkpt>
      <trkpt lat="42.549827" lon="-71.466334">
        <ele>84.212870</ele>
        <time>2026-08-11T11:33:26.383Z</time>
      </trkpt>
      <trkpt lat="42.549912" lon="-71.466131">
        <ele>83.951317</ele>
        <time>2026-08-11T11:33:29.513Z</time>
      </trkpt>
      <trkpt lat="42.550067" lon="-71.465605">
        <ele>83.316734</ele>
        <time>2026-08-11T11:33:37.025Z</time>
      </trkpt>
      <trkpt lat="42.550150" lon="-71.465173">
        <ele>82.816647</ele>
        <time>2026-08-11T11:33:42.860Z</time>
      </trkpt>
      <trkpt lat="42.550203" lon="-71.464504">
        <ele>82.065565</ele>
        <time>2026-08-11T11:33:51.659Z</time>
      </trkpt>
      <trkpt lat="42.550221" lon="-71.463993">
        <ele>81.495009</ele>
        <time>2026-08-11T11:33:58.568Z</time>
      </trkpt>
      <trkpt lat="42.550203" lon="-71.463318">
        <ele>80.741706</ele>
        <time>2026-08-11T11:34:08.151Z</time>
      </trkpt>
      <trkpt lat="42.550168" lon="-71.462527">
        <ele>79.788633</ele>
        <time>2026-08-11T11:34:18.893Z</time>
      </trkpt>
      <trkpt lat="42.550154" lon="-71.462208">
        <ele>79.135449</ele>
        <time>2026-08-11T11:34:23.092Z</time>
      </trkpt>
      <trkpt lat="42.550146" lon="-71.462019">
        <ele>78.748501</ele>
        <time>2026-08-11T11:34:25.551Z</time>
      </trkpt>
      <trkpt lat="42.550144" lon="-71.461592">
        <ele>77.875705</ele>
        <time>2026-08-11T11:34:30.990Z</time>
      </trkpt>
      <trkpt lat="42.550179" lon="-71.461161">
        <ele>76.989416</ele>
        <time>2026-08-11T11:34:36.333Z</time>
      </trkpt>
      <trkpt lat="42.550229" lon="-71.460844">
        <ele>76.326791</ele>
        <time>2026-08-11T11:34:40.229Z</time>
      </trkpt>
      <trkpt lat="42.550360" lon="-71.460339">
        <ele>75.232462</ele>
        <time>2026-08-11T11:34:46.462Z</time>
      </trkpt>
      <trkpt lat="42.550561" lon="-71.459819">
        <ele>73.687120</ele>
        <time>2026-08-11T11:34:53.251Z</time>
      </trkpt>
      <trkpt lat="42.550883" lon="-71.459005">
        <ele>71.089232</ele>
        <time>2026-08-11T11:35:03.955Z</time>
      </trkpt>
      <trkpt lat="42.551742" lon="-71.456803">
        <ele>65.524183</ele>
        <time>2026-08-11T11:35:33.107Z</time>
      </trkpt>
      <trkpt lat="42.553066" lon="-71.452947">
        <ele>62.563439</ele>
        <time>2026-08-11T11:36:35.783Z</time>
      </trkpt>
      <trkpt lat="42.553173" lon="-71.452632">
        <ele>62.616862</ele>
        <time>2026-08-11T11:36:42.040Z</time>
      </trkpt>
      <trkpt lat="42.553572" lon="-71.451471">
        <ele>62.814172</ele>
        <time>2026-08-11T11:37:05.417Z</time>
      </trkpt>
      <trkpt lat="42.553596" lon="-71.451405">
        <ele>62.878315</ele>
        <time>2026-08-11T11:37:06.726Z</time>
      </trkpt>
      <trkpt lat="42.553672" lon="-71.451185">
        <ele>63.151238</ele>
        <time>2026-08-11T11:37:11.265Z</time>
      </trkpt>
      <trkpt lat="42.554074" lon="-71.450026">
        <ele>64.590090</ele>
        <time>2026-08-11T11:37:36.994Z</time>
      </trkpt>
      <trkpt lat="42.554334" lon="-71.449293">
        <ele>65.503851</ele>
        <time>2026-08-11T11:37:55.509Z</time>
      </trkpt>
      <trkpt lat="42.554651" lon="-71.448389">
        <ele>67.079728</ele>
        <time>2026-08-11T11:38:19.181Z</time>
      </trkpt>
      <trkpt lat="42.554748" lon="-71.448428">
        <ele>67.299117</ele>
        <time>2026-08-11T11:38:22.421Z</time>
      </trkpt>
      <trkpt lat="42.554924" lon="-71.448607">
        <ele>67.776029</ele>
        <time>2026-08-11T11:38:29.495Z</time>
      </trkpt>
      <trkpt lat="42.554954" lon="-71.448704">
        <ele>67.944088</ele>
        <time>2026-08-11T11:38:31.884Z</time>
      </trkpt>
      <trkpt lat="42.555090" lon="-71.448854">
        <ele>68.324093</ele>
        <time>2026-08-11T11:38:37.352Z</time>
      </trkpt>
      <trkpt lat="42.555342" lon="-71.449134">
        <ele>69.030297</ele>
        <time>2026-08-11T11:38:47.334Z</time>
      </trkpt>
      <trkpt lat="42.555419" lon="-71.449219">
        <ele>69.245521</ele>
        <time>2026-08-11T11:38:50.250Z</time>
      </trkpt>
      <trkpt lat="42.555458" lon="-71.449262">
        <ele>69.354478</ele>
        <time>2026-08-11T11:38:51.759Z</time>
      </trkpt>
      <trkpt lat="42.556280" lon="-71.450175">
        <ele>70.978877</ele>
        <time>2026-08-11T11:39:21.921Z</time>
      </trkpt>
      <trkpt lat="42.556462" lon="-71.450377">
        <ele>71.331205</ele>
        <time>2026-08-11T11:39:28.613Z</time>
      </trkpt>
      <trkpt lat="42.556637" lon="-71.450569">
        <ele>71.668428</ele>
        <time>2026-08-11T11:39:34.960Z</time>
      </trkpt>
      <trkpt lat="42.557069" lon="-71.451045">
        <ele>72.331563</ele>
        <time>2026-08-11T11:39:50.008Z</time>
      </trkpt>
      <trkpt lat="42.557297" lon="-71.451296">
        <ele>72.554699</ele>
        <time>2026-08-11T11:39:57.601Z</time>
      </trkpt>
      <trkpt lat="42.557366" lon="-71.451157">
        <ele>72.648553</ele>
        <time>2026-08-11T11:40:01.681Z</time>
      </trkpt>
      <trkpt lat="42.557446" lon="-71.451251">
        <ele>72.728979</ele>
        <time>2026-08-11T11:40:05.168Z</time>
      </trkpt>
      <trkpt lat="42.557494" lon="-71.451179">
        <ele>72.783353</ele>
        <time>2026-08-11T11:40:07.123Z</time>
      </trkpt>
      <trkpt lat="42.557446" lon="-71.451251">
        <ele>72.837727</ele>
        <time>2026-08-11T11:40:09.009Z</time>
      </trkpt>
      <trkpt lat="42.557370" lon="-71.451376">
        <ele>72.928481</ele>
        <time>2026-08-11T11:40:12.126Z</time>
      </trkpt>
      <trkpt lat="42.557882" lon="-71.451929">
        <ele>73.425822</ele>
        <time>2026-08-11T11:40:27.712Z</time>
      </trkpt>
      <trkpt lat="42.558237" lon="-71.452389">
        <ele>73.785713</ele>
        <time>2026-08-11T11:40:39.292Z</time>
      </trkpt>
      <trkpt lat="42.558428" lon="-71.452660">
        <ele>73.985709</ele>
        <time>2026-08-11T11:40:46.030Z</time>
      </trkpt>
      <trkpt lat="42.558852" lon="-71.453232">
        <ele>74.418415</ele>
        <time>2026-08-11T11:41:01.057Z</time>
      </trkpt>
      <trkpt lat="42.559079" lon="-71.453528">
        <ele>74.646261</ele>
        <time>2026-08-11T11:41:09.427Z</time>
      </trkpt>
      <trkpt lat="42.559390" lon="-71.453855">
        <ele>74.902614</ele>
        <time>2026-08-11T11:41:20.127Z</time>
      </trkpt>
      <trkpt lat="42.559818" lon="-71.454246">
        <ele>75.175887</ele>
        <time>2026-08-11T11:41:33.600Z</time>
      </trkpt>
      <trkpt lat="42.559990" lon="-71.454403">
        <ele>75.285679</ele>
        <time>2026-08-11T11:41:38.564Z</time>
      </trkpt>
      <trkpt lat="42.560186" lon="-71.454599">
        <ele>75.414630</ele>
        <time>2026-08-11T11:41:44.177Z</time>
      </trkpt>
      <trkpt lat="42.560456" lon="-71.454885">
        <ele>75.596039</ele>
        <time>2026-08-11T11:41:51.909Z</time>
      </trkpt>
      <trkpt lat="42.560886" lon="-71.455340">
        <ele>75.961148</ele>
        <time>2026-08-11T11:42:04.338Z</time>
      </trkpt>
      <trkpt lat="42.561211" lon="-71.455643">
        <ele>76.319058</ele>
        <time>2026-08-11T11:42:13.390Z</time>
      </trkpt>
      <trkpt lat="42.561388" lon="-71.455797">
        <ele>76.509907</ele>
        <time>2026-08-11T11:42:18.356Z</time>
      </trkpt>
      <trkpt lat="42.561539" lon="-71.455919">
        <ele>76.669425</ele>
        <time>2026-08-11T11:42:22.653Z</time>
      </trkpt>
      <trkpt lat="42.561942" lon="-71.456327">
        <ele>77.125797</ele>
        <time>2026-08-11T11:42:36.512Z</time>
      </trkpt>
      <trkpt lat="42.562373" lon="-71.456768">
        <ele>77.841136</ele>
        <time>2026-08-11T11:42:52.961Z</time>
      </trkpt>
      <trkpt lat="42.562587" lon="-71.456620">
        <ele>78.298908</ele>
        <time>2026-08-11T11:43:00.663Z</time>
      </trkpt>
      <trkpt lat="42.563197" lon="-71.455408">
        <ele>80.359753</ele>
        <time>2026-08-11T11:43:34.860Z</time>
      </trkpt>
      <trkpt lat="42.563343" lon="-71.455067">
        <ele>80.904800</ele>
        <time>2026-08-11T11:43:43.146Z</time>
      </trkpt>
      <trkpt lat="42.563651" lon="-71.454093">
        <ele>82.219016</ele>
        <time>2026-08-11T11:44:05.340Z</time>
      </trkpt>
      <trkpt lat="42.563722" lon="-71.453918">
        <ele>82.466731</ele>
        <time>2026-08-11T11:44:09.513Z</time>
      </trkpt>
      <trkpt lat="42.563867" lon="-71.453704">
        <ele>82.827256</ele>
        <time>2026-08-11T11:44:15.628Z</time>
      </trkpt>
      <trkpt lat="42.564474" lon="-71.453061">
        <ele>84.260351</ele>
        <time>2026-08-11T11:44:39.553Z</time>
      </trkpt>
      <trkpt lat="42.564971" lon="-71.452572">
        <ele>85.846084</ele>
        <time>2026-08-11T11:45:00.755Z</time>
      </trkpt>
      <trkpt lat="42.565290" lon="-71.452311">
        <ele>86.808314</ele>
        <time>2026-08-11T11:45:13.538Z</time>
      </trkpt>
      <trkpt lat="42.565405" lon="-71.452186">
        <ele>87.188903</ele>
        <time>2026-08-11T11:45:18.528Z</time>
      </trkpt>
      <trkpt lat="42.565931" lon="-71.451580">
        <ele>89.075255</ele>
        <time>2026-08-11T11:45:41.672Z</time>
      </trkpt>
      <trkpt lat="42.566497" lon="-71.451046">
        <ele>91.261278</ele>
        <time>2026-08-11T11:46:04.426Z</time>
      </trkpt>
      <trkpt lat="42.567184" lon="-71.450202">
        <ele>94.199779</ele>
        <time>2026-08-11T11:46:39.122Z</time>
      </trkpt>
      <trkpt lat="42.567670" lon="-71.449608">
        <ele>96.443873</ele>
        <time>2026-08-11T11:47:05.801Z</time>
      </trkpt>
      <trkpt lat="42.567878" lon="-71.449476">
        <ele>97.232374</ele>
        <time>2026-08-11T11:47:15.212Z</time>
      </trkpt>
      <trkpt lat="42.568232" lon="-71.449336">
        <ele>98.498628</ele>
        <time>2026-08-11T11:47:29.583Z</time>
      </trkpt>
      <trkpt lat="42.568542" lon="-71.449125">
        <ele>99.689526</ele>
        <time>2026-08-11T11:47:42.008Z</time>
      </trkpt>
      <trkpt lat="42.568800" lon="-71.448850">
        <ele>100.356867</ele>
        <time>2026-08-11T11:47:52.554Z</time>
      </trkpt>
      <trkpt lat="42.569518" lon="-71.447835">
        <ele>100.028253</ele>
        <time>2026-08-11T11:48:16.283Z</time>
      </trkpt>
      <trkpt lat="42.569609" lon="-71.447709">
        <ele>99.987047</ele>
        <time>2026-08-11T11:48:18.774Z</time>
      </trkpt>
      <trkpt lat="42.569752" lon="-71.447576">
        <ele>99.932093</ele>
        <time>2026-08-11T11:48:22.058Z</time>
      </trkpt>
      <trkpt lat="42.570437" lon="-71.447216">
        <ele>99.084603</ele>
        <time>2026-08-11T11:48:35.506Z</time>
      </trkpt>
      <trkpt lat="42.570647" lon="-71.447068">
        <ele>98.644249</ele>
        <time>2026-08-11T11:48:39.756Z</time>
      </trkpt>
      <trkpt lat="42.571004" lon="-71.446718">
        <ele>97.824726</ele>
        <time>2026-08-11T11:48:47.806Z</time>
      </trkpt>
      <trkpt lat="42.571689" lon="-71.446282">
        <ele>96.450476</ele>
        <time>2026-08-11T11:49:02.124Z</time>
      </trkpt>
      <trkpt lat="42.571893" lon="-71.446073">
        <ele>96.237647</ele>
        <time>2026-08-11T11:49:07.103Z</time>
      </trkpt>
      <trkpt lat="42.572111" lon="-71.445766">
        <ele>95.976084</ele>
        <time>2026-08-11T11:49:13.346Z</time>
      </trkpt>
      <trkpt lat="42.572290" lon="-71.445425">
        <ele>95.719251</ele>
        <time>2026-08-11T11:49:19.616Z</time>
      </trkpt>
      <trkpt lat="42.572511" lon="-71.444927">
        <ele>95.362651</ele>
        <time>2026-08-11T11:49:28.474Z</time>
      </trkpt>
      <trkpt lat="42.572691" lon="-71.444163">
        <ele>95.193904</ele>
        <time>2026-08-11T11:49:41.200Z</time>
      </trkpt>
      <trkpt lat="42.572732" lon="-71.443479">
        <ele>96.019068</ele>
        <time>2026-08-11T11:49:53.783Z</time>
      </trkpt>
      <trkpt lat="42.572812" lon="-71.443124">
        <ele>96.465459</ele>
        <time>2026-08-11T11:50:01.469Z</time>
      </trkpt>
      <trkpt lat="42.572951" lon="-71.442783">
        <ele>96.934099</ele>
        <time>2026-08-11T11:50:10.382Z</time>
      </trkpt>
      <trkpt lat="42.573213" lon="-71.442294">
        <ele>97.661224</ele>
        <time>2026-08-11T11:50:25.907Z</time>
      </trkpt>
      <trkpt lat="42.573492" lon="-71.441946">
        <ele>98.832530</ele>
        <time>2026-08-11T11:50:40.238Z</time>
      </trkpt>
      <trkpt lat="42.573601" lon="-71.441827">
        <ele>99.408480</ele>
        <time>2026-08-11T11:50:45.642Z</time>
      </trkpt>
      <trkpt lat="42.573780" lon="-71.441633">
        <ele>100.351609</ele>
        <time>2026-08-11T11:50:54.525Z</time>
      </trkpt>
      <trkpt lat="42.574016" lon="-71.441372">
        <ele>101.605005</ele>
        <time>2026-08-11T11:51:06.407Z</time>
      </trkpt>
      <trkpt lat="42.574178" lon="-71.441136">
        <ele>102.583405</ele>
        <time>2026-08-11T11:51:15.784Z</time>
      </trkpt>
      <trkpt lat="42.574387" lon="-71.440694">
        <ele>104.176331</ele>
        <time>2026-08-11T11:51:31.244Z</time>
      </trkpt>
      <trkpt lat="42.574611" lon="-71.440313">
        <ele>105.813442</ele>
        <time>2026-08-11T11:51:46.379Z</time>
      </trkpt>
      <trkpt lat="42.574900" lon="-71.439966">
        <ele>108.162982</ele>
        <time>2026-08-11T11:52:03.558Z</time>
      </trkpt>
      <trkpt lat="42.575135" lon="-71.439773">
        <ele>109.835663</ele>
        <time>2026-08-11T11:52:16.669Z</time>
      </trkpt>
      <trkpt lat="42.575484" lon="-71.439650">
        <ele>112.031690</ele>
        <time>2026-08-11T11:52:35.020Z</time>
      </trkpt>
      <trkpt lat="42.575534" lon="-71.439650">
        <ele>112.336219</ele>
        <time>2026-08-11T11:52:37.604Z</time>
      </trkpt>
      <trkpt lat="42.575948" lon="-71.439609">
        <ele>114.864411</ele>
        <time>2026-08-11T11:52:59.285Z</time>
      </trkpt>
      <trkpt lat="42.576268" lon="-71.439435">
        <ele>116.633023</ele>
        <time>2026-08-11T11:53:16.680Z</time>
      </trkpt>
      <trkpt lat="42.576606" lon="-71.439179">
        <ele>117.852644</ele>
        <time>2026-08-11T11:53:33.930Z</time>
      </trkpt>
      <trkpt lat="42.577017" lon="-71.439008">
        <ele>119.207274</ele>
        <time>2026-08-11T11:53:50.094Z</time>
      </trkpt>
      <trkpt lat="42.577154" lon="-71.439028">
        <ele>119.641497</ele>
        <time>2026-08-11T11:53:54.676Z</time>
      </trkpt>
      <trkpt lat="42.577411" lon="-71.439199">
        <ele>120.543381</ele>
        <time>2026-08-11T11:54:03.319Z</time>
      </trkpt>
      <trkpt lat="42.577551" lon="-71.439292">
        <ele>121.034524</ele>
        <time>2026-08-11T11:54:07.632Z</time>
      </trkpt>
      <trkpt lat="42.577789" lon="-71.439463">
        <ele>121.883048</ele>
        <time>2026-08-11T11:54:14.428Z</time>
      </trkpt>
      <trkpt lat="42.578126" lon="-71.439659">
        <ele>121.932761</ele>
        <time>2026-08-11T11:54:22.859Z</time>
      </trkpt>
      <trkpt lat="42.578354" lon="-71.439726">
        <ele>121.923505</ele>
        <time>2026-08-11T11:54:27.991Z</time>
      </trkpt>
      <trkpt lat="42.578492" lon="-71.439703">
        <ele>121.917989</ele>
        <time>2026-08-11T11:54:31.081Z</time>
      </trkpt>
      <trkpt lat="42.578575" lon="-71.439655">
        <ele>121.914410</ele>
        <time>2026-08-11T11:54:33.112Z</time>
      </trkpt>
      <trkpt lat="42.578942" lon="-71.439366">
        <ele>121.897579</ele>
        <time>2026-08-11T11:54:42.821Z</time>
      </trkpt>
      <trkpt lat="42.579275" lon="-71.439229">
        <ele>121.883774</ele>
        <time>2026-08-11T11:54:50.765Z</time>
      </trkpt>
      <trkpt lat="42.579589" lon="-71.439149">
        <ele>121.862806</ele>
        <time>2026-08-11T11:54:57.913Z</time>
      </trkpt>
      <trkpt lat="42.580312" lon="-71.438934">
        <ele>121.773268</ele>
        <time>2026-08-11T11:55:13.923Z</time>
      </trkpt>
      <trkpt lat="42.580550" lon="-71.438931">
        <ele>121.744475</ele>
        <time>2026-08-11T11:55:19.039Z</time>
      </trkpt>
      <trkpt lat="42.580583" lon="-71.438942">
        <ele>121.740364</ele>
        <time>2026-08-11T11:55:19.766Z</time>
      </trkpt>
      <trkpt lat="42.580833" lon="-71.439026">
        <ele>121.709208</ele>
        <time>2026-08-11T11:55:25.485Z</time>
      </trkpt>
      <trkpt lat="42.581144" lon="-71.439569">
        <ele>121.681685</ele>
        <time>2026-08-11T11:55:37.260Z</time>
      </trkpt>
      <trkpt lat="42.581107" lon="-71.439823">
        <ele>121.739515</ele>
        <time>2026-08-11T11:55:42.088Z</time>
      </trkpt>
      <trkpt lat="42.581100" lon="-71.439880">
        <ele>121.752422</ele>
        <time>2026-08-11T11:55:43.187Z</time>
      </trkpt>
      <trkpt lat="42.581087" lon="-71.439980">
        <ele>121.775102</ele>
        <time>2026-08-11T11:55:45.095Z</time>
      </trkpt>
      <trkpt lat="42.581069" lon="-71.440118">
        <ele>121.806404</ele>
        <time>2026-08-11T11:55:47.766Z</time>
      </trkpt>
      <trkpt lat="42.581026" lon="-71.440449">
        <ele>121.881474</ele>
        <time>2026-08-11T11:55:54.196Z</time>
      </trkpt>
      <trkpt lat="42.580931" lon="-71.441177">
        <ele>122.046606</ele>
        <time>2026-08-11T11:56:08.227Z</time>
      </trkpt>
      <trkpt lat="42.580914" lon="-71.441303">
        <ele>122.075216</ele>
        <time>2026-08-11T11:56:10.559Z</time>
      </trkpt>
      <trkpt lat="42.580863" lon="-71.441669">
        <ele>122.158413</ele>
        <time>2026-08-11T11:56:17.090Z</time>
      </trkpt>
      <trkpt lat="42.580753" lon="-71.442249">
        <ele>121.081934</ele>
        <time>2026-08-11T11:56:25.830Z</time>
      </trkpt>
      <trkpt lat="42.580850" lon="-71.442342">
        <ele>120.628449</ele>
        <time>2026-08-11T11:56:27.930Z</time>
      </trkpt>
      <trkpt lat="42.581169" lon="-71.443003">
        <ele>118.405890</ele>
        <time>2026-08-11T11:56:37.338Z</time>
      </trkpt>
      <trkpt lat="42.581734" lon="-71.443989">
        <ele>114.608296</ele>
        <time>2026-08-11T11:56:50.921Z</time>
      </trkpt>
      <trkpt lat="42.581862" lon="-71.444275">
        <ele>113.061262</ele>
        <time>2026-08-11T11:56:54.441Z</time>
      </trkpt>
      <trkpt lat="42.581926" lon="-71.444483">
        <ele>112.019252</ele>
        <time>2026-08-11T11:56:56.808Z</time>
      </trkpt>
      <trkpt lat="42.582013" lon="-71.444763">
        <ele>110.614491</ele>
        <time>2026-08-11T11:56:59.983Z</time>
      </trkpt>
      <trkpt lat="42.582550" lon="-71.446071">
        <ele>103.704130</ele>
        <time>2026-08-11T11:57:16.067Z</time>
      </trkpt>
      <trkpt lat="42.582574" lon="-71.446133">
        <ele>103.391364</ele>
        <time>2026-08-11T11:57:16.848Z</time>
      </trkpt>
      <trkpt lat="42.582650" lon="-71.446327">
        <ele>102.410146</ele>
        <time>2026-08-11T11:57:19.271Z</time>
      </trkpt>
      <trkpt lat="42.582926" lon="-71.447112">
        <ele>98.525895</ele>
        <time>2026-08-11T11:57:28.919Z</time>
      </trkpt>
      <trkpt lat="42.583237" lon="-71.447963">
        <ele>94.283774</ele>
        <time>2026-08-11T11:57:39.205Z</time>
      </trkpt>
      <trkpt lat="42.583297" lon="-71.448195">
        <ele>93.185825</ele>
        <time>2026-08-11T11:57:41.776Z</time>
      </trkpt>
      <trkpt lat="42.583416" lon="-71.448593">
        <ele>90.495415</ele>
        <time>2026-08-11T11:57:46.200Z</time>
      </trkpt>
      <trkpt lat="42.583574" lon="-71.448973">
        <ele>87.740759</ele>
        <time>2026-08-11T11:57:50.633Z</time>
      </trkpt>
      <trkpt lat="42.583734" lon="-71.449195">
        <ele>85.779864</ele>
        <time>2026-08-11T11:57:53.762Z</time>
      </trkpt>
      <trkpt lat="42.583921" lon="-71.449407">
        <ele>83.691622</ele>
        <time>2026-08-11T11:57:57.089Z</time>
      </trkpt>
      <trkpt lat="42.584668" lon="-71.449951">
        <ele>77.025027</ele>
        <time>2026-08-11T11:58:08.755Z</time>
      </trkpt>
      <trkpt lat="42.585078" lon="-71.450186">
        <ele>74.983916</ele>
        <time>2026-08-11T11:58:15.088Z</time>
      </trkpt>
      <trkpt lat="42.585226" lon="-71.450284">
        <ele>74.228720</ele>
        <time>2026-08-11T11:58:17.517Z</time>
      </trkpt>
      <trkpt lat="42.586012" lon="-71.450825">
        <ele>70.187142</ele>
        <time>2026-08-11T11:58:31.864Z</time>
      </trkpt>
      <trkpt lat="42.586099" lon="-71.450894">
        <ele>69.725056</ele>
        <time>2026-08-11T11:58:33.827Z</time>
      </trkpt>
      <trkpt lat="42.587335" lon="-71.451909">
        <ele>69.075768</ele>
        <time>2026-08-11T11:59:06.881Z</time>
      </trkpt>
      <trkpt lat="42.587711" lon="-71.452249">
        <ele>68.947159</ele>
        <time>2026-08-11T11:59:16.812Z</time>
      </trkpt>
      <trkpt lat="42.587951" lon="-71.452598">
        <ele>68.833437</ele>
        <time>2026-08-11T11:59:24.048Z</time>
      </trkpt>
      <trkpt lat="42.588138" lon="-71.453065">
        <ele>68.706846</ele>
        <time>2026-08-11T11:59:31.717Z</time>
      </trkpt>
      <trkpt lat="42.588241" lon="-71.453421">
        <ele>68.615761</ele>
        <time>2026-08-11T11:59:37.257Z</time>
      </trkpt>
      <trkpt lat="42.588295" lon="-71.453574">
        <ele>68.575357</ele>
        <time>2026-08-11T11:59:39.792Z</time>
      </trkpt>
      <trkpt lat="42.588410" lon="-71.453893">
        <ele>68.490777</ele>
        <time>2026-08-11T11:59:45.189Z</time>
      </trkpt>
      <trkpt lat="42.588604" lon="-71.454462">
        <ele>68.551837</ele>
        <time>2026-08-11T11:59:55.429Z</time>
      </trkpt>
      <trkpt lat="42.588911" lon="-71.455337">
        <ele>69.627990</ele>
        <time>2026-08-11T12:00:14.406Z</time>
      </trkpt>
      <trkpt lat="42.589297" lon="-71.456510">
        <ele>71.054487</ele>
        <time>2026-08-11T12:00:44.228Z</time>
      </trkpt>
      <trkpt lat="42.589439" lon="-71.457216">
        <ele>71.081623</ele>
        <time>2026-08-11T12:01:00.892Z</time>
      </trkpt>
      <trkpt lat="42.589505" lon="-71.457492">
        <ele>71.077720</ele>
        <time>2026-08-11T12:01:06.708Z</time>
      </trkpt>
      <trkpt lat="42.589607" lon="-71.457791">
        <ele>71.073287</ele>
        <time>2026-08-11T12:01:12.604Z</time>
      </trkpt>
      <trkpt lat="42.589722" lon="-71.458042">
        <ele>71.069311</ele>
        <time>2026-08-11T12:01:17.227Z</time>
      </trkpt>
      <trkpt lat="42.589858" lon="-71.458249">
        <ele>71.065579</ele>
        <time>2026-08-11T12:01:21.135Z</time>
      </trkpt>
      <trkpt lat="42.590035" lon="-71.458472">
        <ele>71.061169</ele>
        <time>2026-08-11T12:01:25.443Z</time>
      </trkpt>
      <trkpt lat="42.590440" lon="-71.458802">
        <ele>69.776664</ele>
        <time>2026-08-11T12:01:33.243Z</time>
      </trkpt>
      <trkpt lat="42.591279" lon="-71.459431">
        <ele>65.787069</ele>
        <time>2026-08-11T12:01:47.715Z</time>
      </trkpt>
      <trkpt lat="42.591238" lon="-71.459576">
        <ele>65.311004</ele>
        <time>2026-08-11T12:01:49.424Z</time>
      </trkpt>
      <trkpt lat="42.591240" lon="-71.459734">
        <ele>64.826675</ele>
        <time>2026-08-11T12:01:51.176Z</time>
      </trkpt>
      <trkpt lat="42.591345" lon="-71.460161">
        <ele>63.527829</ele>
        <time>2026-08-11T12:01:56.272Z</time>
      </trkpt>
      <trkpt lat="42.591390" lon="-71.460408">
        <ele>63.260164</ele>
        <time>2026-08-11T12:01:59.232Z</time>
      </trkpt>
      <trkpt lat="42.591421" lon="-71.460769">
        <ele>62.877843</ele>
        <time>2026-08-11T12:02:03.638Z</time>
      </trkpt>
      <trkpt lat="42.591428" lon="-71.461218">
        <ele>62.405421</ele>
        <time>2026-08-11T12:02:09.303Z</time>
      </trkpt>
      <trkpt lat="42.591461" lon="-71.461977">
        <ele>61.605616</ele>
        <time>2026-08-11T12:02:20.628Z</time>
      </trkpt>
      <trkpt lat="42.591588" lon="-71.463091">
        <ele>61.203655</ele>
        <time>2026-08-11T12:02:43.026Z</time>
      </trkpt>
      <trkpt lat="42.591618" lon="-71.463348">
        <ele>61.299666</ele>
        <time>2026-08-11T12:02:47.947Z</time>
      </trkpt>
      <trkpt lat="42.591688" lon="-71.463904">
        <ele>61.507792</ele>
        <time>2026-08-11T12:02:57.875Z</time>
      </trkpt>
      <trkpt lat="42.591866" lon="-71.464766">
        <ele>61.838119</ele>
        <time>2026-08-11T12:03:13.424Z</time>
      </trkpt>
      <trkpt lat="42.592002" lon="-71.465208">
        <ele>61.897727</ele>
        <time>2026-08-11T12:03:21.142Z</time>
      </trkpt>
      <trkpt lat="42.592526" lon="-71.466473">
        <ele>61.879597</ele>
        <time>2026-08-11T12:03:45.748Z</time>
      </trkpt>
      <trkpt lat="42.592663" lon="-71.466951">
        <ele>61.873190</ele>
        <time>2026-08-11T12:03:54.140Z</time>
      </trkpt>
      <trkpt lat="42.592783" lon="-71.467610">
        <ele>61.643041</ele>
        <time>2026-08-11T12:04:04.102Z</time>
      </trkpt>
      <trkpt lat="42.592721" lon="-71.468520">
        <ele>61.232232</ele>
        <time>2026-08-11T12:04:16.798Z</time>
      </trkpt>
      <trkpt lat="42.592749" lon="-71.468591">
        <ele>61.196026</ele>
        <time>2026-08-11T12:04:17.875Z</time>
      </trkpt>
      <trkpt lat="42.592851" lon="-71.468724">
        <ele>61.109693</ele>
        <time>2026-08-11T12:04:20.551Z</time>
      </trkpt>
      <trkpt lat="42.593083" lon="-71.468920">
        <ele>60.942869</ele>
        <time>2026-08-11T12:04:25.929Z</time>
      </trkpt>
      <trkpt lat="42.592994" lon="-71.469128">
        <ele>60.834724</ele>
        <time>2026-08-11T12:04:29.597Z</time>
      </trkpt>
      <trkpt lat="42.592909" lon="-71.469601">
        <ele>61.131243</ele>
        <time>2026-08-11T12:04:38.119Z</time>
      </trkpt>
      <trkpt lat="42.592881" lon="-71.469781">
        <ele>61.320150</ele>
        <time>2026-08-11T12:04:41.738Z</time>
      </trkpt>
      <trkpt lat="42.592753" lon="-71.470474">
        <ele>62.053788</ele>
        <time>2026-08-11T12:04:57.182Z</time>
      </trkpt>
      <trkpt lat="42.592530" lon="-71.471228">
        <ele>62.888151</ele>
        <time>2026-08-11T12:05:15.614Z</time>
      </trkpt>
      <trkpt lat="42.592220" lon="-71.471852">
        <ele>63.599771</ele>
        <time>2026-08-11T12:05:31.981Z</time>
      </trkpt>
      <trkpt lat="42.591688" lon="-71.472669">
        <ele>64.538738</ele>
        <time>2026-08-11T12:05:52.870Z</time>
      </trkpt>
      <trkpt lat="42.591654" lon="-71.472733">
        <ele>64.606680</ele>
        <time>2026-08-11T12:05:54.329Z</time>
      </trkpt>
      <trkpt lat="42.591544" lon="-71.472942">
        <ele>64.827851</ele>
        <time>2026-08-11T12:05:59.122Z</time>
      </trkpt>
      <trkpt lat="42.591342" lon="-71.473322">
        <ele>65.231345</ele>
        <time>2026-08-11T12:06:07.975Z</time>
      </trkpt>
      <trkpt lat="42.591220" lon="-71.473608">
        <ele>65.493448</ele>
        <time>2026-08-11T12:06:14.424Z</time>
      </trkpt>
      <trkpt lat="42.591134" lon="-71.473890">
        <ele>65.711244</ele>
        <time>2026-08-11T12:06:20.583Z</time>
      </trkpt>
      <trkpt lat="42.591119" lon="-71.474092">
        <ele>65.856108</ele>
        <time>2026-08-11T12:06:24.776Z</time>
      </trkpt>
      <trkpt lat="42.591240" lon="-71.475129">
        <ele>66.605271</ele>
        <time>2026-08-11T12:06:46.063Z</time>
      </trkpt>
      <trkpt lat="42.591374" lon="-71.475212">
        <ele>66.748010</ele>
        <time>2026-08-11T12:06:49.967Z</time>
      </trkpt>
      <trkpt lat="42.591494" lon="-71.475381">
        <ele>66.915543</ele>
        <time>2026-08-11T12:06:54.384Z</time>
      </trkpt>
      <trkpt lat="42.591511" lon="-71.475409">
        <ele>66.941440</ele>
        <time>2026-08-11T12:06:55.052Z</time>
      </trkpt>
      <trkpt lat="42.591790" lon="-71.475877">
        <ele>67.228056</ele>
        <time>2026-08-11T12:07:05.704Z</time>
      </trkpt>
      <trkpt lat="42.591981" lon="-71.476160">
        <ele>67.340808</ele>
        <time>2026-08-11T12:07:12.448Z</time>
      </trkpt>
      <trkpt lat="42.592365" lon="-71.476595">
        <ele>67.540272</ele>
        <time>2026-08-11T12:07:24.309Z</time>
      </trkpt>
      <trkpt lat="42.592621" lon="-71.477005">
        <ele>67.698156</ele>
        <time>2026-08-11T12:07:33.912Z</time>
      </trkpt>
      <trkpt lat="42.593097" lon="-71.477988">
        <ele>68.209039</ele>
        <time>2026-08-11T12:07:56.842Z</time>
      </trkpt>
      <trkpt lat="42.593364" lon="-71.478485">
        <ele>68.540464</ele>
        <time>2026-08-11T12:08:08.982Z</time>
      </trkpt>
      <trkpt lat="42.593456" lon="-71.478643">
        <ele>68.648979</ele>
        <time>2026-08-11T12:08:12.819Z</time>
      </trkpt>
      <trkpt lat="42.593774" lon="-71.479047">
        <ele>68.967572</ele>
        <time>2026-08-11T12:08:23.947Z</time>
      </trkpt>
      <trkpt lat="42.593997" lon="-71.479288">
        <ele>69.170999</ele>
        <time>2026-08-11T12:08:31.191Z</time>
      </trkpt>
      <trkpt lat="42.594240" lon="-71.479666">
        <ele>69.346476</ele>
        <time>2026-08-11T12:08:40.600Z</time>
      </trkpt>
      <trkpt lat="42.594562" lon="-71.480364">
        <ele>69.634505</ele>
        <time>2026-08-11T12:08:56.174Z</time>
      </trkpt>
      <trkpt lat="42.594621" lon="-71.480535">
        <ele>69.700539</ele>
        <time>2026-08-11T12:08:59.714Z</time>
      </trkpt>
      <trkpt lat="42.594704" lon="-71.480935">
        <ele>69.845855</ele>
        <time>2026-08-11T12:09:07.421Z</time>
      </trkpt>
      <trkpt lat="42.594754" lon="-71.481375">
        <ele>70.001529</ele>
        <time>2026-08-11T12:09:15.504Z</time>
      </trkpt>
      <trkpt lat="42.594851" lon="-71.481920">
        <ele>70.067882</ele>
        <time>2026-08-11T12:09:25.219Z</time>
      </trkpt>
      <trkpt lat="42.595039" lon="-71.482970">
        <ele>70.175966</ele>
        <time>2026-08-11T12:09:43.603Z</time>
      </trkpt>
      <trkpt lat="42.595062" lon="-71.483482">
        <ele>70.227272</ele>
        <time>2026-08-11T12:09:52.599Z</time>
      </trkpt>
      <trkpt lat="42.595038" lon="-71.483804">
        <ele>70.259644</ele>
        <time>2026-08-11T12:09:58.217Z</time>
      </trkpt>
      <trkpt lat="42.595005" lon="-71.484120">
        <ele>70.388190</ele>
        <time>2026-08-11T12:10:03.876Z</time>
      </trkpt>
      <trkpt lat="42.595006" lon="-71.484356">
        <ele>70.484732</ele>
        <time>2026-08-11T12:10:08.112Z</time>
      </trkpt>
      <trkpt lat="42.595028" lon="-71.484782">
        <ele>70.659424</ele>
        <time>2026-08-11T12:10:15.973Z</time>
      </trkpt>
      <trkpt lat="42.595086" lon="-71.485277">
        <ele>70.864462</ele>
        <time>2026-08-11T12:10:25.411Z</time>
      </trkpt>
      <trkpt lat="42.595320" lon="-71.486278">
        <ele>71.307404</ele>
        <time>2026-08-11T12:10:45.232Z</time>
      </trkpt>
      <trkpt lat="42.595609" lon="-71.487263">
        <ele>71.909454</ele>
        <time>2026-08-11T12:11:06.999Z</time>
      </trkpt>
      <trkpt lat="42.595766" lon="-71.487974">
        <ele>72.330918</ele>
        <time>2026-08-11T12:11:21.911Z</time>
      </trkpt>
      <trkpt lat="42.595835" lon="-71.488225">
        <ele>72.483043</ele>
        <time>2026-08-11T12:11:26.963Z</time>
      </trkpt>
      <trkpt lat="42.595958" lon="-71.488509">
        <ele>72.641651</ele>
        <time>2026-08-11T12:11:32.972Z</time>
      </trkpt>
      <trkpt lat="42.596659" lon="-71.489530">
        <ele>72.456578</ele>
        <time>2026-08-11T12:11:55.213Z</time>
      </trkpt>
      <trkpt lat="42.597149" lon="-71.490186">
        <ele>72.332695</ele>
        <time>2026-08-11T12:12:10.019Z</time>
      </trkpt>
      <trkpt lat="42.597594" lon="-71.490809">
        <ele>72.774035</ele>
        <time>2026-08-11T12:12:25.905Z</time>
      </trkpt>
      <trkpt lat="42.597969" lon="-71.491333">
        <ele>73.187930</ele>
        <time>2026-08-11T12:12:40.724Z</time>
      </trkpt>
      <trkpt lat="42.598715" lon="-71.492357">
        <ele>74.205359</ele>
        <time>2026-08-11T12:13:09.970Z</time>
      </trkpt>
      <trkpt lat="42.598965" lon="-71.492695">
        <ele>74.660897</ele>
        <time>2026-08-11T12:13:19.483Z</time>
      </trkpt>
      <trkpt lat="42.599743" lon="-71.493984">
        <ele>76.384825</ele>
        <time>2026-08-11T12:13:54.641Z</time>
      </trkpt>
      <trkpt lat="42.600012" lon="-71.494361">
        <ele>77.206141</ele>
        <time>2026-08-11T12:14:06.867Z</time>
      </trkpt>
      <trkpt lat="42.600133" lon="-71.494478">
        <ele>77.521759</ele>
        <time>2026-08-11T12:14:11.660Z</time>
      </trkpt>
      <trkpt lat="42.600351" lon="-71.494614">
        <ele>78.031538</ele>
        <time>2026-08-11T12:14:19.500Z</time>
      </trkpt>
      <trkpt lat="42.601211" lon="-71.495023">
        <ele>79.881006</ele>
        <time>2026-08-11T12:14:49.519Z</time>
      </trkpt>
      <trkpt lat="42.601381" lon="-71.495099">
        <ele>79.975615</ele>
        <time>2026-08-11T12:14:55.321Z</time>
      </trkpt>
      <trkpt lat="42.602054" lon="-71.495341">
        <ele>80.343638</ele>
        <time>2026-08-11T12:15:15.878Z</time>
      </trkpt>
      <trkpt lat="42.602562" lon="-71.495386">
        <ele>80.612755</ele>
        <time>2026-08-11T12:15:27.583Z</time>
      </trkpt>
      <trkpt lat="42.602931" lon="-71.495416">
        <ele>80.784765</ele>
        <time>2026-08-11T12:15:34.910Z</time>
      </trkpt>
      <trkpt lat="42.604302" lon="-71.495644">
        <ele>78.161559</ele>
        <time>2026-08-11T12:15:59.530Z</time>
      </trkpt>
      <trkpt lat="42.604276" lon="-71.495924">
        <ele>77.767050</ele>
        <time>2026-08-11T12:16:03.170Z</time>
      </trkpt>
      <trkpt lat="42.604246" lon="-71.496318">
        <ele>77.405322</ele>
        <time>2026-08-11T12:16:08.448Z</time>
      </trkpt>
      <trkpt lat="42.604111" lon="-71.498297">
        <ele>77.696108</ele>
        <time>2026-08-11T12:16:42.328Z</time>
      </trkpt>
      <trkpt lat="42.604130" lon="-71.498629">
        <ele>77.745098</ele>
        <time>2026-08-11T12:16:49.501Z</time>
      </trkpt>
      <trkpt lat="42.604180" lon="-71.498856">
        <ele>77.834760</ele>
        <time>2026-08-11T12:16:54.539Z</time>
      </trkpt>
      <trkpt lat="42.604366" lon="-71.499445">
        <ele>78.077287</ele>
        <time>2026-08-11T12:17:07.959Z</time>
      </trkpt>
      <trkpt lat="42.604483" lon="-71.499797">
        <ele>78.223438</ele>
        <time>2026-08-11T12:17:15.938Z</time>
      </trkpt>
      <trkpt lat="42.605101" lon="-71.501660">
        <ele>77.274809</ele>
        <time>2026-08-11T12:17:47.672Z</time>
      </trkpt>
      <trkpt lat="42.605301" lon="-71.502308">
        <ele>76.142050</ele>
        <time>2026-08-11T12:17:56.400Z</time>
      </trkpt>
      <trkpt lat="42.605669" lon="-71.503553">
        <ele>73.617769</ele>
        <time>2026-08-11T12:18:12.078Z</time>
      </trkpt>
      <trkpt lat="42.605873" lon="-71.504032">
        <ele>72.296087</ele>
        <time>2026-08-11T12:18:18.424Z</time>
      </trkpt>
      <trkpt lat="42.606136" lon="-71.504557">
        <ele>70.779397</ele>
        <time>2026-08-11T12:18:25.907Z</time>
      </trkpt>
      <trkpt lat="42.606434" lon="-71.505075">
        <ele>69.209231</ele>
        <time>2026-08-11T12:18:34.007Z</time>
      </trkpt>
      <trkpt lat="42.606947" lon="-71.505922">
        <ele>67.934934</ele>
        <time>2026-08-11T12:18:48.524Z</time>
      </trkpt>
      <trkpt lat="42.607474" lon="-71.506892">
        <ele>66.736831</ele>
        <time>2026-08-11T12:19:05.808Z</time>
      </trkpt>
      <trkpt lat="42.607836" lon="-71.507575">
        <ele>65.984524</ele>
        <time>2026-08-11T12:19:17.964Z</time>
      </trkpt>
      <trkpt lat="42.608032" lon="-71.508014">
        <ele>65.550250</ele>
        <time>2026-08-11T12:19:25.317Z</time>
      </trkpt>
      <trkpt lat="42.608088" lon="-71.508219">
        <ele>65.365308</ele>
        <time>2026-08-11T12:19:28.341Z</time>
      </trkpt>
      <trkpt lat="42.608123" lon="-71.508440">
        <ele>65.174112</ele>
        <time>2026-08-11T12:19:31.398Z</time>
      </trkpt>
      <trkpt lat="42.608122" lon="-71.508671">
        <ele>64.978734</ele>
        <time>2026-08-11T12:19:34.528Z</time>
      </trkpt>
      <trkpt lat="42.608064" lon="-71.509403">
        <ele>64.330954</ele>
        <time>2026-08-11T12:19:44.672Z</time>
      </trkpt>
      <trkpt lat="42.608018" lon="-71.509843">
        <ele>63.731835</ele>
        <time>2026-08-11T12:19:50.769Z</time>
      </trkpt>
      <trkpt lat="42.607984" lon="-71.510154">
        <ele>63.307975</ele>
        <time>2026-08-11T12:19:54.997Z</time>
      </trkpt>
      <trkpt lat="42.607906" lon="-71.510968">
        <ele>62.201357</ele>
        <time>2026-08-11T12:20:05.603Z</time>
      </trkpt>
      <trkpt lat="42.607939" lon="-71.512209">
        <ele>60.909858</ele>
        <time>2026-08-11T12:20:21.536Z</time>
      </trkpt>
      <trkpt lat="42.608008" lon="-71.512675">
        <ele>60.694298</ele>
        <time>2026-08-11T12:20:27.802Z</time>
      </trkpt>
      <trkpt lat="42.608217" lon="-71.513239">
        <ele>60.407942</ele>
        <time>2026-08-11T12:20:36.910Z</time>
      </trkpt>
      <trkpt lat="42.608268" lon="-71.513351">
        <ele>60.348216</ele>
        <time>2026-08-11T12:20:39.007Z</time>
      </trkpt>
      <trkpt lat="42.608810" lon="-71.514627">
        <ele>60.466020</ele>
        <time>2026-08-11T12:21:07.359Z</time>
      </trkpt>
      <trkpt lat="42.609200" lon="-71.515407">
        <ele>61.103778</ele>
        <time>2026-08-11T12:21:26.979Z</time>
      </trkpt>
      <trkpt lat="42.609435" lon="-71.515866">
        <ele>61.481936</ele>
        <time>2026-08-11T12:21:37.071Z</time>
      </trkpt>
      <trkpt lat="42.609518" lon="-71.516024">
        <ele>61.613223</ele>
        <time>2026-08-11T12:21:40.163Z</time>
      </trkpt>
      <trkpt lat="42.609932" lon="-71.516742">
        <ele>62.293215</ele>
        <time>2026-08-11T12:21:55.537Z</time>
      </trkpt>
      <trkpt lat="42.610224" lon="-71.517195">
        <ele>62.744667</ele>
        <time>2026-08-11T12:22:06.587Z</time>
      </trkpt>
      <trkpt lat="42.610996" lon="-71.518364">
        <ele>64.400267</ele>
        <time>2026-08-11T12:22:40.882Z</time>
      </trkpt>
      <trkpt lat="42.611330" lon="-71.518734">
        <ele>65.314530</ele>
        <time>2026-08-11T12:22:54.937Z</time>
      </trkpt>
      <trkpt lat="42.611741" lon="-71.519105">
        <ele>66.361374</ele>
        <time>2026-08-11T12:23:10.510Z</time>
      </trkpt>
      <trkpt lat="42.611893" lon="-71.519295">
        <ele>66.799554</ele>
        <time>2026-08-11T12:23:16.704Z</time>
      </trkpt>
      <trkpt lat="42.611981" lon="-71.519447">
        <ele>67.101516</ele>
        <time>2026-08-11T12:23:20.878Z</time>
      </trkpt>
      <trkpt lat="42.612153" lon="-71.519828">
        <ele>67.838389</ele>
        <time>2026-08-11T12:23:30.368Z</time>
      </trkpt>
      <trkpt lat="42.612378" lon="-71.520437">
        <ele>68.984840</ele>
        <time>2026-08-11T12:23:45.408Z</time>
      </trkpt>
      <trkpt lat="42.612459" lon="-71.520788">
        <ele>69.603716</ele>
        <time>2026-08-11T12:23:54.091Z</time>
      </trkpt>
      <trkpt lat="42.612494" lon="-71.521155">
        <ele>70.226322</ele>
        <time>2026-08-11T12:24:03.061Z</time>
      </trkpt>
      <trkpt lat="42.612491" lon="-71.522162">
        <ele>71.720343</ele>
        <time>2026-08-11T12:24:27.530Z</time>
      </trkpt>
      <trkpt lat="42.612539" lon="-71.522579">
        <ele>72.152942</ele>
        <time>2026-08-11T12:24:37.515Z</time>
      </trkpt>
      <trkpt lat="42.612762" lon="-71.523449">
        <ele>73.097181</ele>
        <time>2026-08-11T12:24:57.028Z</time>
      </trkpt>
      <trkpt lat="42.612948" lon="-71.524737">
        <ele>73.931811</ele>
        <time>2026-08-11T12:25:19.053Z</time>
      </trkpt>
      <trkpt lat="42.613009" lon="-71.525274">
        <ele>73.951368</ele>
        <time>2026-08-11T12:25:27.102Z</time>
      </trkpt>
      <trkpt lat="42.613045" lon="-71.526079">
        <ele>73.980397</ele>
        <time>2026-08-11T12:25:39.786Z</time>
      </trkpt>
      <trkpt lat="42.613034" lon="-71.526496">
        <ele>73.995416</ele>
        <time>2026-08-11T12:25:46.995Z</time>
      </trkpt>
      <trkpt lat="42.612985" lon="-71.526914">
        <ele>74.257626</ele>
        <time>2026-08-11T12:25:54.838Z</time>
      </trkpt>
      <trkpt lat="42.612812" lon="-71.527620">
        <ele>74.983809</ele>
        <time>2026-08-11T12:26:08.919Z</time>
      </trkpt>
      <trkpt lat="42.612675" lon="-71.527967">
        <ele>75.368104</ele>
        <time>2026-08-11T12:26:17.154Z</time>
      </trkpt>
      <trkpt lat="42.612659" lon="-71.528004">
        <ele>75.409985</ele>
        <time>2026-08-11T12:26:18.075Z</time>
      </trkpt>
      <trkpt lat="42.612539" lon="-71.528274">
        <ele>75.717805</ele>
        <time>2026-08-11T12:26:25.151Z</time>
      </trkpt>
      <trkpt lat="42.612286" lon="-71.528743">
        <ele>76.285301</ele>
        <time>2026-08-11T12:26:38.164Z</time>
      </trkpt>
      <trkpt lat="42.611980" lon="-71.529274">
        <ele>76.902794</ele>
        <time>2026-08-11T12:26:52.782Z</time>
      </trkpt>
      <trkpt lat="42.611805" lon="-71.529585">
        <ele>77.256957</ele>
        <time>2026-08-11T12:27:00.713Z</time>
      </trkpt>
      <trkpt lat="42.611602" lon="-71.529992">
        <ele>77.701745</ele>
        <time>2026-08-11T12:27:10.322Z</time>
      </trkpt>
      <trkpt lat="42.611396" lon="-71.530567">
        <ele>78.280287</ele>
        <time>2026-08-11T12:27:22.663Z</time>
      </trkpt>
      <trkpt lat="42.611178" lon="-71.531319">
        <ele>78.830276</ele>
        <time>2026-08-11T12:27:37.383Z</time>
      </trkpt>
      <trkpt lat="42.611120" lon="-71.531468">
        <ele>78.916059</ele>
        <time>2026-08-11T12:27:40.499Z</time>
      </trkpt>
      <trkpt lat="42.610844" lon="-71.532126">
        <ele>79.301502</ele>
        <time>2026-08-11T12:27:54.727Z</time>
      </trkpt>
      <trkpt lat="42.610739" lon="-71.532360">
        <ele>79.440981</ele>
        <time>2026-08-11T12:28:00.087Z</time>
      </trkpt>
      <trkpt lat="42.610534" lon="-71.532822">
        <ele>79.715534</ele>
        <time>2026-08-11T12:28:10.529Z</time>
      </trkpt>
      <trkpt lat="42.610130" lon="-71.533744">
        <ele>79.737214</ele>
        <time>2026-08-11T12:28:28.066Z</time>
      </trkpt>
      <trkpt lat="42.609903" lon="-71.534282">
        <ele>79.659310</ele>
        <time>2026-08-11T12:28:37.324Z</time>
      </trkpt>
      <trkpt lat="42.609739" lon="-71.534838">
        <ele>79.584063</ele>
        <time>2026-08-11T12:28:46.354Z</time>
      </trkpt>
      <trkpt lat="42.609690" lon="-71.535100">
        <ele>79.550104</ele>
        <time>2026-08-11T12:28:50.471Z</time>
      </trkpt>
      <trkpt lat="42.609633" lon="-71.535715">
        <ele>79.833501</ele>
        <time>2026-08-11T12:29:00.441Z</time>
      </trkpt>
      <trkpt lat="42.609633" lon="-71.536207">
        <ele>80.133049</ele>
        <time>2026-08-11T12:29:09.274Z</time>
      </trkpt>
      <trkpt lat="42.609670" lon="-71.536521">
        <ele>80.326659</ele>
        <time>2026-08-11T12:29:15.392Z</time>
      </trkpt>
      <trkpt lat="42.609808" lon="-71.537612">
        <ele>81.000638</ele>
        <time>2026-08-11T12:29:38.141Z</time>
      </trkpt>
      <trkpt lat="42.609834" lon="-71.537996">
        <ele>81.471499</ele>
        <time>2026-08-11T12:29:46.306Z</time>
      </trkpt>
      <trkpt lat="42.609827" lon="-71.538333">
        <ele>81.903752</ele>
        <time>2026-08-11T12:29:53.532Z</time>
      </trkpt>
      <trkpt lat="42.609825" lon="-71.538396">
        <ele>81.984602</ele>
        <time>2026-08-11T12:29:54.882Z</time>
      </trkpt>
      <trkpt lat="42.609818" lon="-71.538732">
        <ele>82.415575</ele>
        <time>2026-08-11T12:30:02.085Z</time>
      </trkpt>
      <trkpt lat="42.609694" lon="-71.539614">
        <ele>83.566872</ele>
        <time>2026-08-11T12:30:21.573Z</time>
      </trkpt>
      <trkpt lat="42.609568" lon="-71.540395">
        <ele>84.617504</ele>
        <time>2026-08-11T12:30:39.097Z</time>
      </trkpt>
      <trkpt lat="42.609461" lon="-71.541043">
        <ele>85.518714</ele>
        <time>2026-08-11T12:30:53.648Z</time>
      </trkpt>
      <trkpt lat="42.609429" lon="-71.541335">
        <ele>85.919334</ele>
        <time>2026-08-11T12:31:00.083Z</time>
      </trkpt>
      <trkpt lat="42.609242" lon="-71.542143">
        <ele>87.068745</ele>
        <time>2026-08-11T12:31:18.579Z</time>
      </trkpt>
      <trkpt lat="42.609023" lon="-71.542862">
        <ele>87.976673</ele>
        <time>2026-08-11T12:31:35.417Z</time>
      </trkpt>
      <trkpt lat="42.608886" lon="-71.543401">
        <ele>88.575082</ele>
        <time>2026-08-11T12:31:47.533Z</time>
      </trkpt>
      <trkpt lat="42.608657" lon="-71.543983">
        <ele>89.267637</ele>
        <time>2026-08-11T12:32:01.072Z</time>
      </trkpt>
      <trkpt lat="42.608470" lon="-71.544287">
        <ele>89.683409</ele>
        <time>2026-08-11T12:32:08.745Z</time>
      </trkpt>
      <trkpt lat="42.608108" lon="-71.544782">
        <ele>90.425704</ele>
        <time>2026-08-11T12:32:22.142Z</time>
      </trkpt>
      <trkpt lat="42.607996" lon="-71.544955">
        <ele>90.673868</ele>
        <time>2026-08-11T12:32:26.592Z</time>
      </trkpt>
      <trkpt lat="42.607899" lon="-71.545212">
        <ele>90.984954</ele>
        <time>2026-08-11T12:32:32.224Z</time>
      </trkpt>
      <trkpt lat="42.607797" lon="-71.546074">
        <ele>91.925325</ele>
        <time>2026-08-11T12:32:50.247Z</time>
      </trkpt>
      <trkpt lat="42.607724" lon="-71.546446">
        <ele>92.339998</ele>
        <time>2026-08-11T12:32:58.699Z</time>
      </trkpt>
      <trkpt lat="42.607223" lon="-71.547686">
        <ele>93.701092</ele>
        <time>2026-08-11T12:33:30.218Z</time>
      </trkpt>
      <trkpt lat="42.606940" lon="-71.548491">
        <ele>94.531333</ele>
        <time>2026-08-11T12:33:47.482Z</time>
      </trkpt>
      <trkpt lat="42.606559" lon="-71.549649">
        <ele>94.895241</ele>
        <time>2026-08-11T12:34:09.385Z</time>
      </trkpt>
      <trkpt lat="42.606502" lon="-71.549982">
        <ele>94.875597</ele>
        <time>2026-08-11T12:34:14.874Z</time>
      </trkpt>
      <trkpt lat="42.606505" lon="-71.550166">
        <ele>94.865022</ele>
        <time>2026-08-11T12:34:17.748Z</time>
      </trkpt>
      <trkpt lat="42.606587" lon="-71.550573">
        <ele>94.840775</ele>
        <time>2026-08-11T12:34:24.260Z</time>
      </trkpt>
      <trkpt lat="42.606711" lon="-71.551249">
        <ele>94.789066</ele>
        <time>2026-08-11T12:34:34.903Z</time>
      </trkpt>
      <trkpt lat="42.606722" lon="-71.551774">
        <ele>94.533560</ele>
        <time>2026-08-11T12:34:42.938Z</time>
      </trkpt>
      <trkpt lat="42.606693" lon="-71.552223">
        <ele>94.314290</ele>
        <time>2026-08-11T12:34:49.488Z</time>
      </trkpt>
      <trkpt lat="42.606675" lon="-71.552807">
        <ele>94.029936</ele>
        <time>2026-08-11T12:34:57.907Z</time>
      </trkpt>
      <trkpt lat="42.606699" lon="-71.553093">
        <ele>93.889901</ele>
        <time>2026-08-11T12:35:02.085Z</time>
      </trkpt>
      <trkpt lat="42.606779" lon="-71.553410">
        <ele>93.726873</ele>
        <time>2026-08-11T12:35:06.952Z</time>
      </trkpt>
      <trkpt lat="42.607089" lon="-71.554075">
        <ele>93.812557</ele>
        <time>2026-08-11T12:35:18.702Z</time>
      </trkpt>
      <trkpt lat="42.607258" lon="-71.554375">
        <ele>93.948305</ele>
        <time>2026-08-11T12:35:24.557Z</time>
      </trkpt>
      <trkpt lat="42.607365" lon="-71.554660">
        <ele>94.063266</ele>
        <time>2026-08-11T12:35:29.891Z</time>
      </trkpt>
      <trkpt lat="42.607456" lon="-71.555639">
        <ele>94.417838</ele>
        <time>2026-08-11T12:35:49.641Z</time>
      </trkpt>
      <trkpt lat="42.607502" lon="-71.555918">
        <ele>94.614245</ele>
        <time>2026-08-11T12:35:55.827Z</time>
      </trkpt>
      <trkpt lat="42.607565" lon="-71.556304">
        <ele>95.215252</ele>
        <time>2026-08-11T12:36:04.385Z</time>
      </trkpt>
      <trkpt lat="42.607609" lon="-71.556871">
        <ele>96.081918</ele>
        <time>2026-08-11T12:36:17.221Z</time>
      </trkpt>
      <trkpt lat="42.607611" lon="-71.557315">
        <ele>96.756849</ele>
        <time>2026-08-11T12:36:27.808Z</time>
      </trkpt>
      <trkpt lat="42.607587" lon="-71.557495">
        <ele>97.034918</ele>
        <time>2026-08-11T12:36:32.168Z</time>
      </trkpt>
      <trkpt lat="42.607501" lon="-71.557897">
        <ele>97.671282</ele>
        <time>2026-08-11T12:36:42.062Z</time>
      </trkpt>
      <trkpt lat="42.607399" lon="-71.558222">
        <ele>98.207009</ele>
        <time>2026-08-11T12:36:50.053Z</time>
      </trkpt>
      <trkpt lat="42.607189" lon="-71.558682">
        <ele>98.481035</ele>
        <time>2026-08-11T12:37:01.371Z</time>
      </trkpt>
      <trkpt lat="42.606941" lon="-71.559095">
        <ele>98.750866</ele>
        <time>2026-08-11T12:37:12.403Z</time>
      </trkpt>
      <trkpt lat="42.606814" lon="-71.559288">
        <ele>98.881925</ele>
        <time>2026-08-11T12:37:17.569Z</time>
      </trkpt>
      <trkpt lat="42.606541" lon="-71.559805">
        <ele>99.204041</ele>
        <time>2026-08-11T12:37:28.920Z</time>
      </trkpt>
      <trkpt lat="42.606193" lon="-71.560771">
        <ele>99.008659</ele>
        <time>2026-08-11T12:37:43.974Z</time>
      </trkpt>
      <trkpt lat="42.605710" lon="-71.561605">
        <ele>98.242896</ele>
        <time>2026-08-11T12:37:57.397Z</time>
      </trkpt>
      <trkpt lat="42.605571" lon="-71.561899">
        <ele>97.990751</ele>
        <time>2026-08-11T12:38:02.328Z</time>
      </trkpt>
      <trkpt lat="42.605476" lon="-71.562183">
        <ele>97.765648</ele>
        <time>2026-08-11T12:38:07.243Z</time>
      </trkpt>
      <trkpt lat="42.605386" lon="-71.562513">
        <ele>98.202614</ele>
        <time>2026-08-11T12:38:14.144Z</time>
      </trkpt>
      <trkpt lat="42.605290" lon="-71.563127">
        <ele>99.607971</ele>
        <time>2026-08-11T12:38:28.898Z</time>
      </trkpt>
      <trkpt lat="42.605269" lon="-71.563639">
        <ele>100.756067</ele>
        <time>2026-08-11T12:38:42.628Z</time>
      </trkpt>
      <trkpt lat="42.605320" lon="-71.563993">
        <ele>101.563678</ele>
        <time>2026-08-11T12:38:53.291Z</time>
      </trkpt>
      <trkpt lat="42.605340" lon="-71.564109">
        <ele>101.830420</ele>
        <time>2026-08-11T12:38:56.856Z</time>
      </trkpt>
      <trkpt lat="42.605457" lon="-71.564403">
        <ele>102.578709</ele>
        <time>2026-08-11T12:39:06.810Z</time>
      </trkpt>
      <trkpt lat="42.605655" lon="-71.564985">
        <ele>103.670438</ele>
        <time>2026-08-11T12:39:25.503Z</time>
      </trkpt>
      <trkpt lat="42.605729" lon="-71.565610">
        <ele>104.523112</ele>
        <time>2026-08-11T12:39:42.369Z</time>
      </trkpt>
      <trkpt lat="42.605781" lon="-71.566215">
        <ele>105.343560</ele>
        <time>2026-08-11T12:39:55.891Z</time>
      </trkpt>
      <trkpt lat="42.605850" lon="-71.566895">
        <ele>106.268155</ele>
        <time>2026-08-11T12:40:07.671Z</time>
      </trkpt>
      <trkpt lat="42.605860" lon="-71.567268">
        <ele>105.700249</ele>
        <time>2026-08-11T12:40:12.852Z</time>
      </trkpt>
      <trkpt lat="42.605853" lon="-71.567401">
        <ele>105.293646</ele>
        <time>2026-08-11T12:40:14.579Z</time>
      </trkpt>
      <trkpt lat="42.605835" lon="-71.568135">
        <ele>103.054155</ele>
        <time>2026-08-11T12:40:23.269Z</time>
      </trkpt>
      <trkpt lat="42.605886" lon="-71.568478">
        <ele>101.987088</ele>
        <time>2026-08-11T12:40:27.115Z</time>
      </trkpt>
      <trkpt lat="42.605853" lon="-71.568585">
        <ele>101.633318</ele>
        <time>2026-08-11T12:40:28.374Z</time>
      </trkpt>
      <trkpt lat="42.605336" lon="-71.570157">
        <ele>96.354696</ele>
        <time>2026-08-11T12:40:46.890Z</time>
      </trkpt>
      <trkpt lat="42.605215" lon="-71.570525">
        <ele>95.112345</ele>
        <time>2026-08-11T12:40:51.417Z</time>
      </trkpt>
      <trkpt lat="42.605047" lon="-71.571076">
        <ele>93.273999</ele>
        <time>2026-08-11T12:40:58.381Z</time>
      </trkpt>
      <trkpt lat="42.604798" lon="-71.572048">
        <ele>91.397637</ele>
        <time>2026-08-11T12:41:11.721Z</time>
      </trkpt>
      <trkpt lat="42.604790" lon="-71.572092">
        <ele>91.391354</ele>
        <time>2026-08-11T12:41:12.368Z</time>
      </trkpt>
      <trkpt lat="42.604591" lon="-71.572065">
        <ele>91.353683</ele>
        <time>2026-08-11T12:41:16.347Z</time>
      </trkpt>
      <trkpt lat="42.604275" lon="-71.572103">
        <ele>91.293928</ele>
        <time>2026-08-11T12:41:22.975Z</time>
      </trkpt>
      <trkpt lat="42.599260" lon="-71.573313">
        <ele>91.717371</ele>
        <time>2026-08-11T12:43:19.840Z</time>
      </trkpt>
      <trkpt lat="42.597427" lon="-71.573739">
        <ele>93.300267</ele>
        <time>2026-08-11T12:44:11.994Z</time>
      </trkpt>
      <trkpt lat="42.597024" lon="-71.573831">
        <ele>93.518746</ele>
        <time>2026-08-11T12:44:22.478Z</time>
      </trkpt>
      <trkpt lat="42.593997" lon="-71.574525">
        <ele>93.602113</ele>
        <time>2026-08-11T12:45:30.979Z</time>
      </trkpt>
      <trkpt lat="42.591907" lon="-71.575049">
        <ele>93.219835</ele>
        <time>2026-08-11T12:46:22.491Z</time>
      </trkpt>
      <trkpt lat="42.587017" lon="-71.576193">
        <ele>89.107271</ele>
        <time>2026-08-11T12:48:03.646Z</time>
      </trkpt>
      <trkpt lat="42.583481" lon="-71.577075">
        <ele>83.684964</ele>
        <time>2026-08-11T12:49:11.365Z</time>
      </trkpt>
      <trkpt lat="42.580039" lon="-71.577868">
        <ele>81.636907</ele>
        <time>2026-08-11T12:50:27.145Z</time>
      </trkpt>
      <trkpt lat="42.579596" lon="-71.577996">
        <ele>81.251693</ele>
        <time>2026-08-11T12:50:36.742Z</time>
      </trkpt>
      <trkpt lat="42.577154" lon="-71.578601">
        <ele>78.642640</ele>
        <time>2026-08-11T12:51:26.324Z</time>
      </trkpt>
      <trkpt lat="42.576593" lon="-71.578807">
        <ele>77.871842</ele>
        <time>2026-08-11T12:51:37.452Z</time>
      </trkpt>
      <trkpt lat="42.575904" lon="-71.579160">
        <ele>76.736725</ele>
        <time>2026-08-11T12:51:51.599Z</time>
      </trkpt>
      <trkpt lat="42.575381" lon="-71.579573">
        <ele>75.804163</ele>
        <time>2026-08-11T12:52:03.141Z</time>
      </trkpt>
      <trkpt lat="42.574885" lon="-71.580039">
        <ele>75.290462</ele>
        <time>2026-08-11T12:52:14.521Z</time>
      </trkpt>
      <trkpt lat="42.574510" lon="-71.580443">
        <ele>75.099996</ele>
        <time>2026-08-11T12:52:23.967Z</time>
      </trkpt>
      <trkpt lat="42.574189" lon="-71.580922">
        <ele>74.910226</ele>
        <time>2026-08-11T12:52:34.081Z</time>
      </trkpt>
      <trkpt lat="42.572281" lon="-71.584091">
        <ele>78.059681</ele>
        <time>2026-08-11T12:54:02.027Z</time>
      </trkpt>
      <trkpt lat="42.571340" lon="-71.585591">
        <ele>78.975888</ele>
        <time>2026-08-11T12:54:40.146Z</time>
      </trkpt>
      <trkpt lat="42.570885" lon="-71.586195">
        <ele>78.672133</ele>
        <time>2026-08-11T12:54:53.302Z</time>
      </trkpt>
      <trkpt lat="42.570420" lon="-71.586678">
        <ele>78.392653</ele>
        <time>2026-08-11T12:55:04.879Z</time>
      </trkpt>
      <trkpt lat="42.569860" lon="-71.587129">
        <ele>78.127852</ele>
        <time>2026-08-11T12:55:18.206Z</time>
      </trkpt>
      <trkpt lat="42.569324" lon="-71.587369">
        <ele>77.914495</ele>
        <time>2026-08-11T12:55:30.806Z</time>
      </trkpt>
      <trkpt lat="42.567406" lon="-71.588108">
        <ele>77.034080</ele>
        <time>2026-08-11T12:56:16.485Z</time>
      </trkpt>
      <trkpt lat="42.565059" lon="-71.588975">
        <ele>74.615143</ele>
        <time>2026-08-11T12:57:04.359Z</time>
      </trkpt>
      <trkpt lat="42.563054" lon="-71.589636">
        <ele>73.136988</ele>
        <time>2026-08-11T12:57:47.166Z</time>
      </trkpt>
      <trkpt lat="42.562450" lon="-71.589760">
        <ele>72.976426</ele>
        <time>2026-08-11T12:58:01.098Z</time>
      </trkpt>
      <trkpt lat="42.561388" lon="-71.589732">
        <ele>72.668358</ele>
        <time>2026-08-11T12:58:25.315Z</time>
      </trkpt>
      <trkpt lat="42.560903" lon="-71.589763">
        <ele>72.469461</ele>
        <time>2026-08-11T12:58:35.734Z</time>
      </trkpt>
      <trkpt lat="42.560001" lon="-71.589628">
        <ele>72.097726</ele>
        <time>2026-08-11T12:58:55.285Z</time>
      </trkpt>
      <trkpt lat="42.559923" lon="-71.589619">
        <ele>72.065658</ele>
        <time>2026-08-11T12:58:56.952Z</time>
      </trkpt>
      <trkpt lat="42.559886" lon="-71.589495">
        <ele>72.025290</ele>
        <time>2026-08-11T12:58:58.916Z</time>
      </trkpt>
      <trkpt lat="42.559871" lon="-71.589445">
        <ele>72.013672</ele>
        <time>2026-08-11T12:58:59.729Z</time>
      </trkpt>
      <trkpt lat="42.559857" lon="-71.589398">
        <ele>72.021187</ele>
        <time>2026-08-11T12:59:00.491Z</time>
      </trkpt>
      <trkpt lat="42.559844" lon="-71.589348">
        <ele>72.029047</ele>
        <time>2026-08-11T12:59:01.281Z</time>
      </trkpt>
      <trkpt lat="42.559764" lon="-71.589022">
        <ele>72.079981</ele>
        <time>2026-08-11T12:59:06.592Z</time>
      </trkpt>
      <trkpt lat="42.559753" lon="-71.588983">
        <ele>72.086172</ele>
        <time>2026-08-11T12:59:07.271Z</time>
      </trkpt>
      <trkpt lat="42.559727" lon="-71.588892">
        <ele>72.100640</ele>
        <time>2026-08-11T12:59:08.841Z</time>
      </trkpt>
      <trkpt lat="42.559628" lon="-71.588504">
        <ele>72.161507</ele>
        <time>2026-08-11T12:59:15.535Z</time>
      </trkpt>
      <trkpt lat="42.559566" lon="-71.588268">
        <ele>72.198648</ele>
        <time>2026-08-11T12:59:19.667Z</time>
      </trkpt>
      <trkpt lat="42.559542" lon="-71.588174">
        <ele>72.213395</ele>
        <time>2026-08-11T12:59:21.415Z</time>
      </trkpt>
      <trkpt lat="42.559522" lon="-71.588097">
        <ele>72.225497</ele>
        <time>2026-08-11T12:59:22.822Z</time>
      </trkpt>
      <trkpt lat="42.559351" lon="-71.587421">
        <ele>72.331446</ele>
        <time>2026-08-11T12:59:35.543Z</time>
      </trkpt>
      <trkpt lat="42.559335" lon="-71.587357">
        <ele>72.341465</ele>
        <time>2026-08-11T12:59:36.782Z</time>
      </trkpt>
      <trkpt lat="42.559228" lon="-71.586926">
        <ele>72.498719</ele>
        <time>2026-08-11T12:59:45.381Z</time>
      </trkpt>
      <trkpt lat="42.559179" lon="-71.586585">
        <ele>72.683223</ele>
        <time>2026-08-11T12:59:52.229Z</time>
      </trkpt>
      <trkpt lat="42.559291" lon="-71.586530">
        <ele>72.769093</ele>
        <time>2026-08-11T12:59:55.413Z</time>
      </trkpt>
      <trkpt lat="42.559574" lon="-71.586390">
        <ele>72.986254</ele>
        <time>2026-08-11T13:00:03.370Z</time>
      </trkpt>
      <trkpt lat="42.559742" lon="-71.586307">
        <ele>73.115149</ele>
        <time>2026-08-11T13:00:08.000Z</time>
      </trkpt>
      <trkpt lat="42.559729" lon="-71.586238">
        <ele>73.152972</ele>
        <time>2026-08-11T13:00:09.326Z</time>
      </trkpt>
      <trkpt lat="42.559415" lon="-71.584688">
        <ele>73.640644</ele>
        <time>2026-08-11T13:00:37.797Z</time>
      </trkpt>
      <trkpt lat="42.559397" lon="-71.584609">
        <ele>73.636689</ele>
        <time>2026-08-11T13:00:39.120Z</time>
      </trkpt>
      <trkpt lat="42.559345" lon="-71.584390">
        <ele>73.625685</ele>
        <time>2026-08-11T13:00:42.767Z</time>
      </trkpt>
      <trkpt lat="42.559104" lon="-71.583424">
        <ele>73.576908</ele>
        <time>2026-08-11T13:00:58.715Z</time>
      </trkpt>
      <trkpt lat="42.557742" lon="-71.578120">
        <ele>72.069329</ele>
        <time>2026-08-11T13:02:25.131Z</time>
      </trkpt>
      <trkpt lat="42.557662" lon="-71.577801">
        <ele>71.985398</ele>
        <time>2026-08-11T13:02:30.144Z</time>
      </trkpt>
      <trkpt lat="42.557617" lon="-71.577620">
        <ele>71.937818</ele>
        <time>2026-08-11T13:02:32.978Z</time>
      </trkpt>
      <trkpt lat="42.557098" lon="-71.575546">
        <ele>71.563665</ele>
        <time>2026-08-11T13:03:07.265Z</time>
      </trkpt>
      <trkpt lat="42.556876" lon="-71.574624">
        <ele>71.633977</ele>
        <time>2026-08-11T13:03:23.532Z</time>
      </trkpt>
      <trkpt lat="42.556684" lon="-71.573849">
        <ele>71.693246</ele>
        <time>2026-08-11T13:03:37.804Z</time>
      </trkpt>
      <trkpt lat="42.556428" lon="-71.572727">
        <ele>71.610494</ele>
        <time>2026-08-11T13:03:57.807Z</time>
      </trkpt>
      <trkpt lat="42.556326" lon="-71.571597">
        <ele>71.511587</ele>
        <time>2026-08-11T13:04:15.336Z</time>
      </trkpt>
      <trkpt lat="42.556276" lon="-71.570933">
        <ele>71.577175</ele>
        <time>2026-08-11T13:04:25.446Z</time>
      </trkpt>
      <trkpt lat="42.556275" lon="-71.570417">
        <ele>71.685018</ele>
        <time>2026-08-11T13:04:33.564Z</time>
      </trkpt>
      <trkpt lat="42.556293" lon="-71.570221">
        <ele>71.726298</ele>
        <time>2026-08-11T13:04:36.744Z</time>
      </trkpt>
      <trkpt lat="42.556641" lon="-71.568336">
        <ele>72.333091</ele>
        <time>2026-08-11T13:05:13.214Z</time>
      </trkpt>
      <trkpt lat="42.557258" lon="-71.565386">
        <ele>73.439169</ele>
        <time>2026-08-11T13:06:09.525Z</time>
      </trkpt>
      <trkpt lat="42.557271" lon="-71.565321">
        <ele>73.447432</ele>
        <time>2026-08-11T13:06:10.676Z</time>
      </trkpt>
      <trkpt lat="42.557439" lon="-71.564471">
        <ele>73.555398</ele>
        <time>2026-08-11T13:06:24.903Z</time>
      </trkpt>
      <trkpt lat="42.557478" lon="-71.564272">
        <ele>73.580660</ele>
        <time>2026-08-11T13:06:27.991Z</time>
      </trkpt>
      <trkpt lat="42.557604" lon="-71.563637">
        <ele>73.078000</ele>
        <time>2026-08-11T13:06:37.402Z</time>
      </trkpt>
      <trkpt lat="42.557844" lon="-71.562671">
        <ele>72.254131</ele>
        <time>2026-08-11T13:06:51.380Z</time>
      </trkpt>
      <trkpt lat="42.557982" lon="-71.562261">
        <ele>71.889844</ele>
        <time>2026-08-11T13:06:57.493Z</time>
      </trkpt>
      <trkpt lat="42.558349" lon="-71.561298">
        <ele>71.242183</ele>
        <time>2026-08-11T13:07:12.791Z</time>
      </trkpt>
      <trkpt lat="42.558698" lon="-71.560383">
        <ele>70.728017</ele>
        <time>2026-08-11T13:07:28.230Z</time>
      </trkpt>
      <trkpt lat="42.558876" lon="-71.559944">
        <ele>70.477961</ele>
        <time>2026-08-11T13:07:36.015Z</time>
      </trkpt>
      <trkpt lat="42.559062" lon="-71.559440">
        <ele>70.363250</ele>
        <time>2026-08-11T13:07:44.883Z</time>
      </trkpt>
      <trkpt lat="42.559229" lon="-71.558894">
        <ele>70.319005</ele>
        <time>2026-08-11T13:07:54.120Z</time>
      </trkpt>
      <trkpt lat="42.559295" lon="-71.558486">
        <ele>70.287742</ele>
        <time>2026-08-11T13:08:00.748Z</time>
      </trkpt>
      <trkpt lat="42.559302" lon="-71.558341">
        <ele>70.276867</ele>
        <time>2026-08-11T13:08:03.085Z</time>
      </trkpt>
      <trkpt lat="42.559251" lon="-71.557555">
        <ele>70.217815</ele>
        <time>2026-08-11T13:08:16.226Z</time>
      </trkpt>
      <trkpt lat="42.559155" lon="-71.556758">
        <ele>70.202682</ele>
        <time>2026-08-11T13:08:30.011Z</time>
      </trkpt>
      <trkpt lat="42.559131" lon="-71.556345">
        <ele>70.198426</ele>
        <time>2026-08-11T13:08:36.875Z</time>
      </trkpt>
      <trkpt lat="42.559131" lon="-71.555719">
        <ele>70.191994</ele>
        <time>2026-08-11T13:08:47.123Z</time>
      </trkpt>
      <trkpt lat="42.559188" lon="-71.554804">
        <ele>70.159492</ele>
        <time>2026-08-11T13:09:01.734Z</time>
      </trkpt>
      <trkpt lat="42.559224" lon="-71.554418">
        <ele>70.114397</ele>
        <time>2026-08-11T13:09:07.743Z</time>
      </trkpt>
      <trkpt lat="42.559262" lon="-71.554107">
        <ele>70.077859</ele>
        <time>2026-08-11T13:09:12.575Z</time>
      </trkpt>
      <trkpt lat="42.559335" lon="-71.553608">
        <ele>70.018894</ele>
        <time>2026-08-11T13:09:20.483Z</time>
      </trkpt>
      <trkpt lat="42.559376" lon="-71.553325">
        <ele>69.985466</ele>
        <time>2026-08-11T13:09:25.058Z</time>
      </trkpt>
      <trkpt lat="42.559699" lon="-71.551158">
        <ele>69.947525</ele>
        <time>2026-08-11T13:10:01.604Z</time>
      </trkpt>
      <trkpt lat="42.559736" lon="-71.550572">
        <ele>69.965593</ele>
        <time>2026-08-11T13:10:11.483Z</time>
      </trkpt>
      <trkpt lat="42.559727" lon="-71.550139">
        <ele>69.975441</ele>
        <time>2026-08-11T13:10:18.718Z</time>
      </trkpt>
      <trkpt lat="42.559665" lon="-71.549079">
        <ele>69.954268</ele>
        <time>2026-08-11T13:10:36.145Z</time>
      </trkpt>
      <trkpt lat="42.559609" lon="-71.548186">
        <ele>69.936422</ele>
        <time>2026-08-11T13:10:50.439Z</time>
      </trkpt>
      <trkpt lat="42.559547" lon="-71.547041">
        <ele>70.014917</ele>
        <time>2026-08-11T13:11:09.166Z</time>
      </trkpt>
      <trkpt lat="42.559547" lon="-71.546686">
        <ele>70.056863</ele>
        <time>2026-08-11T13:11:15.223Z</time>
      </trkpt>
      <trkpt lat="42.559587" lon="-71.546125">
        <ele>70.123461</ele>
        <time>2026-08-11T13:11:24.865Z</time>
      </trkpt>
      <trkpt lat="42.559698" lon="-71.545495">
        <ele>70.200002</ele>
        <time>2026-08-11T13:11:36.067Z</time>
      </trkpt>
      <trkpt lat="42.559995" lon="-71.544158">
        <ele>70.275509</ele>
        <time>2026-08-11T13:11:59.699Z</time>
      </trkpt>
      <trkpt lat="42.560029" lon="-71.543669">
        <ele>70.298519</ele>
        <time>2026-08-11T13:12:07.533Z</time>
      </trkpt>
      <trkpt lat="42.559976" lon="-71.543204">
        <ele>70.320563</ele>
        <time>2026-08-11T13:12:15.059Z</time>
      </trkpt>
      <trkpt lat="42.559898" lon="-71.542744">
        <ele>70.312368</ele>
        <time>2026-08-11T13:12:22.727Z</time>
      </trkpt>
      <trkpt lat="42.559754" lon="-71.541981">
        <ele>70.252569</ele>
        <time>2026-08-11T13:12:35.699Z</time>
      </trkpt>
      <trkpt lat="42.559637" lon="-71.541538">
        <ele>70.216839</ele>
        <time>2026-08-11T13:12:43.479Z</time>
      </trkpt>
      <trkpt lat="42.559531" lon="-71.541283">
        <ele>70.194608</ele>
        <time>2026-08-11T13:12:48.286Z</time>
      </trkpt>
      <trkpt lat="42.559422" lon="-71.541092">
        <ele>70.176264</ele>
        <time>2026-08-11T13:12:52.174Z</time>
      </trkpt>
      <trkpt lat="42.559154" lon="-71.540725">
        <ele>70.103003</ele>
        <time>2026-08-11T13:13:00.272Z</time>
      </trkpt>
      <trkpt lat="42.558952" lon="-71.540515">
        <ele>69.974090</ele>
        <time>2026-08-11T13:13:05.520Z</time>
      </trkpt>
      <trkpt lat="42.558697" lon="-71.540311">
        <ele>69.824120</ele>
        <time>2026-08-11T13:13:11.498Z</time>
      </trkpt>
      <trkpt lat="42.558208" lon="-71.539982">
        <ele>69.547592</ele>
        <time>2026-08-11T13:13:22.299Z</time>
      </trkpt>
      <trkpt lat="42.557736" lon="-71.539802">
        <ele>69.299178</ele>
        <time>2026-08-11T13:13:32.105Z</time>
      </trkpt>
      <trkpt lat="42.557266" lon="-71.539658">
        <ele>69.580660</ele>
        <time>2026-08-11T13:13:42.259Z</time>
      </trkpt>
      <trkpt lat="42.556545" lon="-71.539457">
        <ele>70.300884</ele>
        <time>2026-08-11T13:14:00.340Z</time>
      </trkpt>
      <trkpt lat="42.556081" lon="-71.539329">
        <ele>70.764189</ele>
        <time>2026-08-11T13:14:13.867Z</time>
      </trkpt>
      <trkpt lat="42.555330" lon="-71.539120">
        <ele>72.140314</ele>
        <time>2026-08-11T13:14:39.542Z</time>
      </trkpt>
      <trkpt lat="42.554678" lon="-71.538929">
        <ele>73.578707</ele>
        <time>2026-08-11T13:15:02.459Z</time>
      </trkpt>
      <trkpt lat="42.554419" lon="-71.538810">
        <ele>74.168360</ele>
        <time>2026-08-11T13:15:10.674Z</time>
      </trkpt>
      <trkpt lat="42.554163" lon="-71.538650">
        <ele>74.776120</ele>
        <time>2026-08-11T13:15:18.285Z</time>
      </trkpt>
      <trkpt lat="42.553908" lon="-71.538425">
        <ele>74.967957</ele>
        <time>2026-08-11T13:15:25.379Z</time>
      </trkpt>
      <trkpt lat="42.553058" lon="-71.537548">
        <ele>75.358746</ele>
        <time>2026-08-11T13:15:47.924Z</time>
      </trkpt>
      <trkpt lat="42.552537" lon="-71.537003">
        <ele>75.729599</ele>
        <time>2026-08-11T13:16:04.649Z</time>
      </trkpt>
      <trkpt lat="42.551975" lon="-71.536336">
        <ele>76.525258</ele>
        <time>2026-08-11T13:16:26.287Z</time>
      </trkpt>
      <trkpt lat="42.551884" lon="-71.536210">
        <ele>76.663803</ele>
        <time>2026-08-11T13:16:30.013Z</time>
      </trkpt>
      <trkpt lat="42.551804" lon="-71.536113">
        <ele>76.778132</ele>
        <time>2026-08-11T13:16:33.051Z</time>
      </trkpt>
      <trkpt lat="42.551642" lon="-71.535963">
        <ele>76.987141</ele>
        <time>2026-08-11T13:16:38.390Z</time>
      </trkpt>
      <trkpt lat="42.551521" lon="-71.535657">
        <ele>77.259829</ele>
        <time>2026-08-11T13:16:45.134Z</time>
      </trkpt>
      <trkpt lat="42.551480" lon="-71.535552">
        <ele>77.353138</ele>
        <time>2026-08-11T13:16:47.305Z</time>
      </trkpt>
      <trkpt lat="42.551415" lon="-71.535399">
        <ele>77.452609</ele>
        <time>2026-08-11T13:16:50.459Z</time>
      </trkpt>
      <trkpt lat="42.551056" lon="-71.534455">
        <ele>77.531315</ele>
        <time>2026-08-11T13:17:06.930Z</time>
      </trkpt>
      <trkpt lat="42.550878" lon="-71.534070">
        <ele>77.564991</ele>
        <time>2026-08-11T13:17:14.066Z</time>
      </trkpt>
      <trkpt lat="42.550579" lon="-71.533574">
        <ele>77.612473</ele>
        <time>2026-08-11T13:17:24.451Z</time>
      </trkpt>
      <trkpt lat="42.550421" lon="-71.533357">
        <ele>77.683941</ele>
        <time>2026-08-11T13:17:29.498Z</time>
      </trkpt>
      <trkpt lat="42.548677" lon="-71.530981">
        <ele>79.795208</ele>
        <time>2026-08-11T13:18:35.553Z</time>
      </trkpt>
      <trkpt lat="42.548104" lon="-71.530215">
        <ele>80.264317</ele>
        <time>2026-08-11T13:18:55.517Z</time>
      </trkpt>
      <trkpt lat="42.548030" lon="-71.530110">
        <ele>80.326760</ele>
        <time>2026-08-11T13:18:57.931Z</time>
      </trkpt>
      <trkpt lat="42.547647" lon="-71.529590">
        <ele>80.360458</ele>
        <time>2026-08-11T13:19:09.039Z</time>
      </trkpt>
      <trkpt lat="42.547293" lon="-71.529189">
        <ele>80.289531</ele>
        <time>2026-08-11T13:19:17.893Z</time>
      </trkpt>
      <trkpt lat="42.546993" lon="-71.528991">
        <ele>80.238217</ele>
        <time>2026-08-11T13:19:24.553Z</time>
      </trkpt>
      <trkpt lat="42.546644" lon="-71.528903">
        <ele>80.183613</ele>
        <time>2026-08-11T13:19:32.387Z</time>
      </trkpt>
      <trkpt lat="42.546345" lon="-71.528851">
        <ele>80.211891</ele>
        <time>2026-08-11T13:19:40.040Z</time>
      </trkpt>
      <trkpt lat="42.545671" lon="-71.528748">
        <ele>81.538660</ele>
        <time>2026-08-11T13:19:59.301Z</time>
      </trkpt>
      <trkpt lat="42.545368" lon="-71.528705">
        <ele>82.134602</ele>
        <time>2026-08-11T13:20:09.088Z</time>
      </trkpt>
      <trkpt lat="42.545284" lon="-71.528691">
        <ele>82.300152</ele>
        <time>2026-08-11T13:20:11.900Z</time>
      </trkpt>
      <trkpt lat="42.544904" lon="-71.528614">
        <ele>83.051723</ele>
        <time>2026-08-11T13:20:25.214Z</time>
      </trkpt>
      <trkpt lat="42.544302" lon="-71.528364">
        <ele>83.912271</ele>
        <time>2026-08-11T13:20:45.054Z</time>
      </trkpt>
      <trkpt lat="42.544123" lon="-71.528265">
        <ele>84.064933</ele>
        <time>2026-08-11T13:20:50.376Z</time>
      </trkpt>
      <trkpt lat="42.543796" lon="-71.527950">
        <ele>84.381634</ele>
        <time>2026-08-11T13:21:00.988Z</time>
      </trkpt>
      <trkpt lat="42.543528" lon="-71.527614">
        <ele>84.669784</ele>
        <time>2026-08-11T13:21:09.844Z</time>
      </trkpt>
      <trkpt lat="42.543405" lon="-71.527388">
        <ele>84.833284</ele>
        <time>2026-08-11T13:21:14.483Z</time>
      </trkpt>
      <trkpt lat="42.543257" lon="-71.527080">
        <ele>85.047259</ele>
        <time>2026-08-11T13:21:20.136Z</time>
      </trkpt>
      <trkpt lat="42.542921" lon="-71.526226">
        <ele>85.189369</ele>
        <time>2026-08-11T13:21:33.597Z</time>
      </trkpt>
      <trkpt lat="42.542736" lon="-71.525869">
        <ele>85.241083</ele>
        <time>2026-08-11T13:21:40.921Z</time>
      </trkpt>
      <trkpt lat="42.542404" lon="-71.525440">
        <ele>85.314802</ele>
        <time>2026-08-11T13:21:53.012Z</time>
      </trkpt>
      <trkpt lat="42.542322" lon="-71.525258">
        <ele>85.340079</ele>
        <time>2026-08-11T13:21:57.134Z</time>
      </trkpt>
      <trkpt lat="42.542099" lon="-71.524526">
        <ele>85.498209</ele>
        <time>2026-08-11T13:22:12.453Z</time>
      </trkpt>
      <trkpt lat="42.542503" lon="-71.523263">
        <ele>85.827761</ele>
        <time>2026-08-11T13:22:38.815Z</time>
      </trkpt>
      <trkpt lat="42.542742" lon="-71.521822">
        <ele>85.106064</ele>
        <time>2026-08-11T13:22:58.913Z</time>
      </trkpt>
      <trkpt lat="42.542820" lon="-71.521262">
        <ele>84.593717</ele>
        <time>2026-08-11T13:23:06.650Z</time>
      </trkpt>
      <trkpt lat="42.542811" lon="-71.521077">
        <ele>84.427043</ele>
        <time>2026-08-11T13:23:09.179Z</time>
      </trkpt>
      <trkpt lat="42.542767" lon="-71.520878">
        <ele>84.240263</ele>
        <time>2026-08-11T13:23:12.034Z</time>
      </trkpt>
      <trkpt lat="42.542698" lon="-71.520703">
        <ele>84.061830</ele>
        <time>2026-08-11T13:23:14.767Z</time>
      </trkpt>
      <trkpt lat="42.542556" lon="-71.520474">
        <ele>83.792755</ele>
        <time>2026-08-11T13:23:18.924Z</time>
      </trkpt>
      <trkpt lat="42.541648" lon="-71.519389">
        <ele>81.841793</ele>
        <time>2026-08-11T13:23:42.847Z</time>
      </trkpt>
      <trkpt lat="42.541320" lon="-71.518945">
        <ele>81.090663</ele>
        <time>2026-08-11T13:23:51.168Z</time>
      </trkpt>
      <trkpt lat="42.541026" lon="-71.518552">
        <ele>79.588556</ele>
        <time>2026-08-11T13:23:57.702Z</time>
      </trkpt>
      <trkpt lat="42.540844" lon="-71.518308">
        <ele>78.356148</ele>
        <time>2026-08-11T13:24:01.583Z</time>
      </trkpt>
      <trkpt lat="42.540641" lon="-71.518035">
        <ele>76.979424</ele>
        <time>2026-08-11T13:24:05.807Z</time>
      </trkpt>
      <trkpt lat="42.540366" lon="-71.517641">
        <ele>75.053045</ele>
        <time>2026-08-11T13:24:11.651Z</time>
      </trkpt>
      <trkpt lat="42.540306" lon="-71.517531">
        <ele>74.567249</ele>
        <time>2026-08-11T13:24:13.121Z</time>
      </trkpt>
      <trkpt lat="42.539948" lon="-71.516861">
        <ele>72.015493</ele>
        <time>2026-08-11T13:24:22.199Z</time>
      </trkpt>
      <trkpt lat="42.539682" lon="-71.516344">
        <ele>71.348682</ele>
        <time>2026-08-11T13:24:29.785Z</time>
      </trkpt>
      <trkpt lat="42.539519" lon="-71.515985">
        <ele>70.902758</ele>
        <time>2026-08-11T13:24:35.512Z</time>
      </trkpt>
      <trkpt lat="42.539332" lon="-71.515519">
        <ele>70.341630</ele>
        <time>2026-08-11T13:24:43.901Z</time>
      </trkpt>
      <trkpt lat="42.539087" lon="-71.514813">
        <ele>69.597854</ele>
        <time>2026-08-11T13:24:58.866Z</time>
      </trkpt>
      <trkpt lat="42.539068" lon="-71.514758">
        <ele>69.597854</ele>
        <time>2026-08-11T13:25:00.066Z</time>
      </trkpt>
      <trkpt lat="42.538906" lon="-71.514312">
        <ele>69.597854</ele>
        <time>2026-08-11T13:25:09.586Z</time>
      </trkpt>
      <trkpt lat="42.538827" lon="-71.514093">
        <ele>69.597854</ele>
        <time>2026-08-11T13:25:13.973Z</time>
      </trkpt>
      <trkpt lat="42.538710" lon="-71.513747">
        <ele>69.597854</ele>
        <time>2026-08-11T13:25:20.706Z</time>
      </trkpt>
      <trkpt lat="42.538455" lon="-71.513123">
        <ele>69.597854</ele>
        <time>2026-08-11T13:25:33.082Z</time>
      </trkpt>
      <trkpt lat="42.538371" lon="-71.512988">
        <ele>69.597854</ele>
        <time>2026-08-11T13:25:36.087Z</time>
      </trkpt>
    </trkseg>
  </trk>
</gpx>