<?xml version="1.0"?><gpx version="1.0" creator="cycle.travel"  xmlns:xsi="http://www.w3.org/2001/XMLSchema-instance"  xmlns="http://www.topografix.com/GPX/1/0"  xsi:schemaLocation="http://www.topografix.com/GPX/1/0 http://www.topografix.com/GPX/1/0/gpx.xsd">  <trk>    <name>Marblehead + Sw</name>    <trkseg>      <trkpt lat="42.46258" lon="-70.94873" />      <trkpt lat="42.46269" lon="-70.94861" />      <trkpt lat="42.46257" lon="-70.94841" />      <trkpt lat="42.46244" lon="-70.94818" />      <trkpt lat="42.46215" lon="-70.94768" />      <trkpt lat="42.46208" lon="-70.94756" />      <trkpt lat="42.46163" lon="-70.94674" />      <trkpt lat="42.46135" lon="-70.94632" />      <trkpt lat="42.46118" lon="-70.94631" />      <trkpt lat="42.46111" lon="-70.94617" />      <trkpt lat="42.46094" lon="-70.94613" />      <trkpt lat="42.46079" lon="-70.94609" />      <trkpt lat="42.46065" lon="-70.94601" />      <trkpt lat="42.46053" lon="-70.94592" />      <trkpt lat="42.46042" lon="-70.94579" />      <trkpt lat="42.46034" lon="-70.94558" />      <trkpt lat="42.46034" lon="-70.94536" />      <trkpt lat="42.46025" lon="-70.94534" />      <trkpt lat="42.46009" lon="-70.94531" />      <trkpt lat="42.46005" lon="-70.94530" />      <trkpt lat="42.46006" lon="-70.94495" />      <trkpt lat="42.46005" lon="-70.94472" />      <trkpt lat="42.46002" lon="-70.94447" />      <trkpt lat="42.45997" lon="-70.94420" />      <trkpt lat="42.45986" lon="-70.94384" />      <trkpt lat="42.45980" lon="-70.94370" />      <trkpt lat="42.45951" lon="-70.94288" />      <trkpt lat="42.45917" lon="-70.94198" />      <trkpt lat="42.45903" lon="-70.94162" />      <trkpt lat="42.45892" lon="-70.94124" />      <trkpt lat="42.45886" lon="-70.94106" />      <trkpt lat="42.45875" lon="-70.94080" />      <trkpt lat="42.45860" lon="-70.94040" />      <trkpt lat="42.45826" lon="-70.93950" />      <trkpt lat="42.45820" lon="-70.93935" />      <trkpt lat="42.45783" lon="-70.93835" />      <trkpt lat="42.45762" lon="-70.93780" />      <trkpt lat="42.45752" lon="-70.93767" />      <trkpt lat="42.45740" lon="-70.93755" />      <trkpt lat="42.45726" lon="-70.93772" />      <trkpt lat="42.45715" lon="-70.93767" />      <trkpt lat="42.45708" lon="-70.93759" />      <trkpt lat="42.45700" lon="-70.93754" />      <trkpt lat="42.45692" lon="-70.93757" />      <trkpt lat="42.45678" lon="-70.93763" />      <trkpt lat="42.45662" lon="-70.93766" />      <trkpt lat="42.45645" lon="-70.93763" />      <trkpt lat="42.45624" lon="-70.93755" />      <trkpt lat="42.45613" lon="-70.93753" />      <trkpt lat="42.45601" lon="-70.93754" />      <trkpt lat="42.45551" lon="-70.93771" />      <trkpt lat="42.45518" lon="-70.93783" />      <trkpt lat="42.45507" lon="-70.93780" />      <trkpt lat="42.45504" lon="-70.93764" />      <trkpt lat="42.45501" lon="-70.93751" />      <trkpt lat="42.45499" lon="-70.93736" />      <trkpt lat="42.45495" lon="-70.93714" />      <trkpt lat="42.45490" lon="-70.93686" />      <trkpt lat="42.45453" lon="-70.93698" />      <trkpt lat="42.45422" lon="-70.93709" />      <trkpt lat="42.45388" lon="-70.93720" />      <trkpt lat="42.45367" lon="-70.93722" />      <trkpt lat="42.45349" lon="-70.93726" />      <trkpt lat="42.45316" lon="-70.93738" />      <trkpt lat="42.45266" lon="-70.93751" />      <trkpt lat="42.45201" lon="-70.93767" />      <trkpt lat="42.45134" lon="-70.93780" />      <trkpt lat="42.44999" lon="-70.93810" />      <trkpt lat="42.44881" lon="-70.93839" />      <trkpt lat="42.44846" lon="-70.93846" />      <trkpt lat="42.44796" lon="-70.93856" />      <trkpt lat="42.44745" lon="-70.93868" />      <trkpt lat="42.44591" lon="-70.93894" />      <trkpt lat="42.44478" lon="-70.93913" />      <trkpt lat="42.44422" lon="-70.93922" />      <trkpt lat="42.44384" lon="-70.93925" />      <trkpt lat="42.44374" lon="-70.93923" />      <trkpt lat="42.44363" lon="-70.93928" />      <trkpt lat="42.44261" lon="-70.93938" />      <trkpt lat="42.44224" lon="-70.93942" />      <trkpt lat="42.44187" lon="-70.93945" />      <trkpt lat="42.44155" lon="-70.93947" />      <trkpt lat="42.44131" lon="-70.93948" />      <trkpt lat="42.44062" lon="-70.93940" />      <trkpt lat="42.44047" lon="-70.93938" />      <trkpt lat="42.44034" lon="-70.93938" />      <trkpt lat="42.44020" lon="-70.93937" />      <trkpt lat="42.44007" lon="-70.93935" />      <trkpt lat="42.43992" lon="-70.93932" />      <trkpt lat="42.43977" lon="-70.93928" />      <trkpt lat="42.43946" lon="-70.93918" />      <trkpt lat="42.43916" lon="-70.93905" />      <trkpt lat="42.43888" lon="-70.93888" />      <trkpt lat="42.43822" lon="-70.93842" />      <trkpt lat="42.43800" lon="-70.93826" />      <trkpt lat="42.43788" lon="-70.93817" />      <trkpt lat="42.43772" lon="-70.93805" />      <trkpt lat="42.43767" lon="-70.93782" />      <trkpt lat="42.43753" lon="-70.93770" />      <trkpt lat="42.43737" lon="-70.93747" />      <trkpt lat="42.43717" lon="-70.93721" />      <trkpt lat="42.43698" lon="-70.93705" />      <trkpt lat="42.43676" lon="-70.93703" />      <trkpt lat="42.43676" lon="-70.93713" />      <trkpt lat="42.43667" lon="-70.93712" />      <trkpt lat="42.43649" lon="-70.93710" />      <trkpt lat="42.43645" lon="-70.93721" />      <trkpt lat="42.43642" lon="-70.93732" />      <trkpt lat="42.43637" lon="-70.93744" />      <trkpt lat="42.43582" lon="-70.93712" />      <trkpt lat="42.43566" lon="-70.93701" />      <trkpt lat="42.43543" lon="-70.93685" />      <trkpt lat="42.43525" lon="-70.93673" />      <trkpt lat="42.43490" lon="-70.93648" />      <trkpt lat="42.43450" lon="-70.93618" />      <trkpt lat="42.43425" lon="-70.93600" />      <trkpt lat="42.43407" lon="-70.93587" />      <trkpt lat="42.43377" lon="-70.93564" />      <trkpt lat="42.43363" lon="-70.93555" />      <trkpt lat="42.43356" lon="-70.93550" />      <trkpt lat="42.43335" lon="-70.93536" />      <trkpt lat="42.43309" lon="-70.93520" />      <trkpt lat="42.43295" lon="-70.93513" />      <trkpt lat="42.43272" lon="-70.93504" />      <trkpt lat="42.43261" lon="-70.93500" />      <trkpt lat="42.43235" lon="-70.93493" />      <trkpt lat="42.43208" lon="-70.93485" />      <trkpt lat="42.43183" lon="-70.93478" />      <trkpt lat="42.43159" lon="-70.93469" />      <trkpt lat="42.43136" lon="-70.93458" />      <trkpt lat="42.43110" lon="-70.93444" />      <trkpt lat="42.43080" lon="-70.93425" />      <trkpt lat="42.43057" lon="-70.93407" />      <trkpt lat="42.43047" lon="-70.93397" />      <trkpt lat="42.43024" lon="-70.93375" />      <trkpt lat="42.43014" lon="-70.93364" />      <trkpt lat="42.43006" lon="-70.93353" />      <trkpt lat="42.42976" lon="-70.93312" />      <trkpt lat="42.42969" lon="-70.93303" />      <trkpt lat="42.42945" lon="-70.93273" />      <trkpt lat="42.42916" lon="-70.93234" />      <trkpt lat="42.42897" lon="-70.93208" />      <trkpt lat="42.42864" lon="-70.93162" />      <trkpt lat="42.42848" lon="-70.93138" />      <trkpt lat="42.42829" lon="-70.93105" />      <trkpt lat="42.42815" lon="-70.93071" />      <trkpt lat="42.42803" lon="-70.93041" />      <trkpt lat="42.42791" lon="-70.93008" />      <trkpt lat="42.42786" lon="-70.92984" />      <trkpt lat="42.42784" lon="-70.92959" />      <trkpt lat="42.42784" lon="-70.92930" />      <trkpt lat="42.42788" lon="-70.92899" />      <trkpt lat="42.42797" lon="-70.92864" />      <trkpt lat="42.42804" lon="-70.92834" />      <trkpt lat="42.42807" lon="-70.92819" />      <trkpt lat="42.42809" lon="-70.92790" />      <trkpt lat="42.42809" lon="-70.92772" />      <trkpt lat="42.42806" lon="-70.92748" />      <trkpt lat="42.42804" lon="-70.92737" />      <trkpt lat="42.42799" lon="-70.92726" />      <trkpt lat="42.42791" lon="-70.92715" />      <trkpt lat="42.42775" lon="-70.92692" />      <trkpt lat="42.42758" lon="-70.92661" />      <trkpt lat="42.42752" lon="-70.92646" />      <trkpt lat="42.42743" lon="-70.92622" />      <trkpt lat="42.42729" lon="-70.92589" />      <trkpt lat="42.42720" lon="-70.92563" />      <trkpt lat="42.42716" lon="-70.92547" />      <trkpt lat="42.42710" lon="-70.92518" />      <trkpt lat="42.42703" lon="-70.92479" />      <trkpt lat="42.42692" lon="-70.92433" />      <trkpt lat="42.42682" lon="-70.92398" />      <trkpt lat="42.42669" lon="-70.92361" />      <trkpt lat="42.42663" lon="-70.92339" />      <trkpt lat="42.42659" lon="-70.92318" />      <trkpt lat="42.42657" lon="-70.92301" />      <trkpt lat="42.42655" lon="-70.92251" />      <trkpt lat="42.42654" lon="-70.92228" />      <trkpt lat="42.42652" lon="-70.92198" />      <trkpt lat="42.42648" lon="-70.92172" />      <trkpt lat="42.42643" lon="-70.92148" />      <trkpt lat="42.42639" lon="-70.92133" />      <trkpt lat="42.42630" lon="-70.92096" />      <trkpt lat="42.42622" lon="-70.92064" />      <trkpt lat="42.42614" lon="-70.92033" />      <trkpt lat="42.42602" lon="-70.91993" />      <trkpt lat="42.42589" lon="-70.91949" />      <trkpt lat="42.42585" lon="-70.91938" />      <trkpt lat="42.42574" lon="-70.91902" />      <trkpt lat="42.42560" lon="-70.91859" />      <trkpt lat="42.42554" lon="-70.91838" />      <trkpt lat="42.42548" lon="-70.91821" />      <trkpt lat="42.42534" lon="-70.91777" />      <trkpt lat="42.42528" lon="-70.91757" />      <trkpt lat="42.42501" lon="-70.91668" />      <trkpt lat="42.42495" lon="-70.91647" />      <trkpt lat="42.42489" lon="-70.91621" />      <trkpt lat="42.42484" lon="-70.91598" />      <trkpt lat="42.42479" lon="-70.91582" />      <trkpt lat="42.42468" lon="-70.91554" />      <trkpt lat="42.42461" lon="-70.91539" />      <trkpt lat="42.42447" lon="-70.91506" />      <trkpt lat="42.42427" lon="-70.91461" />      <trkpt lat="42.42406" lon="-70.91412" />      <trkpt lat="42.42398" lon="-70.91393" />      <trkpt lat="42.42393" lon="-70.91378" />      <trkpt lat="42.42388" lon="-70.91356" />      <trkpt lat="42.42380" lon="-70.91307" />      <trkpt lat="42.42372" lon="-70.91266" />      <trkpt lat="42.42366" lon="-70.91232" />      <trkpt lat="42.42357" lon="-70.91177" />      <trkpt lat="42.42348" lon="-70.91130" />      <trkpt lat="42.42339" lon="-70.91095" />      <trkpt lat="42.42332" lon="-70.91075" />      <trkpt lat="42.42325" lon="-70.91058" />      <trkpt lat="42.42308" lon="-70.91024" />      <trkpt lat="42.42299" lon="-70.91007" />      <trkpt lat="42.42285" lon="-70.90980" />      <trkpt lat="42.42277" lon="-70.90973" />      <trkpt lat="42.42268" lon="-70.90973" />      <trkpt lat="42.42247" lon="-70.90975" />      <trkpt lat="42.42233" lon="-70.90977" />      <trkpt lat="42.42216" lon="-70.90978" />      <trkpt lat="42.42207" lon="-70.90978" />      <trkpt lat="42.42191" lon="-70.90986" />      <trkpt lat="42.42184" lon="-70.90992" />      <trkpt lat="42.42160" lon="-70.91024" />      <trkpt lat="42.42108" lon="-70.91094" />      <trkpt lat="42.42070" lon="-70.91150" />      <trkpt lat="42.42053" lon="-70.91178" />      <trkpt lat="42.42020" lon="-70.91232" />      <trkpt lat="42.42001" lon="-70.91261" />      <trkpt lat="42.41985" lon="-70.91286" />      <trkpt lat="42.41967" lon="-70.91315" />      <trkpt lat="42.41961" lon="-70.91335" />      <trkpt lat="42.41965" lon="-70.91351" />      <trkpt lat="42.41977" lon="-70.91369" />      <trkpt lat="42.41990" lon="-70.91384" />      <trkpt lat="42.42017" lon="-70.91415" />      <trkpt lat="42.42032" lon="-70.91432" />      <trkpt lat="42.42047" lon="-70.91449" />      <trkpt lat="42.42072" lon="-70.91480" />      <trkpt lat="42.42081" lon="-70.91489" />      <trkpt lat="42.42091" lon="-70.91499" />      <trkpt lat="42.42114" lon="-70.91518" />      <trkpt lat="42.42130" lon="-70.91534" />      <trkpt lat="42.42141" lon="-70.91546" />      <trkpt lat="42.42167" lon="-70.91579" />      <trkpt lat="42.42181" lon="-70.91596" />      <trkpt lat="42.42230" lon="-70.91660" />      <trkpt lat="42.42237" lon="-70.91669" />      <trkpt lat="42.42246" lon="-70.91682" />      <trkpt lat="42.42268" lon="-70.91711" />      <trkpt lat="42.42292" lon="-70.91742" />      <trkpt lat="42.42308" lon="-70.91763" />      <trkpt lat="42.42324" lon="-70.91781" />      <trkpt lat="42.42339" lon="-70.91793" />      <trkpt lat="42.42358" lon="-70.91802" />      <trkpt lat="42.42376" lon="-70.91816" />      <trkpt lat="42.42384" lon="-70.91827" />      <trkpt lat="42.42394" lon="-70.91844" />      <trkpt lat="42.42405" lon="-70.91865" />      <trkpt lat="42.42414" lon="-70.91895" />      <trkpt lat="42.42425" lon="-70.91931" />      <trkpt lat="42.42429" lon="-70.91948" />      <trkpt lat="42.42433" lon="-70.91977" />      <trkpt lat="42.42436" lon="-70.92012" />      <trkpt lat="42.42437" lon="-70.92037" />      <trkpt lat="42.42434" lon="-70.92069" />      <trkpt lat="42.42431" lon="-70.92099" />      <trkpt lat="42.42429" lon="-70.92110" />      <trkpt lat="42.42437" lon="-70.92137" />      <trkpt lat="42.42473" lon="-70.92216" />      <trkpt lat="42.42506" lon="-70.92285" />      <trkpt lat="42.42536" lon="-70.92348" />      <trkpt lat="42.42575" lon="-70.92429" />      <trkpt lat="42.42596" lon="-70.92474" />      <trkpt lat="42.42590" lon="-70.92518" />      <trkpt lat="42.42585" lon="-70.92564" />      <trkpt lat="42.42581" lon="-70.92603" />      <trkpt lat="42.42571" lon="-70.92686" />      <trkpt lat="42.42569" lon="-70.92709" />      <trkpt lat="42.42565" lon="-70.92752" />      <trkpt lat="42.42563" lon="-70.92794" />      <trkpt lat="42.42559" lon="-70.92871" />      <trkpt lat="42.42553" lon="-70.92942" />      <trkpt lat="42.42552" lon="-70.92965" />      <trkpt lat="42.42554" lon="-70.92997" />      <trkpt lat="42.42530" lon="-70.93029" />      <trkpt lat="42.42506" lon="-70.93057" />      <trkpt lat="42.42474" lon="-70.93086" />      <trkpt lat="42.42450" lon="-70.93105" />      <trkpt lat="42.42440" lon="-70.93114" />      <trkpt lat="42.42424" lon="-70.93131" />      <trkpt lat="42.42415" lon="-70.93147" />      <trkpt lat="42.42406" lon="-70.93171" />      <trkpt lat="42.42400" lon="-70.93201" />      <trkpt lat="42.42387" lon="-70.93272" />      <trkpt lat="42.42373" lon="-70.93346" />      <trkpt lat="42.42369" lon="-70.93367" />      <trkpt lat="42.42364" lon="-70.93398" />      <trkpt lat="42.42353" lon="-70.93453" />      <trkpt lat="42.42345" lon="-70.93498" />      <trkpt lat="42.42370" lon="-70.93503" />      <trkpt lat="42.42381" lon="-70.93505" />      <trkpt lat="42.42395" lon="-70.93509" />      <trkpt lat="42.42414" lon="-70.93517" />      <trkpt lat="42.42428" lon="-70.93526" />      <trkpt lat="42.42438" lon="-70.93531" />      <trkpt lat="42.42460" lon="-70.93542" />      <trkpt lat="42.42518" lon="-70.93572" />      <trkpt lat="42.42530" lon="-70.93582" />      <trkpt lat="42.42551" lon="-70.93597" />      <trkpt lat="42.42569" lon="-70.93606" />      <trkpt lat="42.42586" lon="-70.93604" />      <trkpt lat="42.42600" lon="-70.93596" />      <trkpt lat="42.42624" lon="-70.93580" />      <trkpt lat="42.42680" lon="-70.93539" />      <trkpt lat="42.42706" lon="-70.93513" />      <trkpt lat="42.42725" lon="-70.93500" />      <trkpt lat="42.42745" lon="-70.93486" />      <trkpt lat="42.42771" lon="-70.93491" />      <trkpt lat="42.42785" lon="-70.93494" />      <trkpt lat="42.42800" lon="-70.93498" />      <trkpt lat="42.42828" lon="-70.93507" />      <trkpt lat="42.42848" lon="-70.93512" />      <trkpt lat="42.42865" lon="-70.93515" />      <trkpt lat="42.42882" lon="-70.93512" />      <trkpt lat="42.42900" lon="-70.93502" />      <trkpt lat="42.42914" lon="-70.93487" />      <trkpt lat="42.42936" lon="-70.93458" />      <trkpt lat="42.42956" lon="-70.93432" />      <trkpt lat="42.42973" lon="-70.93414" />      <trkpt lat="42.42995" lon="-70.93394" />      <trkpt lat="42.43014" lon="-70.93364" />      <trkpt lat="42.43024" lon="-70.93375" />      <trkpt lat="42.43046" lon="-70.93397" />      <trkpt lat="42.43057" lon="-70.93407" />      <trkpt lat="42.43080" lon="-70.93425" />      <trkpt lat="42.43110" lon="-70.93444" />      <trkpt lat="42.43136" lon="-70.93458" />      <trkpt lat="42.43159" lon="-70.93469" />      <trkpt lat="42.43183" lon="-70.93478" />      <trkpt lat="42.43208" lon="-70.93485" />      <trkpt lat="42.43235" lon="-70.93493" />      <trkpt lat="42.43261" lon="-70.93500" />      <trkpt lat="42.43272" lon="-70.93504" />      <trkpt lat="42.43295" lon="-70.93513" />      <trkpt lat="42.43309" lon="-70.93520" />      <trkpt lat="42.43335" lon="-70.93536" />      <trkpt lat="42.43356" lon="-70.93550" />      <trkpt lat="42.43363" lon="-70.93555" />      <trkpt lat="42.43377" lon="-70.93564" />      <trkpt lat="42.43407" lon="-70.93587" />      <trkpt lat="42.43425" lon="-70.93600" />      <trkpt lat="42.43450" lon="-70.93618" />      <trkpt lat="42.43490" lon="-70.93648" />      <trkpt lat="42.43525" lon="-70.93673" />      <trkpt lat="42.43543" lon="-70.93685" />      <trkpt lat="42.43568" lon="-70.93696" />      <trkpt lat="42.43586" lon="-70.93703" />      <trkpt lat="42.43611" lon="-70.93714" />      <trkpt lat="42.43642" lon="-70.93732" />      <trkpt lat="42.43645" lon="-70.93721" />      <trkpt lat="42.43649" lon="-70.93710" />      <trkpt lat="42.43667" lon="-70.93712" />      <trkpt lat="42.43676" lon="-70.93713" />      <trkpt lat="42.43676" lon="-70.93703" />      <trkpt lat="42.43698" lon="-70.93705" />      <trkpt lat="42.43717" lon="-70.93721" />      <trkpt lat="42.43737" lon="-70.93747" />      <trkpt lat="42.43753" lon="-70.93770" />      <trkpt lat="42.43767" lon="-70.93782" />      <trkpt lat="42.43772" lon="-70.93805" />      <trkpt lat="42.43788" lon="-70.93817" />      <trkpt lat="42.43800" lon="-70.93826" />      <trkpt lat="42.43822" lon="-70.93842" />      <trkpt lat="42.43888" lon="-70.93888" />      <trkpt lat="42.43916" lon="-70.93905" />      <trkpt lat="42.43946" lon="-70.93918" />      <trkpt lat="42.43977" lon="-70.93928" />      <trkpt lat="42.43992" lon="-70.93932" />      <trkpt lat="42.44007" lon="-70.93935" />      <trkpt lat="42.44020" lon="-70.93937" />      <trkpt lat="42.44034" lon="-70.93938" />      <trkpt lat="42.44047" lon="-70.93938" />      <trkpt lat="42.44062" lon="-70.93940" />      <trkpt lat="42.44123" lon="-70.93948" />      <trkpt lat="42.44155" lon="-70.93947" />      <trkpt lat="42.44187" lon="-70.93945" />      <trkpt lat="42.44224" lon="-70.93942" />      <trkpt lat="42.44261" lon="-70.93938" />      <trkpt lat="42.44363" lon="-70.93928" />      <trkpt lat="42.44374" lon="-70.93923" />      <trkpt lat="42.44384" lon="-70.93925" />      <trkpt lat="42.44422" lon="-70.93922" />      <trkpt lat="42.44478" lon="-70.93913" />      <trkpt lat="42.44591" lon="-70.93894" />      <trkpt lat="42.44745" lon="-70.93868" />      <trkpt lat="42.44796" lon="-70.93856" />      <trkpt lat="42.44846" lon="-70.93846" />      <trkpt lat="42.44881" lon="-70.93839" />      <trkpt lat="42.44999" lon="-70.93810" />      <trkpt lat="42.45134" lon="-70.93780" />      <trkpt lat="42.45201" lon="-70.93767" />      <trkpt lat="42.45266" lon="-70.93752" />      <trkpt lat="42.45316" lon="-70.93738" />      <trkpt lat="42.45349" lon="-70.93726" />      <trkpt lat="42.45367" lon="-70.93722" />      <trkpt lat="42.45388" lon="-70.93720" />      <trkpt lat="42.45422" lon="-70.93709" />      <trkpt lat="42.45453" lon="-70.93698" />      <trkpt lat="42.45490" lon="-70.93686" />      <trkpt lat="42.45597" lon="-70.93648" />      <trkpt lat="42.45606" lon="-70.93645" />      <trkpt lat="42.45616" lon="-70.93641" />      <trkpt lat="42.45621" lon="-70.93627" />      <trkpt lat="42.45618" lon="-70.93612" />      <trkpt lat="42.45667" lon="-70.93574" />      <trkpt lat="42.45689" lon="-70.93560" />      <trkpt lat="42.45779" lon="-70.93501" />      <trkpt lat="42.45813" lon="-70.93479" />      <trkpt lat="42.45870" lon="-70.93441" />      <trkpt lat="42.45889" lon="-70.93427" />      <trkpt lat="42.45921" lon="-70.93404" />      <trkpt lat="42.45946" lon="-70.93384" />      <trkpt lat="42.45957" lon="-70.93375" />      <trkpt lat="42.45978" lon="-70.93353" />      <trkpt lat="42.45992" lon="-70.93331" />      <trkpt lat="42.45999" lon="-70.93319" />      <trkpt lat="42.46009" lon="-70.93299" />      <trkpt lat="42.46017" lon="-70.93280" />      <trkpt lat="42.46025" lon="-70.93258" />      <trkpt lat="42.46035" lon="-70.93226" />      <trkpt lat="42.46039" lon="-70.93203" />      <trkpt lat="42.46040" lon="-70.93182" />      <trkpt lat="42.46042" lon="-70.93164" />      <trkpt lat="42.46053" lon="-70.93131" />      <trkpt lat="42.46073" lon="-70.93102" />      <trkpt lat="42.46091" lon="-70.93081" />      <trkpt lat="42.46098" lon="-70.93073" />      <trkpt lat="42.46136" lon="-70.93017" />      <trkpt lat="42.46150" lon="-70.92991" />      <trkpt lat="42.46157" lon="-70.92972" />      <trkpt lat="42.46161" lon="-70.92944" />      <trkpt lat="42.46164" lon="-70.92919" />      <trkpt lat="42.46172" lon="-70.92877" />      <trkpt lat="42.46180" lon="-70.92851" />      <trkpt lat="42.46197" lon="-70.92820" />      <trkpt lat="42.46213" lon="-70.92793" />      <trkpt lat="42.46230" lon="-70.92769" />      <trkpt lat="42.46243" lon="-70.92753" />      <trkpt lat="42.46260" lon="-70.92735" />      <trkpt lat="42.46358" lon="-70.92637" />      <trkpt lat="42.46454" lon="-70.92526" />      <trkpt lat="42.46537" lon="-70.92417" />      <trkpt lat="42.46575" lon="-70.92364" />      <trkpt lat="42.46613" lon="-70.92311" />      <trkpt lat="42.46641" lon="-70.92269" />      <trkpt lat="42.46673" lon="-70.92222" />      <trkpt lat="42.46687" lon="-70.92201" />      <trkpt lat="42.46733" lon="-70.92133" />      <trkpt lat="42.46746" lon="-70.92112" />      <trkpt lat="42.46752" lon="-70.92102" />      <trkpt lat="42.46769" lon="-70.92063" />      <trkpt lat="42.46795" lon="-70.91987" />      <trkpt lat="42.46812" lon="-70.91927" />      <trkpt lat="42.46818" lon="-70.91890" />      <trkpt lat="42.46826" lon="-70.91832" />      <trkpt lat="42.46827" lon="-70.91793" />      <trkpt lat="42.46822" lon="-70.91764" />      <trkpt lat="42.46813" lon="-70.91733" />      <trkpt lat="42.46802" lon="-70.91711" />      <trkpt lat="42.46792" lon="-70.91692" />      <trkpt lat="42.46798" lon="-70.91685" />      <trkpt lat="42.46790" lon="-70.91670" />      <trkpt lat="42.46766" lon="-70.91623" />      <trkpt lat="42.46755" lon="-70.91598" />      <trkpt lat="42.46744" lon="-70.91565" />      <trkpt lat="42.46737" lon="-70.91539" />      <trkpt lat="42.46729" lon="-70.91505" />      <trkpt lat="42.46725" lon="-70.91488" />      <trkpt lat="42.46721" lon="-70.91467" />      <trkpt lat="42.46716" lon="-70.91431" />      <trkpt lat="42.46714" lon="-70.91401" />      <trkpt lat="42.46715" lon="-70.91373" />      <trkpt lat="42.46718" lon="-70.91338" />      <trkpt lat="42.46723" lon="-70.91316" />      <trkpt lat="42.46727" lon="-70.91296" />      <trkpt lat="42.46737" lon="-70.91251" />      <trkpt lat="42.46744" lon="-70.91217" />      <trkpt lat="42.46756" lon="-70.91164" />      <trkpt lat="42.46763" lon="-70.91132" />      <trkpt lat="42.46772" lon="-70.91078" />      <trkpt lat="42.46777" lon="-70.91033" />      <trkpt lat="42.46778" lon="-70.91014" />      <trkpt lat="42.46778" lon="-70.90977" />      <trkpt lat="42.46778" lon="-70.90925" />      <trkpt lat="42.46769" lon="-70.90916" />      <trkpt lat="42.46765" lon="-70.90905" />      <trkpt lat="42.46758" lon="-70.90879" />      <trkpt lat="42.46751" lon="-70.90851" />      <trkpt lat="42.46743" lon="-70.90820" />      <trkpt lat="42.46726" lon="-70.90766" />      <trkpt lat="42.46711" lon="-70.90730" />      <trkpt lat="42.46701" lon="-70.90708" />      <trkpt lat="42.46677" lon="-70.90666" />      <trkpt lat="42.46659" lon="-70.90638" />      <trkpt lat="42.46643" lon="-70.90612" />      <trkpt lat="42.46631" lon="-70.90596" />      <trkpt lat="42.46614" lon="-70.90583" />      <trkpt lat="42.46593" lon="-70.90582" />      <trkpt lat="42.46574" lon="-70.90583" />      <trkpt lat="42.46552" lon="-70.90588" />      <trkpt lat="42.46534" lon="-70.90595" />      <trkpt lat="42.46520" lon="-70.90604" />      <trkpt lat="42.46498" lon="-70.90616" />      <trkpt lat="42.46486" lon="-70.90620" />      <trkpt lat="42.46476" lon="-70.90620" />      <trkpt lat="42.46466" lon="-70.90616" />      <trkpt lat="42.46453" lon="-70.90607" />      <trkpt lat="42.46446" lon="-70.90599" />      <trkpt lat="42.46435" lon="-70.90585" />      <trkpt lat="42.46428" lon="-70.90568" />      <trkpt lat="42.46426" lon="-70.90555" />      <trkpt lat="42.46425" lon="-70.90542" />      <trkpt lat="42.46424" lon="-70.90501" />      <trkpt lat="42.46422" lon="-70.90466" />      <trkpt lat="42.46423" lon="-70.90450" />      <trkpt lat="42.46427" lon="-70.90430" />      <trkpt lat="42.46430" lon="-70.90418" />      <trkpt lat="42.46434" lon="-70.90405" />      <trkpt lat="42.46443" lon="-70.90374" />      <trkpt lat="42.46452" lon="-70.90343" />      <trkpt lat="42.46459" lon="-70.90320" />      <trkpt lat="42.46465" lon="-70.90293" />      <trkpt lat="42.46469" lon="-70.90278" />      <trkpt lat="42.46472" lon="-70.90255" />      <trkpt lat="42.46474" lon="-70.90240" />      <trkpt lat="42.46474" lon="-70.90226" />      <trkpt lat="42.46473" lon="-70.90212" />      <trkpt lat="42.46471" lon="-70.90200" />      <trkpt lat="42.46467" lon="-70.90177" />      <trkpt lat="42.46461" lon="-70.90148" />      <trkpt lat="42.46453" lon="-70.90102" />      <trkpt lat="42.46448" lon="-70.90073" />      <trkpt lat="42.46442" lon="-70.90030" />      <trkpt lat="42.46440" lon="-70.90020" />      <trkpt lat="42.46437" lon="-70.89993" />      <trkpt lat="42.46435" lon="-70.89966" />      <trkpt lat="42.46433" lon="-70.89936" />      <trkpt lat="42.46431" lon="-70.89896" />      <trkpt lat="42.46431" lon="-70.89878" />      <trkpt lat="42.46434" lon="-70.89853" />      <trkpt lat="42.46437" lon="-70.89841" />      <trkpt lat="42.46442" lon="-70.89823" />      <trkpt lat="42.46447" lon="-70.89804" />      <trkpt lat="42.46455" lon="-70.89780" />      <trkpt lat="42.46461" lon="-70.89760" />      <trkpt lat="42.46468" lon="-70.89745" />      <trkpt lat="42.46475" lon="-70.89734" />      <trkpt lat="42.46483" lon="-70.89722" />      <trkpt lat="42.46490" lon="-70.89707" />      <trkpt lat="42.46499" lon="-70.89690" />      <trkpt lat="42.46508" lon="-70.89671" />      <trkpt lat="42.46518" lon="-70.89650" />      <trkpt lat="42.46533" lon="-70.89619" />      <trkpt lat="42.46543" lon="-70.89599" />      <trkpt lat="42.46556" lon="-70.89574" />      <trkpt lat="42.46566" lon="-70.89553" />      <trkpt lat="42.46575" lon="-70.89538" />      <trkpt lat="42.46595" lon="-70.89525" />      <trkpt lat="42.46610" lon="-70.89522" />      <trkpt lat="42.46621" lon="-70.89520" />      <trkpt lat="42.46631" lon="-70.89517" />      <trkpt lat="42.46648" lon="-70.89510" />      <trkpt lat="42.46660" lon="-70.89503" />      <trkpt lat="42.46667" lon="-70.89495" />      <trkpt lat="42.46674" lon="-70.89486" />      <trkpt lat="42.46682" lon="-70.89472" />      <trkpt lat="42.46695" lon="-70.89448" />      <trkpt lat="42.46707" lon="-70.89425" />      <trkpt lat="42.46715" lon="-70.89414" />      <trkpt lat="42.46721" lon="-70.89406" />      <trkpt lat="42.46733" lon="-70.89398" />      <trkpt lat="42.46747" lon="-70.89396" />      <trkpt lat="42.46760" lon="-70.89397" />      <trkpt lat="42.46795" lon="-70.89400" />      <trkpt lat="42.46805" lon="-70.89400" />      <trkpt lat="42.46816" lon="-70.89400" />      <trkpt lat="42.46832" lon="-70.89397" />      <trkpt lat="42.46853" lon="-70.89387" />      <trkpt lat="42.46864" lon="-70.89382" />      <trkpt lat="42.46872" lon="-70.89378" />      <trkpt lat="42.46886" lon="-70.89386" />      <trkpt lat="42.46907" lon="-70.89398" />      <trkpt lat="42.46938" lon="-70.89419" />      <trkpt lat="42.46968" lon="-70.89437" />      <trkpt lat="42.47021" lon="-70.89471" />      <trkpt lat="42.47030" lon="-70.89472" />      <trkpt lat="42.47045" lon="-70.89481" />      <trkpt lat="42.47050" lon="-70.89472" />      <trkpt lat="42.47064" lon="-70.89456" />      <trkpt lat="42.47079" lon="-70.89450" />      <trkpt lat="42.47102" lon="-70.89418" />      <trkpt lat="42.47113" lon="-70.89404" />      <trkpt lat="42.47120" lon="-70.89395" />      <trkpt lat="42.47150" lon="-70.89356" />      <trkpt lat="42.47182" lon="-70.89318" />      <trkpt lat="42.47198" lon="-70.89299" />      <trkpt lat="42.47205" lon="-70.89292" />      <trkpt lat="42.47226" lon="-70.89268" />      <trkpt lat="42.47239" lon="-70.89251" />      <trkpt lat="42.47247" lon="-70.89243" />      <trkpt lat="42.47272" lon="-70.89215" />      <trkpt lat="42.47295" lon="-70.89187" />      <trkpt lat="42.47317" lon="-70.89161" />      <trkpt lat="42.47333" lon="-70.89144" />      <trkpt lat="42.47344" lon="-70.89134" />      <trkpt lat="42.47353" lon="-70.89125" />      <trkpt lat="42.47363" lon="-70.89116" />      <trkpt lat="42.47379" lon="-70.89102" />      <trkpt lat="42.47400" lon="-70.89082" />      <trkpt lat="42.47411" lon="-70.89070" />      <trkpt lat="42.47428" lon="-70.89049" />      <trkpt lat="42.47444" lon="-70.89025" />      <trkpt lat="42.47452" lon="-70.89011" />      <trkpt lat="42.47458" lon="-70.88999" />      <trkpt lat="42.47467" lon="-70.88978" />      <trkpt lat="42.47472" lon="-70.88967" />      <trkpt lat="42.47478" lon="-70.88954" />      <trkpt lat="42.47483" lon="-70.88937" />      <trkpt lat="42.47487" lon="-70.88925" />      <trkpt lat="42.47491" lon="-70.88911" />      <trkpt lat="42.47494" lon="-70.88898" />      <trkpt lat="42.47496" lon="-70.88885" />      <trkpt lat="42.47499" lon="-70.88866" />      <trkpt lat="42.47504" lon="-70.88832" />      <trkpt lat="42.47512" lon="-70.88756" />      <trkpt lat="42.47514" lon="-70.88740" />      <trkpt lat="42.47520" lon="-70.88692" />      <trkpt lat="42.47525" lon="-70.88645" />      <trkpt lat="42.47532" lon="-70.88588" />      <trkpt lat="42.47535" lon="-70.88561" />      <trkpt lat="42.47538" lon="-70.88536" />      <trkpt lat="42.47541" lon="-70.88504" />      <trkpt lat="42.47541" lon="-70.88484" />      <trkpt lat="42.47543" lon="-70.88473" />      <trkpt lat="42.47546" lon="-70.88461" />      <trkpt lat="42.47550" lon="-70.88448" />      <trkpt lat="42.47561" lon="-70.88430" />      <trkpt lat="42.47574" lon="-70.88420" />      <trkpt lat="42.47585" lon="-70.88412" />      <trkpt lat="42.47593" lon="-70.88408" />      <trkpt lat="42.47616" lon="-70.88394" />      <trkpt lat="42.47632" lon="-70.88385" />      <trkpt lat="42.47641" lon="-70.88379" />      <trkpt lat="42.47663" lon="-70.88366" />      <trkpt lat="42.47671" lon="-70.88358" />      <trkpt lat="42.47680" lon="-70.88347" />      <trkpt lat="42.47687" lon="-70.88337" />      <trkpt lat="42.47694" lon="-70.88327" />      <trkpt lat="42.47710" lon="-70.88306" />      <trkpt lat="42.47723" lon="-70.88286" />      <trkpt lat="42.47738" lon="-70.88257" />      <trkpt lat="42.47751" lon="-70.88233" />      <trkpt lat="42.47760" lon="-70.88216" />      <trkpt lat="42.47772" lon="-70.88193" />      <trkpt lat="42.47791" lon="-70.88155" />      <trkpt lat="42.47815" lon="-70.88112" />      <trkpt lat="42.47835" lon="-70.88073" />      <trkpt lat="42.47839" lon="-70.88063" />      <trkpt lat="42.47846" lon="-70.88053" />      <trkpt lat="42.47853" lon="-70.88042" />      <trkpt lat="42.47868" lon="-70.88027" />      <trkpt lat="42.47879" lon="-70.88016" />      <trkpt lat="42.47892" lon="-70.88006" />      <trkpt lat="42.47910" lon="-70.87991" />      <trkpt lat="42.47935" lon="-70.87971" />      <trkpt lat="42.47950" lon="-70.87962" />      <trkpt lat="42.47962" lon="-70.87951" />      <trkpt lat="42.47974" lon="-70.87940" />      <trkpt lat="42.47985" lon="-70.87929" />      <trkpt lat="42.48000" lon="-70.87912" />      <trkpt lat="42.48015" lon="-70.87895" />      <trkpt lat="42.48033" lon="-70.87873" />      <trkpt lat="42.48043" lon="-70.87863" />      <trkpt lat="42.48051" lon="-70.87855" />      <trkpt lat="42.48064" lon="-70.87842" />      <trkpt lat="42.48071" lon="-70.87834" />      <trkpt lat="42.48085" lon="-70.87819" />      <trkpt lat="42.48114" lon="-70.87791" />      <trkpt lat="42.48132" lon="-70.87772" />      <trkpt lat="42.48148" lon="-70.87754" />      <trkpt lat="42.48177" lon="-70.87723" />      <trkpt lat="42.48203" lon="-70.87696" />      <trkpt lat="42.48224" lon="-70.87670" />      <trkpt lat="42.48234" lon="-70.87657" />      <trkpt lat="42.48244" lon="-70.87642" />      <trkpt lat="42.48251" lon="-70.87629" />      <trkpt lat="42.48262" lon="-70.87604" />      <trkpt lat="42.48275" lon="-70.87570" />      <trkpt lat="42.48287" lon="-70.87535" />      <trkpt lat="42.48295" lon="-70.87517" />      <trkpt lat="42.48309" lon="-70.87482" />      <trkpt lat="42.48325" lon="-70.87442" />      <trkpt lat="42.48330" lon="-70.87429" />      <trkpt lat="42.48349" lon="-70.87377" />      <trkpt lat="42.48362" lon="-70.87346" />      <trkpt lat="42.48372" lon="-70.87323" />      <trkpt lat="42.48385" lon="-70.87297" />      <trkpt lat="42.48396" lon="-70.87279" />      <trkpt lat="42.48404" lon="-70.87268" />      <trkpt lat="42.48412" lon="-70.87256" />      <trkpt lat="42.48427" lon="-70.87239" />      <trkpt lat="42.48437" lon="-70.87226" />      <trkpt lat="42.48454" lon="-70.87206" />      <trkpt lat="42.48476" lon="-70.87180" />      <trkpt lat="42.48494" lon="-70.87156" />      <trkpt lat="42.48506" lon="-70.87140" />      <trkpt lat="42.48525" lon="-70.87108" />      <trkpt lat="42.48555" lon="-70.87062" />      <trkpt lat="42.48568" lon="-70.87042" />      <trkpt lat="42.48589" lon="-70.87006" />      <trkpt lat="42.48594" lon="-70.86997" />      <trkpt lat="42.48602" lon="-70.86982" />      <trkpt lat="42.48608" lon="-70.86967" />      <trkpt lat="42.48615" lon="-70.86951" />      <trkpt lat="42.48621" lon="-70.86937" />      <trkpt lat="42.48625" lon="-70.86923" />      <trkpt lat="42.48632" lon="-70.86902" />      <trkpt lat="42.48640" lon="-70.86881" />      <trkpt lat="42.48651" lon="-70.86855" />      <trkpt lat="42.48658" lon="-70.86838" />      <trkpt lat="42.48664" lon="-70.86824" />      <trkpt lat="42.48677" lon="-70.86799" />      <trkpt lat="42.48689" lon="-70.86781" />      <trkpt lat="42.48700" lon="-70.86765" />      <trkpt lat="42.48713" lon="-70.86747" />      <trkpt lat="42.48723" lon="-70.86735" />      <trkpt lat="42.48734" lon="-70.86724" />      <trkpt lat="42.48754" lon="-70.86704" />      <trkpt lat="42.48768" lon="-70.86690" />      <trkpt lat="42.48795" lon="-70.86666" />      <trkpt lat="42.48837" lon="-70.86632" />      <trkpt lat="42.48879" lon="-70.86603" />      <trkpt lat="42.48893" lon="-70.86591" />      <trkpt lat="42.48937" lon="-70.86559" />      <trkpt lat="42.48953" lon="-70.86548" />      <trkpt lat="42.48981" lon="-70.86528" />      <trkpt lat="42.49018" lon="-70.86503" />      <trkpt lat="42.49034" lon="-70.86491" />      <trkpt lat="42.49060" lon="-70.86474" />      <trkpt lat="42.49084" lon="-70.86457" />      <trkpt lat="42.49105" lon="-70.86441" />      <trkpt lat="42.49144" lon="-70.86413" />      <trkpt lat="42.49223" lon="-70.86356" />      <trkpt lat="42.49272" lon="-70.86321" />      <trkpt lat="42.49310" lon="-70.86295" />      <trkpt lat="42.49352" lon="-70.86267" />      <trkpt lat="42.49390" lon="-70.86241" />      <trkpt lat="42.49420" lon="-70.86219" />      <trkpt lat="42.49434" lon="-70.86209" />      <trkpt lat="42.49475" lon="-70.86179" />      <trkpt lat="42.49493" lon="-70.86161" />      <trkpt lat="42.49509" lon="-70.86144" />      <trkpt lat="42.49521" lon="-70.86129" />      <trkpt lat="42.49539" lon="-70.86099" />      <trkpt lat="42.49560" lon="-70.86063" />      <trkpt lat="42.49577" lon="-70.86034" />      <trkpt lat="42.49601" lon="-70.85991" />      <trkpt lat="42.49626" lon="-70.85946" />      <trkpt lat="42.49644" lon="-70.85916" />      <trkpt lat="42.49649" lon="-70.85906" />      <trkpt lat="42.49656" lon="-70.85894" />      <trkpt lat="42.49666" lon="-70.85877" />      <trkpt lat="42.49676" lon="-70.85858" />      <trkpt lat="42.49687" lon="-70.85840" />      <trkpt lat="42.49698" lon="-70.85821" />      <trkpt lat="42.49709" lon="-70.85804" />      <trkpt lat="42.49717" lon="-70.85791" />      <trkpt lat="42.49734" lon="-70.85769" />      <trkpt lat="42.49743" lon="-70.85757" />      <trkpt lat="42.49761" lon="-70.85736" />      <trkpt lat="42.49808" lon="-70.85683" />      <trkpt lat="42.49857" lon="-70.85626" />      <trkpt lat="42.49911" lon="-70.85574" />      <trkpt lat="42.49956" lon="-70.85531" />      <trkpt lat="42.49968" lon="-70.85521" />      <trkpt lat="42.49982" lon="-70.85508" />      <trkpt lat="42.50000" lon="-70.85493" />      <trkpt lat="42.50008" lon="-70.85485" />      <trkpt lat="42.50024" lon="-70.85477" />      <trkpt lat="42.50036" lon="-70.85481" />      <trkpt lat="42.50052" lon="-70.85492" />      <trkpt lat="42.50061" lon="-70.85500" />      <trkpt lat="42.50070" lon="-70.85509" />      <trkpt lat="42.50083" lon="-70.85520" />      <trkpt lat="42.50091" lon="-70.85527" />      <trkpt lat="42.50107" lon="-70.85541" />      <trkpt lat="42.50118" lon="-70.85548" />      <trkpt lat="42.50129" lon="-70.85552" />      <trkpt lat="42.50138" lon="-70.85538" />      <trkpt lat="42.50145" lon="-70.85519" />      <trkpt lat="42.50154" lon="-70.85487" />      <trkpt lat="42.50157" lon="-70.85471" />      <trkpt lat="42.50162" lon="-70.85452" />      <trkpt lat="42.50178" lon="-70.85422" />      <trkpt lat="42.50195" lon="-70.85399" />      <trkpt lat="42.50212" lon="-70.85376" />      <trkpt lat="42.50230" lon="-70.85345" />      <trkpt lat="42.50242" lon="-70.85317" />      <trkpt lat="42.50260" lon="-70.85281" />      <trkpt lat="42.50274" lon="-70.85258" />      <trkpt lat="42.50292" lon="-70.85232" />      <trkpt lat="42.50308" lon="-70.85210" />      <trkpt lat="42.50322" lon="-70.85180" />      <trkpt lat="42.50334" lon="-70.85158" />      <trkpt lat="42.50343" lon="-70.85129" />      <trkpt lat="42.50347" lon="-70.85114" />      <trkpt lat="42.50359" lon="-70.85073" />      <trkpt lat="42.50392" lon="-70.85052" />      <trkpt lat="42.50412" lon="-70.85039" />      <trkpt lat="42.50427" lon="-70.85030" />      <trkpt lat="42.50438" lon="-70.85023" />      <trkpt lat="42.50452" lon="-70.85014" />      <trkpt lat="42.50471" lon="-70.85001" />      <trkpt lat="42.50485" lon="-70.84990" />      <trkpt lat="42.50495" lon="-70.84983" />      <trkpt lat="42.50512" lon="-70.84970" />      <trkpt lat="42.50524" lon="-70.84956" />      <trkpt lat="42.50540" lon="-70.84940" />      <trkpt lat="42.50540" lon="-70.84955" />      <trkpt lat="42.50540" lon="-70.84967" />      <trkpt lat="42.50539" lon="-70.84992" />      <trkpt lat="42.50544" lon="-70.85008" />      <trkpt lat="42.50551" lon="-70.85031" />      <trkpt lat="42.50573" lon="-70.85066" />      <trkpt lat="42.50592" lon="-70.85098" />      <trkpt lat="42.50607" lon="-70.85138" />      <trkpt lat="42.50618" lon="-70.85172" />      <trkpt lat="42.50622" lon="-70.85197" />      <trkpt lat="42.50606" lon="-70.85228" />      <trkpt lat="42.50585" lon="-70.85256" />      <trkpt lat="42.50565" lon="-70.85287" />      <trkpt lat="42.50550" lon="-70.85327" />      <trkpt lat="42.50543" lon="-70.85358" />      <trkpt lat="42.50533" lon="-70.85393" />      <trkpt lat="42.50525" lon="-70.85424" />      <trkpt lat="42.50518" lon="-70.85458" />      <trkpt lat="42.50512" lon="-70.85484" />      <trkpt lat="42.50505" lon="-70.85496" />      <trkpt lat="42.50497" lon="-70.85509" />      <trkpt lat="42.50483" lon="-70.85526" />      <trkpt lat="42.50476" lon="-70.85534" />      <trkpt lat="42.50430" lon="-70.85579" />      <trkpt lat="42.50401" lon="-70.85609" />      <trkpt lat="42.50388" lon="-70.85622" />      <trkpt lat="42.50373" lon="-70.85631" />      <trkpt lat="42.50354" lon="-70.85632" />      <trkpt lat="42.50338" lon="-70.85620" />      <trkpt lat="42.50325" lon="-70.85600" />      <trkpt lat="42.50315" lon="-70.85585" />      <trkpt lat="42.50303" lon="-70.85569" />      <trkpt lat="42.50297" lon="-70.85561" />      <trkpt lat="42.50286" lon="-70.85544" />      <trkpt lat="42.50264" lon="-70.85572" />      <trkpt lat="42.50248" lon="-70.85592" />      <trkpt lat="42.50242" lon="-70.85599" />      <trkpt lat="42.50228" lon="-70.85617" />      <trkpt lat="42.50211" lon="-70.85639" />      <trkpt lat="42.50192" lon="-70.85664" />      <trkpt lat="42.50139" lon="-70.85731" />      <trkpt lat="42.50128" lon="-70.85745" />      <trkpt lat="42.50113" lon="-70.85762" />      <trkpt lat="42.50095" lon="-70.85783" />      <trkpt lat="42.50079" lon="-70.85802" />      <trkpt lat="42.50064" lon="-70.85827" />      <trkpt lat="42.50048" lon="-70.85848" />      <trkpt lat="42.50034" lon="-70.85864" />      <trkpt lat="42.50016" lon="-70.85883" />      <trkpt lat="42.50001" lon="-70.85897" />      <trkpt lat="42.49988" lon="-70.85908" />      <trkpt lat="42.49973" lon="-70.85921" />      <trkpt lat="42.49957" lon="-70.85935" />      <trkpt lat="42.49937" lon="-70.85950" />      <trkpt lat="42.49923" lon="-70.85958" />      <trkpt lat="42.49913" lon="-70.85964" />      <trkpt lat="42.49904" lon="-70.85969" />      <trkpt lat="42.49872" lon="-70.85987" />      <trkpt lat="42.49846" lon="-70.86001" />      <trkpt lat="42.49827" lon="-70.86012" />      <trkpt lat="42.49813" lon="-70.86023" />      <trkpt lat="42.49798" lon="-70.86033" />      <trkpt lat="42.49784" lon="-70.86047" />      <trkpt lat="42.49769" lon="-70.86070" />      <trkpt lat="42.49765" lon="-70.86079" />      <trkpt lat="42.49757" lon="-70.86095" />      <trkpt lat="42.49748" lon="-70.86117" />      <trkpt lat="42.49740" lon="-70.86135" />      <trkpt lat="42.49732" lon="-70.86152" />      <trkpt lat="42.49724" lon="-70.86168" />      <trkpt lat="42.49718" lon="-70.86180" />      <trkpt lat="42.49708" lon="-70.86194" />      <trkpt lat="42.49696" lon="-70.86207" />      <trkpt lat="42.49683" lon="-70.86220" />      <trkpt lat="42.49675" lon="-70.86226" />      <trkpt lat="42.49662" lon="-70.86236" />      <trkpt lat="42.49646" lon="-70.86247" />      <trkpt lat="42.49631" lon="-70.86258" />      <trkpt lat="42.49623" lon="-70.86264" />      <trkpt lat="42.49612" lon="-70.86275" />      <trkpt lat="42.49604" lon="-70.86283" />      <trkpt lat="42.49595" lon="-70.86293" />      <trkpt lat="42.49587" lon="-70.86307" />      <trkpt lat="42.49579" lon="-70.86318" />      <trkpt lat="42.49573" lon="-70.86330" />      <trkpt lat="42.49559" lon="-70.86361" />      <trkpt lat="42.49547" lon="-70.86388" />      <trkpt lat="42.49536" lon="-70.86416" />      <trkpt lat="42.49528" lon="-70.86434" />      <trkpt lat="42.49520" lon="-70.86460" />      <trkpt lat="42.49515" lon="-70.86479" />      <trkpt lat="42.49509" lon="-70.86505" />      <trkpt lat="42.49498" lon="-70.86539" />      <trkpt lat="42.49489" lon="-70.86574" />      <trkpt lat="42.49481" lon="-70.86606" />      <trkpt lat="42.49473" lon="-70.86643" />      <trkpt lat="42.49470" lon="-70.86675" />      <trkpt lat="42.49466" lon="-70.86698" />      <trkpt lat="42.49462" lon="-70.86726" />      <trkpt lat="42.49457" lon="-70.86747" />      <trkpt lat="42.49455" lon="-70.86758" />      <trkpt lat="42.49451" lon="-70.86771" />      <trkpt lat="42.49445" lon="-70.86797" />      <trkpt lat="42.49437" lon="-70.86828" />      <trkpt lat="42.49428" lon="-70.86870" />      <trkpt lat="42.49420" lon="-70.86904" />      <trkpt lat="42.49411" lon="-70.86946" />      <trkpt lat="42.49407" lon="-70.86965" />      <trkpt lat="42.49402" lon="-70.86982" />      <trkpt lat="42.49383" lon="-70.87020" />      <trkpt lat="42.49375" lon="-70.87038" />      <trkpt lat="42.49367" lon="-70.87058" />      <trkpt lat="42.49341" lon="-70.87117" />      <trkpt lat="42.49334" lon="-70.87132" />      <trkpt lat="42.49311" lon="-70.87183" />      <trkpt lat="42.49283" lon="-70.87243" />      <trkpt lat="42.49277" lon="-70.87257" />      <trkpt lat="42.49272" lon="-70.87269" />      <trkpt lat="42.49260" lon="-70.87295" />      <trkpt lat="42.49241" lon="-70.87338" />      <trkpt lat="42.49215" lon="-70.87394" />      <trkpt lat="42.49204" lon="-70.87416" />      <trkpt lat="42.49165" lon="-70.87494" />      <trkpt lat="42.49129" lon="-70.87559" />      <trkpt lat="42.49120" lon="-70.87578" />      <trkpt lat="42.49095" lon="-70.87623" />      <trkpt lat="42.49048" lon="-70.87706" />      <trkpt lat="42.49010" lon="-70.87777" />      <trkpt lat="42.48999" lon="-70.87798" />      <trkpt lat="42.48989" lon="-70.87819" />      <trkpt lat="42.48980" lon="-70.87837" />      <trkpt lat="42.48972" lon="-70.87858" />      <trkpt lat="42.48964" lon="-70.87880" />      <trkpt lat="42.48958" lon="-70.87900" />      <trkpt lat="42.48953" lon="-70.87920" />      <trkpt lat="42.48946" lon="-70.87947" />      <trkpt lat="42.48935" lon="-70.88007" />      <trkpt lat="42.48931" lon="-70.88026" />      <trkpt lat="42.48928" lon="-70.88040" />      <trkpt lat="42.48922" lon="-70.88062" />      <trkpt lat="42.48916" lon="-70.88085" />      <trkpt lat="42.48909" lon="-70.88107" />      <trkpt lat="42.48903" lon="-70.88127" />      <trkpt lat="42.48897" lon="-70.88146" />      <trkpt lat="42.48888" lon="-70.88177" />      <trkpt lat="42.48876" lon="-70.88210" />      <trkpt lat="42.48867" lon="-70.88239" />      <trkpt lat="42.48854" lon="-70.88273" />      <trkpt lat="42.48843" lon="-70.88305" />      <trkpt lat="42.48832" lon="-70.88335" />      <trkpt lat="42.48824" lon="-70.88358" />      <trkpt lat="42.48812" lon="-70.88391" />      <trkpt lat="42.48806" lon="-70.88410" />      <trkpt lat="42.48796" lon="-70.88436" />      <trkpt lat="42.48791" lon="-70.88448" />      <trkpt lat="42.48781" lon="-70.88477" />      <trkpt lat="42.48772" lon="-70.88499" />      <trkpt lat="42.48765" lon="-70.88515" />      <trkpt lat="42.48756" lon="-70.88539" />      <trkpt lat="42.48749" lon="-70.88555" />      <trkpt lat="42.48745" lon="-70.88567" />      <trkpt lat="42.48741" lon="-70.88582" />      <trkpt lat="42.48735" lon="-70.88603" />      <trkpt lat="42.48726" lon="-70.88638" />      <trkpt lat="42.48719" lon="-70.88673" />      <trkpt lat="42.48713" lon="-70.88696" />      <trkpt lat="42.48708" lon="-70.88716" />      <trkpt lat="42.48699" lon="-70.88759" />      <trkpt lat="42.48690" lon="-70.88797" />      <trkpt lat="42.48685" lon="-70.88818" />      <trkpt lat="42.48678" lon="-70.88851" />      <trkpt lat="42.48672" lon="-70.88881" />      <trkpt lat="42.48664" lon="-70.88918" />      <trkpt lat="42.48653" lon="-70.88965" />      <trkpt lat="42.48644" lon="-70.89006" />      <trkpt lat="42.48637" lon="-70.89040" />      <trkpt lat="42.48628" lon="-70.89080" />      <trkpt lat="42.48622" lon="-70.89111" />      <trkpt lat="42.48619" lon="-70.89125" />      <trkpt lat="42.48615" lon="-70.89150" />      <trkpt lat="42.48610" lon="-70.89173" />      <trkpt lat="42.48605" lon="-70.89202" />      <trkpt lat="42.48602" lon="-70.89221" />      <trkpt lat="42.48598" lon="-70.89249" />      <trkpt lat="42.48596" lon="-70.89261" />      <trkpt lat="42.48593" lon="-70.89287" />      <trkpt lat="42.48588" lon="-70.89324" />      <trkpt lat="42.48584" lon="-70.89352" />      <trkpt lat="42.48581" lon="-70.89377" />      <trkpt lat="42.48575" lon="-70.89420" />      <trkpt lat="42.48570" lon="-70.89455" />      <trkpt lat="42.48563" lon="-70.89492" />      <trkpt lat="42.48560" lon="-70.89505" />      <trkpt lat="42.48556" lon="-70.89526" />      <trkpt lat="42.48551" lon="-70.89555" />      <trkpt lat="42.48546" lon="-70.89583" />      <trkpt lat="42.48539" lon="-70.89621" />      <trkpt lat="42.48530" lon="-70.89667" />      <trkpt lat="42.48524" lon="-70.89705" />      <trkpt lat="42.48515" lon="-70.89755" />      <trkpt lat="42.48508" lon="-70.89794" />      <trkpt lat="42.48506" lon="-70.89805" />      <trkpt lat="42.48504" lon="-70.89819" />      <trkpt lat="42.48496" lon="-70.89862" />      <trkpt lat="42.48493" lon="-70.89881" />      <trkpt lat="42.48486" lon="-70.89922" />      <trkpt lat="42.48486" lon="-70.89941" />      <trkpt lat="42.48486" lon="-70.89953" />      <trkpt lat="42.48490" lon="-70.89982" />      <trkpt lat="42.48502" lon="-70.90029" />      <trkpt lat="42.48508" lon="-70.90050" />      <trkpt lat="42.48523" lon="-70.90086" />      <trkpt lat="42.48532" lon="-70.90111" />      <trkpt lat="42.48538" lon="-70.90133" />      <trkpt lat="42.48545" lon="-70.90162" />      <trkpt lat="42.48553" lon="-70.90172" />      <trkpt lat="42.48565" lon="-70.90185" />      <trkpt lat="42.48559" lon="-70.90195" />      <trkpt lat="42.48552" lon="-70.90206" />      <trkpt lat="42.48546" lon="-70.90217" />      <trkpt lat="42.48540" lon="-70.90230" />      <trkpt lat="42.48535" lon="-70.90242" />      <trkpt lat="42.48531" lon="-70.90255" />      <trkpt lat="42.48527" lon="-70.90268" />      <trkpt lat="42.48524" lon="-70.90283" />      <trkpt lat="42.48521" lon="-70.90297" />      <trkpt lat="42.48519" lon="-70.90312" />      <trkpt lat="42.48511" lon="-70.90363" />      <trkpt lat="42.48508" lon="-70.90383" />      <trkpt lat="42.48506" lon="-70.90394" />      <trkpt lat="42.48500" lon="-70.90434" />      <trkpt lat="42.48496" lon="-70.90458" />      <trkpt lat="42.48490" lon="-70.90502" />      <trkpt lat="42.48486" lon="-70.90517" />      <trkpt lat="42.48484" lon="-70.90529" />      <trkpt lat="42.48478" lon="-70.90549" />      <trkpt lat="42.48474" lon="-70.90558" />      <trkpt lat="42.48468" lon="-70.90575" />      <trkpt lat="42.48461" lon="-70.90593" />      <trkpt lat="42.48454" lon="-70.90609" />      <trkpt lat="42.48428" lon="-70.90661" />      <trkpt lat="42.48423" lon="-70.90675" />      <trkpt lat="42.48412" lon="-70.90697" />      <trkpt lat="42.48400" lon="-70.90725" />      <trkpt lat="42.48394" lon="-70.90744" />      <trkpt lat="42.48389" lon="-70.90764" />      <trkpt lat="42.48382" lon="-70.90794" />      <trkpt lat="42.48372" lon="-70.90836" />      <trkpt lat="42.48347" lon="-70.90937" />      <trkpt lat="42.48330" lon="-70.91008" />      <trkpt lat="42.48327" lon="-70.91021" />      <trkpt lat="42.48324" lon="-70.91033" />      <trkpt lat="42.48321" lon="-70.91048" />      <trkpt lat="42.48312" lon="-70.91086" />      <trkpt lat="42.48306" lon="-70.91119" />      <trkpt lat="42.48301" lon="-70.91141" />      <trkpt lat="42.48286" lon="-70.91214" />      <trkpt lat="42.48270" lon="-70.91288" />      <trkpt lat="42.48265" lon="-70.91310" />      <trkpt lat="42.48261" lon="-70.91325" />      <trkpt lat="42.48256" lon="-70.91340" />      <trkpt lat="42.48251" lon="-70.91355" />      <trkpt lat="42.48243" lon="-70.91374" />      <trkpt lat="42.48234" lon="-70.91390" />      <trkpt lat="42.48229" lon="-70.91399" />      <trkpt lat="42.48222" lon="-70.91407" />      <trkpt lat="42.48214" lon="-70.91416" />      <trkpt lat="42.48206" lon="-70.91423" />      <trkpt lat="42.48199" lon="-70.91429" />      <trkpt lat="42.48190" lon="-70.91436" />      <trkpt lat="42.48145" lon="-70.91465" />      <trkpt lat="42.48098" lon="-70.91496" />      <trkpt lat="42.48069" lon="-70.91516" />      <trkpt lat="42.48060" lon="-70.91523" />      <trkpt lat="42.48024" lon="-70.91547" />      <trkpt lat="42.47999" lon="-70.91564" />      <trkpt lat="42.47986" lon="-70.91572" />      <trkpt lat="42.47975" lon="-70.91581" />      <trkpt lat="42.47968" lon="-70.91596" />      <trkpt lat="42.47965" lon="-70.91614" />      <trkpt lat="42.47962" lon="-70.91629" />      <trkpt lat="42.47952" lon="-70.91645" />      <trkpt lat="42.47944" lon="-70.91655" />      <trkpt lat="42.47915" lon="-70.91693" />      <trkpt lat="42.47909" lon="-70.91702" />      <trkpt lat="42.47898" lon="-70.91716" />      <trkpt lat="42.47868" lon="-70.91754" />      <trkpt lat="42.47855" lon="-70.91771" />      <trkpt lat="42.47819" lon="-70.91818" />      <trkpt lat="42.47810" lon="-70.91830" />      <trkpt lat="42.47801" lon="-70.91842" />      <trkpt lat="42.47792" lon="-70.91854" />      <trkpt lat="42.47775" lon="-70.91877" />      <trkpt lat="42.47749" lon="-70.91911" />      <trkpt lat="42.47738" lon="-70.91926" />      <trkpt lat="42.47711" lon="-70.91964" />      <trkpt lat="42.47704" lon="-70.91975" />      <trkpt lat="42.47693" lon="-70.91988" />      <trkpt lat="42.47686" lon="-70.91995" />      <trkpt lat="42.47679" lon="-70.92002" />      <trkpt lat="42.47669" lon="-70.92013" />      <trkpt lat="42.47659" lon="-70.92024" />      <trkpt lat="42.47652" lon="-70.92033" />      <trkpt lat="42.47641" lon="-70.92052" />      <trkpt lat="42.47635" lon="-70.92062" />      <trkpt lat="42.47627" lon="-70.92079" />      <trkpt lat="42.47599" lon="-70.92145" />      <trkpt lat="42.47588" lon="-70.92171" />      <trkpt lat="42.47579" lon="-70.92190" />      <trkpt lat="42.47574" lon="-70.92203" />      <trkpt lat="42.47567" lon="-70.92225" />      <trkpt lat="42.47564" lon="-70.92236" />      <trkpt lat="42.47561" lon="-70.92255" />      <trkpt lat="42.47560" lon="-70.92267" />      <trkpt lat="42.47560" lon="-70.92281" />      <trkpt lat="42.47560" lon="-70.92293" />      <trkpt lat="42.47560" lon="-70.92312" />      <trkpt lat="42.47562" lon="-70.92352" />      <trkpt lat="42.47567" lon="-70.92541" />      <trkpt lat="42.47568" lon="-70.92561" />      <trkpt lat="42.47569" lon="-70.92607" />      <trkpt lat="42.47569" lon="-70.92620" />      <trkpt lat="42.47570" lon="-70.92643" />      <trkpt lat="42.47570" lon="-70.92658" />      <trkpt lat="42.47569" lon="-70.92678" />      <trkpt lat="42.47563" lon="-70.92700" />      <trkpt lat="42.47553" lon="-70.92714" />      <trkpt lat="42.47538" lon="-70.92739" />      <trkpt lat="42.47522" lon="-70.92765" />      <trkpt lat="42.47511" lon="-70.92782" />      <trkpt lat="42.47497" lon="-70.92806" />      <trkpt lat="42.47490" lon="-70.92816" />      <trkpt lat="42.47481" lon="-70.92832" />      <trkpt lat="42.47469" lon="-70.92850" />      <trkpt lat="42.47464" lon="-70.92858" />      <trkpt lat="42.47394" lon="-70.92973" />      <trkpt lat="42.47384" lon="-70.92989" />      <trkpt lat="42.47371" lon="-70.93010" />      <trkpt lat="42.47362" lon="-70.93026" />      <trkpt lat="42.47351" lon="-70.93044" />      <trkpt lat="42.47341" lon="-70.93064" />      <trkpt lat="42.47332" lon="-70.93081" />      <trkpt lat="42.47324" lon="-70.93098" />      <trkpt lat="42.47316" lon="-70.93115" />      <trkpt lat="42.47307" lon="-70.93137" />      <trkpt lat="42.47299" lon="-70.93159" />      <trkpt lat="42.47292" lon="-70.93178" />      <trkpt lat="42.47288" lon="-70.93190" />      <trkpt lat="42.47284" lon="-70.93202" />      <trkpt lat="42.47271" lon="-70.93239" />      <trkpt lat="42.47262" lon="-70.93266" />      <trkpt lat="42.47258" lon="-70.93281" />      <trkpt lat="42.47250" lon="-70.93300" />      <trkpt lat="42.47244" lon="-70.93317" />      <trkpt lat="42.47238" lon="-70.93331" />      <trkpt lat="42.47231" lon="-70.93344" />      <trkpt lat="42.47222" lon="-70.93361" />      <trkpt lat="42.47216" lon="-70.93372" />      <trkpt lat="42.47207" lon="-70.93390" />      <trkpt lat="42.47189" lon="-70.93428" />      <trkpt lat="42.47173" lon="-70.93459" />      <trkpt lat="42.47161" lon="-70.93483" />      <trkpt lat="42.47148" lon="-70.93509" />      <trkpt lat="42.47136" lon="-70.93532" />      <trkpt lat="42.47129" lon="-70.93546" />      <trkpt lat="42.47121" lon="-70.93562" />      <trkpt lat="42.47106" lon="-70.93591" />      <trkpt lat="42.47085" lon="-70.93632" />      <trkpt lat="42.47075" lon="-70.93651" />      <trkpt lat="42.47056" lon="-70.93695" />      <trkpt lat="42.47038" lon="-70.93789" />      <trkpt lat="42.47023" lon="-70.93859" />      <trkpt lat="42.47014" lon="-70.93897" />      <trkpt lat="42.47009" lon="-70.93919" />      <trkpt lat="42.46994" lon="-70.93987" />      <trkpt lat="42.46983" lon="-70.94029" />      <trkpt lat="42.46974" lon="-70.94058" />      <trkpt lat="42.46966" lon="-70.94078" />      <trkpt lat="42.46954" lon="-70.94104" />      <trkpt lat="42.46941" lon="-70.94122" />      <trkpt lat="42.46906" lon="-70.94170" />      <trkpt lat="42.46871" lon="-70.94214" />      <trkpt lat="42.46839" lon="-70.94256" />      <trkpt lat="42.46824" lon="-70.94276" />      <trkpt lat="42.46818" lon="-70.94285" />      <trkpt lat="42.46810" lon="-70.94297" />      <trkpt lat="42.46796" lon="-70.94317" />      <trkpt lat="42.46785" lon="-70.94334" />      <trkpt lat="42.46777" lon="-70.94348" />      <trkpt lat="42.46769" lon="-70.94364" />      <trkpt lat="42.46757" lon="-70.94389" />      <trkpt lat="42.46747" lon="-70.94410" />      <trkpt lat="42.46739" lon="-70.94431" />      <trkpt lat="42.46727" lon="-70.94466" />      <trkpt lat="42.46723" lon="-70.94476" />      <trkpt lat="42.46717" lon="-70.94494" />      <trkpt lat="42.46712" lon="-70.94511" />      <trkpt lat="42.46708" lon="-70.94522" />      <trkpt lat="42.46702" lon="-70.94535" />      <trkpt lat="42.46693" lon="-70.94552" />      <trkpt lat="42.46669" lon="-70.94596" />      <trkpt lat="42.46663" lon="-70.94606" />      <trkpt lat="42.46665" lon="-70.94619" />      <trkpt lat="42.46680" lon="-70.94706" />      <trkpt lat="42.46682" lon="-70.94719" />      <trkpt lat="42.46684" lon="-70.94733" />      <trkpt lat="42.46685" lon="-70.94748" />      <trkpt lat="42.46687" lon="-70.94760" />      <trkpt lat="42.46688" lon="-70.94777" />      <trkpt lat="42.46692" lon="-70.94835" />      <trkpt lat="42.46695" lon="-70.94877" />      <trkpt lat="42.46692" lon="-70.94902" />      <trkpt lat="42.46687" lon="-70.94918" />      <trkpt lat="42.46677" lon="-70.94928" />      <trkpt lat="42.46655" lon="-70.94941" />      <trkpt lat="42.46624" lon="-70.94961" />      <trkpt lat="42.46581" lon="-70.94989" />      <trkpt lat="42.46557" lon="-70.94942" />      <trkpt lat="42.46548" lon="-70.94925" />      <trkpt lat="42.46530" lon="-70.94890" />      <trkpt lat="42.46515" lon="-70.94860" />      <trkpt lat="42.46485" lon="-70.94803" />      <trkpt lat="42.46470" lon="-70.94774" />      <trkpt lat="42.46446" lon="-70.94727" />      <trkpt lat="42.46431" lon="-70.94742" />      <trkpt lat="42.46407" lon="-70.94766" />      <trkpt lat="42.46372" lon="-70.94800" />      <trkpt lat="42.46297" lon="-70.94872" />      <trkpt lat="42.46289" lon="-70.94879" />      <trkpt lat="42.46275" lon="-70.94854" />      <trkpt lat="42.46267" lon="-70.94863" />      <trkpt lat="42.46257" lon="-70.94875" />    </trkseg>  </trk></gpx>