<?xml version="1.0"?><gpx version="1.0" creator="cycle.travel"  xmlns:xsi="http://www.w3.org/2001/XMLSchema-instance"  xmlns="http://www.topografix.com/GPX/1/0"  xsi:schemaLocation="http://www.topografix.com/GPX/1/0 http://www.topografix.com/GPX/1/0/gpx.xsd">  <trk>    <name>Medford, Somerv</name>    <trkseg>      <trkpt lat="42.41713" lon="-71.10814" />      <trkpt lat="42.41725" lon="-71.10835" />      <trkpt lat="42.41731" lon="-71.10845" />      <trkpt lat="42.41737" lon="-71.10855" />      <trkpt lat="42.41746" lon="-71.10872" />      <trkpt lat="42.41755" lon="-71.10890" />      <trkpt lat="42.41762" lon="-71.10906" />      <trkpt lat="42.41766" lon="-71.10915" />      <trkpt lat="42.41804" lon="-71.10898" />      <trkpt lat="42.41812" lon="-71.10926" />      <trkpt lat="42.41817" lon="-71.10949" />      <trkpt lat="42.41823" lon="-71.10976" />      <trkpt lat="42.41806" lon="-71.10992" />      <trkpt lat="42.41772" lon="-71.11015" />      <trkpt lat="42.41746" lon="-71.11031" />      <trkpt lat="42.41736" lon="-71.11038" />      <trkpt lat="42.41728" lon="-71.11042" />      <trkpt lat="42.41719" lon="-71.11046" />      <trkpt lat="42.41709" lon="-71.11050" />      <trkpt lat="42.41697" lon="-71.11053" />      <trkpt lat="42.41686" lon="-71.11055" />      <trkpt lat="42.41665" lon="-71.11058" />      <trkpt lat="42.41650" lon="-71.11059" />      <trkpt lat="42.41631" lon="-71.11058" />      <trkpt lat="42.41617" lon="-71.11058" />      <trkpt lat="42.41563" lon="-71.11058" />      <trkpt lat="42.41549" lon="-71.11057" />      <trkpt lat="42.41533" lon="-71.11059" />      <trkpt lat="42.41522" lon="-71.11059" />      <trkpt lat="42.41508" lon="-71.11060" />      <trkpt lat="42.41499" lon="-71.11060" />      <trkpt lat="42.41477" lon="-71.11060" />      <trkpt lat="42.41465" lon="-71.11061" />      <trkpt lat="42.41444" lon="-71.11064" />      <trkpt lat="42.41423" lon="-71.11066" />      <trkpt lat="42.41391" lon="-71.11070" />      <trkpt lat="42.41364" lon="-71.11072" />      <trkpt lat="42.41356" lon="-71.11073" />      <trkpt lat="42.41347" lon="-71.11073" />      <trkpt lat="42.41327" lon="-71.11074" />      <trkpt lat="42.41298" lon="-71.11074" />      <trkpt lat="42.41266" lon="-71.11072" />      <trkpt lat="42.41236" lon="-71.11068" />      <trkpt lat="42.41206" lon="-71.11062" />      <trkpt lat="42.41181" lon="-71.11056" />      <trkpt lat="42.41154" lon="-71.11048" />      <trkpt lat="42.41119" lon="-71.11039" />      <trkpt lat="42.41076" lon="-71.11025" />      <trkpt lat="42.41062" lon="-71.11021" />      <trkpt lat="42.41031" lon="-71.11012" />      <trkpt lat="42.40990" lon="-71.10997" />      <trkpt lat="42.40975" lon="-71.10992" />      <trkpt lat="42.40935" lon="-71.10971" />      <trkpt lat="42.40925" lon="-71.10967" />      <trkpt lat="42.40918" lon="-71.10964" />      <trkpt lat="42.40859" lon="-71.10938" />      <trkpt lat="42.40812" lon="-71.10915" />      <trkpt lat="42.40754" lon="-71.10891" />      <trkpt lat="42.40722" lon="-71.10879" />      <trkpt lat="42.40690" lon="-71.10867" />      <trkpt lat="42.40637" lon="-71.10846" />      <trkpt lat="42.40627" lon="-71.10842" />      <trkpt lat="42.40587" lon="-71.10826" />      <trkpt lat="42.40569" lon="-71.10819" />      <trkpt lat="42.40520" lon="-71.10796" />      <trkpt lat="42.40505" lon="-71.10789" />      <trkpt lat="42.40456" lon="-71.10769" />      <trkpt lat="42.40439" lon="-71.10761" />      <trkpt lat="42.40428" lon="-71.10756" />      <trkpt lat="42.40397" lon="-71.10741" />      <trkpt lat="42.40384" lon="-71.10735" />      <trkpt lat="42.40361" lon="-71.10724" />      <trkpt lat="42.40352" lon="-71.10719" />      <trkpt lat="42.40342" lon="-71.10714" />      <trkpt lat="42.40309" lon="-71.10699" />      <trkpt lat="42.40293" lon="-71.10692" />      <trkpt lat="42.40276" lon="-71.10684" />      <trkpt lat="42.40265" lon="-71.10679" />      <trkpt lat="42.40242" lon="-71.10668" />      <trkpt lat="42.40220" lon="-71.10658" />      <trkpt lat="42.40206" lon="-71.10651" />      <trkpt lat="42.40174" lon="-71.10636" />      <trkpt lat="42.40163" lon="-71.10631" />      <trkpt lat="42.40152" lon="-71.10626" />      <trkpt lat="42.40107" lon="-71.10605" />      <trkpt lat="42.40053" lon="-71.10581" />      <trkpt lat="42.40002" lon="-71.10557" />      <trkpt lat="42.39957" lon="-71.10535" />      <trkpt lat="42.39912" lon="-71.10515" />      <trkpt lat="42.39904" lon="-71.10511" />      <trkpt lat="42.39868" lon="-71.10493" />      <trkpt lat="42.39850" lon="-71.10486" />      <trkpt lat="42.39822" lon="-71.10474" />      <trkpt lat="42.39779" lon="-71.10452" />      <trkpt lat="42.39763" lon="-71.10448" />      <trkpt lat="42.39753" lon="-71.10444" />      <trkpt lat="42.39745" lon="-71.10436" />      <trkpt lat="42.39736" lon="-71.10440" />      <trkpt lat="42.39727" lon="-71.10432" />      <trkpt lat="42.39710" lon="-71.10419" />      <trkpt lat="42.39683" lon="-71.10398" />      <trkpt lat="42.39647" lon="-71.10369" />      <trkpt lat="42.39639" lon="-71.10364" />      <trkpt lat="42.39571" lon="-71.10311" />      <trkpt lat="42.39564" lon="-71.10305" />      <trkpt lat="42.39514" lon="-71.10267" />      <trkpt lat="42.39470" lon="-71.10231" />      <trkpt lat="42.39440" lon="-71.10207" />      <trkpt lat="42.39413" lon="-71.10186" />      <trkpt lat="42.39351" lon="-71.10230" />      <trkpt lat="42.39306" lon="-71.10190" />      <trkpt lat="42.39262" lon="-71.10156" />      <trkpt lat="42.39205" lon="-71.10118" />      <trkpt lat="42.39192" lon="-71.10098" />      <trkpt lat="42.39182" lon="-71.10104" />      <trkpt lat="42.39163" lon="-71.10117" />      <trkpt lat="42.39131" lon="-71.10139" />      <trkpt lat="42.39115" lon="-71.10151" />      <trkpt lat="42.39107" lon="-71.10156" />      <trkpt lat="42.39083" lon="-71.10173" />      <trkpt lat="42.39065" lon="-71.10186" />      <trkpt lat="42.39050" lon="-71.10197" />      <trkpt lat="42.39027" lon="-71.10214" />      <trkpt lat="42.39014" lon="-71.10222" />      <trkpt lat="42.38993" lon="-71.10239" />      <trkpt lat="42.38978" lon="-71.10249" />      <trkpt lat="42.38970" lon="-71.10254" />      <trkpt lat="42.38925" lon="-71.10284" />      <trkpt lat="42.38907" lon="-71.10295" />      <trkpt lat="42.38899" lon="-71.10301" />      <trkpt lat="42.38843" lon="-71.10342" />      <trkpt lat="42.38838" lon="-71.10351" />      <trkpt lat="42.38807" lon="-71.10373" />      <trkpt lat="42.38789" lon="-71.10385" />      <trkpt lat="42.38764" lon="-71.10403" />      <trkpt lat="42.38735" lon="-71.10424" />      <trkpt lat="42.38707" lon="-71.10443" />      <trkpt lat="42.38679" lon="-71.10462" />      <trkpt lat="42.38659" lon="-71.10476" />      <trkpt lat="42.38609" lon="-71.10512" />      <trkpt lat="42.38604" lon="-71.10510" />      <trkpt lat="42.38576" lon="-71.10432" />      <trkpt lat="42.38553" lon="-71.10365" />      <trkpt lat="42.38513" lon="-71.10394" />      <trkpt lat="42.38472" lon="-71.10422" />      <trkpt lat="42.38424" lon="-71.10455" />      <trkpt lat="42.38400" lon="-71.10473" />      <trkpt lat="42.38366" lon="-71.10498" />      <trkpt lat="42.38343" lon="-71.10514" />      <trkpt lat="42.38308" lon="-71.10537" />      <trkpt lat="42.38300" lon="-71.10543" />      <trkpt lat="42.38308" lon="-71.10577" />      <trkpt lat="42.38314" lon="-71.10604" />      <trkpt lat="42.38316" lon="-71.10616" />      <trkpt lat="42.38320" lon="-71.10631" />      <trkpt lat="42.38307" lon="-71.10637" />      <trkpt lat="42.38286" lon="-71.10647" />      <trkpt lat="42.38277" lon="-71.10652" />      <trkpt lat="42.38255" lon="-71.10662" />      <trkpt lat="42.38242" lon="-71.10667" />      <trkpt lat="42.38229" lon="-71.10674" />      <trkpt lat="42.38204" lon="-71.10686" />      <trkpt lat="42.38178" lon="-71.10699" />      <trkpt lat="42.38162" lon="-71.10707" />      <trkpt lat="42.38149" lon="-71.10714" />      <trkpt lat="42.38136" lon="-71.10723" />      <trkpt lat="42.38124" lon="-71.10734" />      <trkpt lat="42.38099" lon="-71.10763" />      <trkpt lat="42.38083" lon="-71.10784" />      <trkpt lat="42.38054" lon="-71.10823" />      <trkpt lat="42.38037" lon="-71.10847" />      <trkpt lat="42.38026" lon="-71.10862" />      <trkpt lat="42.38019" lon="-71.10873" />      <trkpt lat="42.38009" lon="-71.10887" />      <trkpt lat="42.37967" lon="-71.10945" />      <trkpt lat="42.37953" lon="-71.10961" />      <trkpt lat="42.37935" lon="-71.10981" />      <trkpt lat="42.37913" lon="-71.11001" />      <trkpt lat="42.37892" lon="-71.11022" />      <trkpt lat="42.37869" lon="-71.11039" />      <trkpt lat="42.37844" lon="-71.11056" />      <trkpt lat="42.37828" lon="-71.11061" />      <trkpt lat="42.37801" lon="-71.11074" />      <trkpt lat="42.37788" lon="-71.11075" />      <trkpt lat="42.37774" lon="-71.11073" />      <trkpt lat="42.37748" lon="-71.11063" />      <trkpt lat="42.37738" lon="-71.11059" />      <trkpt lat="42.37736" lon="-71.11070" />      <trkpt lat="42.37730" lon="-71.11099" />      <trkpt lat="42.37717" lon="-71.11158" />      <trkpt lat="42.37706" lon="-71.11212" />      <trkpt lat="42.37701" lon="-71.11234" />      <trkpt lat="42.37695" lon="-71.11266" />      <trkpt lat="42.37687" lon="-71.11301" />      <trkpt lat="42.37670" lon="-71.11381" />      <trkpt lat="42.37667" lon="-71.11396" />      <trkpt lat="42.37665" lon="-71.11409" />      <trkpt lat="42.37655" lon="-71.11411" />      <trkpt lat="42.37634" lon="-71.11415" />      <trkpt lat="42.37606" lon="-71.11421" />      <trkpt lat="42.37586" lon="-71.11426" />      <trkpt lat="42.37573" lon="-71.11434" />      <trkpt lat="42.37563" lon="-71.11447" />      <trkpt lat="42.37552" lon="-71.11442" />      <trkpt lat="42.37539" lon="-71.11431" />      <trkpt lat="42.37503" lon="-71.11441" />      <trkpt lat="42.37492" lon="-71.11439" />      <trkpt lat="42.37483" lon="-71.11444" />      <trkpt lat="42.37469" lon="-71.11451" />      <trkpt lat="42.37291" lon="-71.11497" />      <trkpt lat="42.37279" lon="-71.11500" />      <trkpt lat="42.37231" lon="-71.11515" />      <trkpt lat="42.37223" lon="-71.11487" />      <trkpt lat="42.37205" lon="-71.11423" />      <trkpt lat="42.37200" lon="-71.11404" />      <trkpt lat="42.37194" lon="-71.11379" />      <trkpt lat="42.37185" lon="-71.11345" />      <trkpt lat="42.37175" lon="-71.11306" />      <trkpt lat="42.37169" lon="-71.11285" />      <trkpt lat="42.37148" lon="-71.11210" />      <trkpt lat="42.37144" lon="-71.11195" />      <trkpt lat="42.37116" lon="-71.11086" />      <trkpt lat="42.37111" lon="-71.11072" />      <trkpt lat="42.37097" lon="-71.11019" />      <trkpt lat="42.37083" lon="-71.10968" />      <trkpt lat="42.37080" lon="-71.10956" />      <trkpt lat="42.37047" lon="-71.10837" />      <trkpt lat="42.37007" lon="-71.10696" />      <trkpt lat="42.37003" lon="-71.10682" />      <trkpt lat="42.36977" lon="-71.10593" />      <trkpt lat="42.36973" lon="-71.10580" />      <trkpt lat="42.36946" lon="-71.10504" />      <trkpt lat="42.36933" lon="-71.10468" />      <trkpt lat="42.36918" lon="-71.10424" />      <trkpt lat="42.36900" lon="-71.10372" />      <trkpt lat="42.36896" lon="-71.10362" />      <trkpt lat="42.36886" lon="-71.10333" />      <trkpt lat="42.36877" lon="-71.10308" />      <trkpt lat="42.36863" lon="-71.10268" />      <trkpt lat="42.36830" lon="-71.10175" />      <trkpt lat="42.36812" lon="-71.10122" />      <trkpt lat="42.36799" lon="-71.10086" />      <trkpt lat="42.36794" lon="-71.10072" />      <trkpt lat="42.36785" lon="-71.10047" />      <trkpt lat="42.36759" lon="-71.09971" />      <trkpt lat="42.36755" lon="-71.09959" />      <trkpt lat="42.36728" lon="-71.09874" />      <trkpt lat="42.36701" lon="-71.09791" />      <trkpt lat="42.36698" lon="-71.09779" />      <trkpt lat="42.36682" lon="-71.09730" />      <trkpt lat="42.36665" lon="-71.09686" />      <trkpt lat="42.36653" lon="-71.09657" />      <trkpt lat="42.36623" lon="-71.09584" />      <trkpt lat="42.36617" lon="-71.09570" />      <trkpt lat="42.36613" lon="-71.09559" />      <trkpt lat="42.36605" lon="-71.09539" />      <trkpt lat="42.36591" lon="-71.09506" />      <trkpt lat="42.36583" lon="-71.09487" />      <trkpt lat="42.36575" lon="-71.09468" />      <trkpt lat="42.36552" lon="-71.09413" />      <trkpt lat="42.36531" lon="-71.09363" />      <trkpt lat="42.36527" lon="-71.09353" />      <trkpt lat="42.36517" lon="-71.09330" />      <trkpt lat="42.36498" lon="-71.09288" />      <trkpt lat="42.36486" lon="-71.09262" />      <trkpt lat="42.36515" lon="-71.09246" />      <trkpt lat="42.36573" lon="-71.09212" />      <trkpt lat="42.36588" lon="-71.09203" />      <trkpt lat="42.36604" lon="-71.09193" />      <trkpt lat="42.36617" lon="-71.09186" />      <trkpt lat="42.36630" lon="-71.09178" />      <trkpt lat="42.36644" lon="-71.09170" />      <trkpt lat="42.36665" lon="-71.09158" />      <trkpt lat="42.36673" lon="-71.09153" />      <trkpt lat="42.36725" lon="-71.09124" />      <trkpt lat="42.36750" lon="-71.09109" />      <trkpt lat="42.36768" lon="-71.09099" />      <trkpt lat="42.36781" lon="-71.09092" />      <trkpt lat="42.36805" lon="-71.09078" />      <trkpt lat="42.36838" lon="-71.09059" />      <trkpt lat="42.36881" lon="-71.09035" />      <trkpt lat="42.36907" lon="-71.09020" />      <trkpt lat="42.36918" lon="-71.09014" />      <trkpt lat="42.36968" lon="-71.08985" />      <trkpt lat="42.36976" lon="-71.08981" />      <trkpt lat="42.37031" lon="-71.08949" />      <trkpt lat="42.37077" lon="-71.08923" />      <trkpt lat="42.37095" lon="-71.08912" />      <trkpt lat="42.37110" lon="-71.08904" />      <trkpt lat="42.37128" lon="-71.08894" />      <trkpt lat="42.37203" lon="-71.08851" />      <trkpt lat="42.37213" lon="-71.08845" />      <trkpt lat="42.37211" lon="-71.08828" />      <trkpt lat="42.37244" lon="-71.08820" />      <trkpt lat="42.37299" lon="-71.08806" />      <trkpt lat="42.37344" lon="-71.08794" />      <trkpt lat="42.37361" lon="-71.08790" />      <trkpt lat="42.37373" lon="-71.08773" />      <trkpt lat="42.37379" lon="-71.08764" />      <trkpt lat="42.37385" lon="-71.08772" />      <trkpt lat="42.37395" lon="-71.08784" />      <trkpt lat="42.37402" lon="-71.08794" />      <trkpt lat="42.37416" lon="-71.08806" />      <trkpt lat="42.37435" lon="-71.08815" />      <trkpt lat="42.37479" lon="-71.08833" />      <trkpt lat="42.37488" lon="-71.08837" />      <trkpt lat="42.37628" lon="-71.08899" />      <trkpt lat="42.37643" lon="-71.08904" />      <trkpt lat="42.37682" lon="-71.08913" />      <trkpt lat="42.37699" lon="-71.08898" />      <trkpt lat="42.37709" lon="-71.08889" />      <trkpt lat="42.37726" lon="-71.08874" />      <trkpt lat="42.37733" lon="-71.08868" />      <trkpt lat="42.37745" lon="-71.08874" />      <trkpt lat="42.37755" lon="-71.08879" />      <trkpt lat="42.37769" lon="-71.08885" />      <trkpt lat="42.37780" lon="-71.08889" />      <trkpt lat="42.37828" lon="-71.08900" />      <trkpt lat="42.37922" lon="-71.08923" />      <trkpt lat="42.37941" lon="-71.08928" />      <trkpt lat="42.37949" lon="-71.08930" />      <trkpt lat="42.37964" lon="-71.08934" />      <trkpt lat="42.37979" lon="-71.08937" />      <trkpt lat="42.37992" lon="-71.08937" />      <trkpt lat="42.38006" lon="-71.08933" />      <trkpt lat="42.38015" lon="-71.08930" />      <trkpt lat="42.38026" lon="-71.08930" />      <trkpt lat="42.38033" lon="-71.08934" />      <trkpt lat="42.38043" lon="-71.08941" />      <trkpt lat="42.38051" lon="-71.08947" />      <trkpt lat="42.38064" lon="-71.08957" />      <trkpt lat="42.38074" lon="-71.08963" />      <trkpt lat="42.38083" lon="-71.08969" />      <trkpt lat="42.38091" lon="-71.08972" />      <trkpt lat="42.38112" lon="-71.08978" />      <trkpt lat="42.38127" lon="-71.08983" />      <trkpt lat="42.38135" lon="-71.08985" />      <trkpt lat="42.38144" lon="-71.08988" />      <trkpt lat="42.38153" lon="-71.08992" />      <trkpt lat="42.38166" lon="-71.08998" />      <trkpt lat="42.38177" lon="-71.09004" />      <trkpt lat="42.38194" lon="-71.09015" />      <trkpt lat="42.38210" lon="-71.09027" />      <trkpt lat="42.38223" lon="-71.09039" />      <trkpt lat="42.38244" lon="-71.09059" />      <trkpt lat="42.38271" lon="-71.09088" />      <trkpt lat="42.38302" lon="-71.09108" />      <trkpt lat="42.38327" lon="-71.09123" />      <trkpt lat="42.38342" lon="-71.09130" />      <trkpt lat="42.38354" lon="-71.09133" />      <trkpt lat="42.38364" lon="-71.09135" />      <trkpt lat="42.38373" lon="-71.09135" />      <trkpt lat="42.38384" lon="-71.09133" />      <trkpt lat="42.38395" lon="-71.09131" />      <trkpt lat="42.38446" lon="-71.09119" />      <trkpt lat="42.38493" lon="-71.09105" />      <trkpt lat="42.38503" lon="-71.09102" />      <trkpt lat="42.38514" lon="-71.09099" />      <trkpt lat="42.38525" lon="-71.09095" />      <trkpt lat="42.38535" lon="-71.09092" />      <trkpt lat="42.38545" lon="-71.09088" />      <trkpt lat="42.38587" lon="-71.09072" />      <trkpt lat="42.38614" lon="-71.09062" />      <trkpt lat="42.38643" lon="-71.09051" />      <trkpt lat="42.38652" lon="-71.09047" />      <trkpt lat="42.38668" lon="-71.09040" />      <trkpt lat="42.38695" lon="-71.09026" />      <trkpt lat="42.38734" lon="-71.09004" />      <trkpt lat="42.38761" lon="-71.08987" />      <trkpt lat="42.38793" lon="-71.08968" />      <trkpt lat="42.38809" lon="-71.08958" />      <trkpt lat="42.38817" lon="-71.08953" />      <trkpt lat="42.38833" lon="-71.08942" />      <trkpt lat="42.38848" lon="-71.08931" />      <trkpt lat="42.38862" lon="-71.08920" />      <trkpt lat="42.38876" lon="-71.08907" />      <trkpt lat="42.38890" lon="-71.08893" />      <trkpt lat="42.38905" lon="-71.08878" />      <trkpt lat="42.38951" lon="-71.08831" />      <trkpt lat="42.38962" lon="-71.08820" />      <trkpt lat="42.38980" lon="-71.08802" />      <trkpt lat="42.38996" lon="-71.08786" />      <trkpt lat="42.39017" lon="-71.08765" />      <trkpt lat="42.39032" lon="-71.08751" />      <trkpt lat="42.39047" lon="-71.08737" />      <trkpt lat="42.39060" lon="-71.08725" />      <trkpt lat="42.39067" lon="-71.08719" />      <trkpt lat="42.39074" lon="-71.08712" />      <trkpt lat="42.39088" lon="-71.08698" />      <trkpt lat="42.39097" lon="-71.08689" />      <trkpt lat="42.39107" lon="-71.08679" />      <trkpt lat="42.39132" lon="-71.08654" />      <trkpt lat="42.39147" lon="-71.08641" />      <trkpt lat="42.39160" lon="-71.08631" />      <trkpt lat="42.39174" lon="-71.08621" />      <trkpt lat="42.39188" lon="-71.08612" />      <trkpt lat="42.39204" lon="-71.08603" />      <trkpt lat="42.39219" lon="-71.08596" />      <trkpt lat="42.39229" lon="-71.08592" />      <trkpt lat="42.39242" lon="-71.08588" />      <trkpt lat="42.39250" lon="-71.08585" />      <trkpt lat="42.39273" lon="-71.08579" />      <trkpt lat="42.39397" lon="-71.08553" />      <trkpt lat="42.39435" lon="-71.08546" />      <trkpt lat="42.39456" lon="-71.08541" />      <trkpt lat="42.39466" lon="-71.08538" />      <trkpt lat="42.39477" lon="-71.08535" />      <trkpt lat="42.39487" lon="-71.08532" />      <trkpt lat="42.39523" lon="-71.08518" />      <trkpt lat="42.39538" lon="-71.08512" />      <trkpt lat="42.39557" lon="-71.08503" />      <trkpt lat="42.39573" lon="-71.08496" />      <trkpt lat="42.39600" lon="-71.08486" />      <trkpt lat="42.39608" lon="-71.08483" />      <trkpt lat="42.39654" lon="-71.08466" />      <trkpt lat="42.39662" lon="-71.08463" />      <trkpt lat="42.39699" lon="-71.08449" />      <trkpt lat="42.39714" lon="-71.08444" />      <trkpt lat="42.39730" lon="-71.08432" />      <trkpt lat="42.39741" lon="-71.08416" />      <trkpt lat="42.39759" lon="-71.08416" />      <trkpt lat="42.39770" lon="-71.08413" />      <trkpt lat="42.39773" lon="-71.08425" />      <trkpt lat="42.39777" lon="-71.08437" />      <trkpt lat="42.39781" lon="-71.08450" />      <trkpt lat="42.39784" lon="-71.08459" />      <trkpt lat="42.39816" lon="-71.08448" />      <trkpt lat="42.39826" lon="-71.08448" />      <trkpt lat="42.39836" lon="-71.08451" />      <trkpt lat="42.39842" lon="-71.08441" />      <trkpt lat="42.39850" lon="-71.08431" />      <trkpt lat="42.39864" lon="-71.08422" />      <trkpt lat="42.39872" lon="-71.08419" />      <trkpt lat="42.39883" lon="-71.08416" />      <trkpt lat="42.40056" lon="-71.08353" />      <trkpt lat="42.40076" lon="-71.08346" />      <trkpt lat="42.40094" lon="-71.08339" />      <trkpt lat="42.40106" lon="-71.08335" />      <trkpt lat="42.40117" lon="-71.08334" />      <trkpt lat="42.40140" lon="-71.08326" />      <trkpt lat="42.40165" lon="-71.08316" />      <trkpt lat="42.40182" lon="-71.08308" />      <trkpt lat="42.40215" lon="-71.08296" />      <trkpt lat="42.40243" lon="-71.08286" />      <trkpt lat="42.40260" lon="-71.08280" />      <trkpt lat="42.40281" lon="-71.08272" />      <trkpt lat="42.40305" lon="-71.08263" />      <trkpt lat="42.40314" lon="-71.08260" />      <trkpt lat="42.40324" lon="-71.08257" />      <trkpt lat="42.40332" lon="-71.08255" />      <trkpt lat="42.40344" lon="-71.08254" />      <trkpt lat="42.40354" lon="-71.08254" />      <trkpt lat="42.40366" lon="-71.08255" />      <trkpt lat="42.40379" lon="-71.08256" />      <trkpt lat="42.40392" lon="-71.08260" />      <trkpt lat="42.40407" lon="-71.08264" />      <trkpt lat="42.40423" lon="-71.08269" />      <trkpt lat="42.40430" lon="-71.08274" />      <trkpt lat="42.40438" lon="-71.08279" />      <trkpt lat="42.40449" lon="-71.08290" />      <trkpt lat="42.40464" lon="-71.08309" />      <trkpt lat="42.40471" lon="-71.08328" />      <trkpt lat="42.40476" lon="-71.08360" />      <trkpt lat="42.40479" lon="-71.08371" />      <trkpt lat="42.40481" lon="-71.08382" />      <trkpt lat="42.40479" lon="-71.08393" />      <trkpt lat="42.40478" lon="-71.08404" />      <trkpt lat="42.40476" lon="-71.08428" />      <trkpt lat="42.40472" lon="-71.08458" />      <trkpt lat="42.40467" lon="-71.08478" />      <trkpt lat="42.40464" lon="-71.08492" />      <trkpt lat="42.40459" lon="-71.08507" />      <trkpt lat="42.40454" lon="-71.08523" />      <trkpt lat="42.40448" lon="-71.08540" />      <trkpt lat="42.40443" lon="-71.08554" />      <trkpt lat="42.40426" lon="-71.08603" />      <trkpt lat="42.40418" lon="-71.08630" />      <trkpt lat="42.40414" lon="-71.08628" />      <trkpt lat="42.40409" lon="-71.08638" />      <trkpt lat="42.40402" lon="-71.08646" />      <trkpt lat="42.40396" lon="-71.08657" />      <trkpt lat="42.40392" lon="-71.08680" />      <trkpt lat="42.40389" lon="-71.08690" />      <trkpt lat="42.40380" lon="-71.08708" />      <trkpt lat="42.40369" lon="-71.08726" />      <trkpt lat="42.40357" lon="-71.08745" />      <trkpt lat="42.40350" lon="-71.08759" />      <trkpt lat="42.40344" lon="-71.08774" />      <trkpt lat="42.40332" lon="-71.08804" />      <trkpt lat="42.40329" lon="-71.08815" />      <trkpt lat="42.40326" lon="-71.08839" />      <trkpt lat="42.40325" lon="-71.08857" />      <trkpt lat="42.40325" lon="-71.08875" />      <trkpt lat="42.40323" lon="-71.08890" />      <trkpt lat="42.40321" lon="-71.08910" />      <trkpt lat="42.40322" lon="-71.08931" />      <trkpt lat="42.40324" lon="-71.08941" />      <trkpt lat="42.40329" lon="-71.08955" />      <trkpt lat="42.40338" lon="-71.08965" />      <trkpt lat="42.40345" lon="-71.08974" />      <trkpt lat="42.40353" lon="-71.08985" />      <trkpt lat="42.40366" lon="-71.09000" />      <trkpt lat="42.40367" lon="-71.09013" />      <trkpt lat="42.40369" lon="-71.09032" />      <trkpt lat="42.40370" lon="-71.09054" />      <trkpt lat="42.40373" lon="-71.09086" />      <trkpt lat="42.40374" lon="-71.09104" />      <trkpt lat="42.40376" lon="-71.09120" />      <trkpt lat="42.40383" lon="-71.09145" />      <trkpt lat="42.40389" lon="-71.09169" />      <trkpt lat="42.40399" lon="-71.09190" />      <trkpt lat="42.40418" lon="-71.09201" />      <trkpt lat="42.40430" lon="-71.09206" />      <trkpt lat="42.40441" lon="-71.09211" />      <trkpt lat="42.40450" lon="-71.09213" />      <trkpt lat="42.40459" lon="-71.09215" />      <trkpt lat="42.40467" lon="-71.09219" />      <trkpt lat="42.40478" lon="-71.09245" />      <trkpt lat="42.40487" lon="-71.09266" />      <trkpt lat="42.40498" lon="-71.09294" />      <trkpt lat="42.40519" lon="-71.09342" />      <trkpt lat="42.40535" lon="-71.09380" />      <trkpt lat="42.40546" lon="-71.09404" />      <trkpt lat="42.40559" lon="-71.09439" />      <trkpt lat="42.40564" lon="-71.09458" />      <trkpt lat="42.40569" lon="-71.09476" />      <trkpt lat="42.40564" lon="-71.09495" />      <trkpt lat="42.40562" lon="-71.09507" />      <trkpt lat="42.40559" lon="-71.09528" />      <trkpt lat="42.40559" lon="-71.09540" />      <trkpt lat="42.40561" lon="-71.09557" />      <trkpt lat="42.40572" lon="-71.09580" />      <trkpt lat="42.40606" lon="-71.09622" />      <trkpt lat="42.40612" lon="-71.09629" />      <trkpt lat="42.40621" lon="-71.09634" />      <trkpt lat="42.40636" lon="-71.09634" />      <trkpt lat="42.40644" lon="-71.09632" />      <trkpt lat="42.40658" lon="-71.09628" />      <trkpt lat="42.40670" lon="-71.09628" />      <trkpt lat="42.40682" lon="-71.09634" />      <trkpt lat="42.40689" lon="-71.09643" />      <trkpt lat="42.40694" lon="-71.09656" />      <trkpt lat="42.40697" lon="-71.09667" />      <trkpt lat="42.40701" lon="-71.09683" />      <trkpt lat="42.40705" lon="-71.09695" />      <trkpt lat="42.40711" lon="-71.09707" />      <trkpt lat="42.40717" lon="-71.09719" />      <trkpt lat="42.40726" lon="-71.09740" />      <trkpt lat="42.40731" lon="-71.09752" />      <trkpt lat="42.40737" lon="-71.09771" />      <trkpt lat="42.40743" lon="-71.09788" />      <trkpt lat="42.40747" lon="-71.09798" />      <trkpt lat="42.40754" lon="-71.09819" />      <trkpt lat="42.40765" lon="-71.09840" />      <trkpt lat="42.40770" lon="-71.09852" />      <trkpt lat="42.40780" lon="-71.09865" />      <trkpt lat="42.40789" lon="-71.09877" />      <trkpt lat="42.40812" lon="-71.09900" />      <trkpt lat="42.40831" lon="-71.09913" />      <trkpt lat="42.40843" lon="-71.09926" />      <trkpt lat="42.40847" lon="-71.09937" />      <trkpt lat="42.40855" lon="-71.09950" />      <trkpt lat="42.40863" lon="-71.09959" />      <trkpt lat="42.40875" lon="-71.09965" />      <trkpt lat="42.40886" lon="-71.09968" />      <trkpt lat="42.40895" lon="-71.09970" />      <trkpt lat="42.40902" lon="-71.09974" />      <trkpt lat="42.40909" lon="-71.09984" />      <trkpt lat="42.40922" lon="-71.09992" />      <trkpt lat="42.40936" lon="-71.10000" />      <trkpt lat="42.40953" lon="-71.10009" />      <trkpt lat="42.40976" lon="-71.10018" />      <trkpt lat="42.40986" lon="-71.10022" />      <trkpt lat="42.41000" lon="-71.10024" />      <trkpt lat="42.41010" lon="-71.10025" />      <trkpt lat="42.41025" lon="-71.10024" />      <trkpt lat="42.41041" lon="-71.10022" />      <trkpt lat="42.41052" lon="-71.10019" />      <trkpt lat="42.41066" lon="-71.10016" />      <trkpt lat="42.41080" lon="-71.10016" />      <trkpt lat="42.41093" lon="-71.10016" />      <trkpt lat="42.41101" lon="-71.10018" />      <trkpt lat="42.41112" lon="-71.10018" />      <trkpt lat="42.41123" lon="-71.10019" />      <trkpt lat="42.41135" lon="-71.10016" />      <trkpt lat="42.41146" lon="-71.10013" />      <trkpt lat="42.41157" lon="-71.10009" />      <trkpt lat="42.41165" lon="-71.10006" />      <trkpt lat="42.41176" lon="-71.10005" />      <trkpt lat="42.41186" lon="-71.10006" />      <trkpt lat="42.41200" lon="-71.10014" />      <trkpt lat="42.41212" lon="-71.10016" />      <trkpt lat="42.41222" lon="-71.10005" />      <trkpt lat="42.41229" lon="-71.09985" />      <trkpt lat="42.41228" lon="-71.09970" />      <trkpt lat="42.41227" lon="-71.09951" />      <trkpt lat="42.41225" lon="-71.09933" />      <trkpt lat="42.41225" lon="-71.09919" />      <trkpt lat="42.41229" lon="-71.09904" />      <trkpt lat="42.41235" lon="-71.09886" />      <trkpt lat="42.41239" lon="-71.09870" />      <trkpt lat="42.41235" lon="-71.09854" />      <trkpt lat="42.41246" lon="-71.09841" />      <trkpt lat="42.41254" lon="-71.09837" />      <trkpt lat="42.41261" lon="-71.09833" />      <trkpt lat="42.41270" lon="-71.09817" />      <trkpt lat="42.41273" lon="-71.09800" />      <trkpt lat="42.41280" lon="-71.09788" />      <trkpt lat="42.41289" lon="-71.09784" />      <trkpt lat="42.41296" lon="-71.09779" />      <trkpt lat="42.41306" lon="-71.09771" />      <trkpt lat="42.41320" lon="-71.09764" />      <trkpt lat="42.41327" lon="-71.09778" />      <trkpt lat="42.41343" lon="-71.09815" />      <trkpt lat="42.41357" lon="-71.09846" />      <trkpt lat="42.41386" lon="-71.09907" />      <trkpt lat="42.41427" lon="-71.09991" />      <trkpt lat="42.41449" lon="-71.10039" />      <trkpt lat="42.41477" lon="-71.10096" />      <trkpt lat="42.41522" lon="-71.10174" />      <trkpt lat="42.41546" lon="-71.10218" />      <trkpt lat="42.41573" lon="-71.10268" />      <trkpt lat="42.41587" lon="-71.10298" />      <trkpt lat="42.41596" lon="-71.10317" />      <trkpt lat="42.41603" lon="-71.10333" />      <trkpt lat="42.41619" lon="-71.10369" />      <trkpt lat="42.41631" lon="-71.10398" />      <trkpt lat="42.41644" lon="-71.10431" />      <trkpt lat="42.41660" lon="-71.10473" />      <trkpt lat="42.41668" lon="-71.10496" />      <trkpt lat="42.41681" lon="-71.10529" />      <trkpt lat="42.41696" lon="-71.10574" />      <trkpt lat="42.41700" lon="-71.10584" />      <trkpt lat="42.41693" lon="-71.10591" />      <trkpt lat="42.41682" lon="-71.10599" />      <trkpt lat="42.41668" lon="-71.10611" />      <trkpt lat="42.41650" lon="-71.10626" />      <trkpt lat="42.41641" lon="-71.10642" />      <trkpt lat="42.41636" lon="-71.10657" />      <trkpt lat="42.41634" lon="-71.10677" />      <trkpt lat="42.41636" lon="-71.10693" />      <trkpt lat="42.41642" lon="-71.10711" />      <trkpt lat="42.41649" lon="-71.10732" />      <trkpt lat="42.41657" lon="-71.10751" />      <trkpt lat="42.41661" lon="-71.10762" />      <trkpt lat="42.41673" lon="-71.10753" />      <trkpt lat="42.41681" lon="-71.10769" />      <trkpt lat="42.41690" lon="-71.10782" />      <trkpt lat="42.41704" lon="-71.10801" />    </trkseg>  </trk></gpx>