<?xml version="1.0"?><gpx version="1.0" creator="cycle.travel"  xmlns:xsi="http://www.w3.org/2001/XMLSchema-instance"  xmlns="http://www.topografix.com/GPX/1/0"  xsi:schemaLocation="http://www.topografix.com/GPX/1/0 http://www.topografix.com/GPX/1/0/gpx.xsd">  <trk>    <name>North Reading +</name>    <trkseg>      <trkpt lat="42.50688" lon="-71.07841"><ele>24</ele></trkpt>      <trkpt lat="42.50692" lon="-71.07827"><ele>24</ele></trkpt>      <trkpt lat="42.50698" lon="-71.07824"><ele>24</ele></trkpt>      <trkpt lat="42.50694" lon="-71.07813"><ele>24</ele></trkpt>      <trkpt lat="42.50683" lon="-71.07806"><ele>24</ele></trkpt>      <trkpt lat="42.50678" lon="-71.07794"><ele>24</ele></trkpt>      <trkpt lat="42.50672" lon="-71.07781"><ele>24</ele></trkpt>      <trkpt lat="42.50668" lon="-71.07771"><ele>24</ele></trkpt>      <trkpt lat="42.50660" lon="-71.07756"><ele>24</ele></trkpt>      <trkpt lat="42.50654" lon="-71.07744"><ele>24</ele></trkpt>      <trkpt lat="42.50648" lon="-71.07729"><ele>24</ele></trkpt>      <trkpt lat="42.50640" lon="-71.07703"><ele>25</ele></trkpt>      <trkpt lat="42.50633" lon="-71.07688"><ele>25</ele></trkpt>      <trkpt lat="42.50628" lon="-71.07679"><ele>25</ele></trkpt>      <trkpt lat="42.50619" lon="-71.07653"><ele>26</ele></trkpt>      <trkpt lat="42.50617" lon="-71.07626"><ele>27</ele></trkpt>      <trkpt lat="42.50617" lon="-71.07612"><ele>28</ele></trkpt>      <trkpt lat="42.50616" lon="-71.07596"><ele>28</ele></trkpt>      <trkpt lat="42.50621" lon="-71.07581"><ele>28</ele></trkpt>      <trkpt lat="42.50630" lon="-71.07560"><ele>28</ele></trkpt>      <trkpt lat="42.50641" lon="-71.07545"><ele>28</ele></trkpt>      <trkpt lat="42.50648" lon="-71.07535"><ele>28</ele></trkpt>      <trkpt lat="42.50652" lon="-71.07525"><ele>28</ele></trkpt>      <trkpt lat="42.50660" lon="-71.07509"><ele>28</ele></trkpt>      <trkpt lat="42.50666" lon="-71.07496"><ele>28</ele></trkpt>      <trkpt lat="42.50674" lon="-71.07476"><ele>28</ele></trkpt>      <trkpt lat="42.50679" lon="-71.07461"><ele>28</ele></trkpt>      <trkpt lat="42.50683" lon="-71.07450"><ele>29</ele></trkpt>      <trkpt lat="42.50689" lon="-71.07434"><ele>29</ele></trkpt>      <trkpt lat="42.50697" lon="-71.07411"><ele>28</ele></trkpt>      <trkpt lat="42.50689" lon="-71.07391"><ele>28</ele></trkpt>      <trkpt lat="42.50693" lon="-71.07375"><ele>28</ele></trkpt>      <trkpt lat="42.50695" lon="-71.07361"><ele>28</ele></trkpt>      <trkpt lat="42.50699" lon="-71.07341"><ele>28</ele></trkpt>      <trkpt lat="42.50702" lon="-71.07327"><ele>28</ele></trkpt>      <trkpt lat="42.50705" lon="-71.07311"><ele>28</ele></trkpt>      <trkpt lat="42.50709" lon="-71.07297"><ele>28</ele></trkpt>      <trkpt lat="42.50714" lon="-71.07278"><ele>28</ele></trkpt>      <trkpt lat="42.50717" lon="-71.07266"><ele>28</ele></trkpt>      <trkpt lat="42.50721" lon="-71.07255"><ele>28</ele></trkpt>      <trkpt lat="42.50726" lon="-71.07243"><ele>28</ele></trkpt>      <trkpt lat="42.50732" lon="-71.07229"><ele>28</ele></trkpt>      <trkpt lat="42.50753" lon="-71.07187"><ele>28</ele></trkpt>      <trkpt lat="42.50772" lon="-71.07152"><ele>28</ele></trkpt>      <trkpt lat="42.50781" lon="-71.07138"><ele>28</ele></trkpt>      <trkpt lat="42.50795" lon="-71.07124"><ele>28</ele></trkpt>      <trkpt lat="42.50814" lon="-71.07120"><ele>28</ele></trkpt>      <trkpt lat="42.50832" lon="-71.07120"><ele>28</ele></trkpt>      <trkpt lat="42.50916" lon="-71.07125"><ele>28</ele></trkpt>      <trkpt lat="42.50931" lon="-71.07127"><ele>28</ele></trkpt>      <trkpt lat="42.50942" lon="-71.07129"><ele>28</ele></trkpt>      <trkpt lat="42.50951" lon="-71.07132"><ele>28</ele></trkpt>      <trkpt lat="42.50960" lon="-71.07136"><ele>28</ele></trkpt>      <trkpt lat="42.50977" lon="-71.07144"><ele>28</ele></trkpt>      <trkpt lat="42.50990" lon="-71.07150"><ele>28</ele></trkpt>      <trkpt lat="42.51055" lon="-71.07182"><ele>28</ele></trkpt>      <trkpt lat="42.51085" lon="-71.07196"><ele>28</ele></trkpt>      <trkpt lat="42.51130" lon="-71.07218"><ele>28</ele></trkpt>      <trkpt lat="42.51141" lon="-71.07224"><ele>28</ele></trkpt>      <trkpt lat="42.51155" lon="-71.07234"><ele>28</ele></trkpt>      <trkpt lat="42.51164" lon="-71.07241"><ele>28</ele></trkpt>      <trkpt lat="42.51175" lon="-71.07251"><ele>28</ele></trkpt>      <trkpt lat="42.51213" lon="-71.07285"><ele>28</ele></trkpt>      <trkpt lat="42.51229" lon="-71.07298"><ele>28</ele></trkpt>      <trkpt lat="42.51236" lon="-71.07305"><ele>28</ele></trkpt>      <trkpt lat="42.51244" lon="-71.07311"><ele>28</ele></trkpt>      <trkpt lat="42.51251" lon="-71.07316"><ele>28</ele></trkpt>      <trkpt lat="42.51265" lon="-71.07326"><ele>28</ele></trkpt>      <trkpt lat="42.51275" lon="-71.07332"><ele>28</ele></trkpt>      <trkpt lat="42.51326" lon="-71.07359"><ele>27</ele></trkpt>      <trkpt lat="42.51386" lon="-71.07390"><ele>27</ele></trkpt>      <trkpt lat="42.51435" lon="-71.07415"><ele>27</ele></trkpt>      <trkpt lat="42.51445" lon="-71.07420"><ele>27</ele></trkpt>      <trkpt lat="42.51457" lon="-71.07424"><ele>27</ele></trkpt>      <trkpt lat="42.51465" lon="-71.07427"><ele>27</ele></trkpt>      <trkpt lat="42.51476" lon="-71.07430"><ele>27</ele></trkpt>      <trkpt lat="42.51488" lon="-71.07431"><ele>27</ele></trkpt>      <trkpt lat="42.51503" lon="-71.07433"><ele>27</ele></trkpt>      <trkpt lat="42.51518" lon="-71.07432"><ele>27</ele></trkpt>      <trkpt lat="42.51533" lon="-71.07430"><ele>27</ele></trkpt>      <trkpt lat="42.51547" lon="-71.07427"><ele>27</ele></trkpt>      <trkpt lat="42.51562" lon="-71.07422"><ele>27</ele></trkpt>      <trkpt lat="42.51572" lon="-71.07417"><ele>27</ele></trkpt>      <trkpt lat="42.51582" lon="-71.07413"><ele>27</ele></trkpt>      <trkpt lat="42.51595" lon="-71.07407"><ele>27</ele></trkpt>      <trkpt lat="42.51605" lon="-71.07403"><ele>27</ele></trkpt>      <trkpt lat="42.51617" lon="-71.07400"><ele>27</ele></trkpt>      <trkpt lat="42.51627" lon="-71.07399"><ele>27</ele></trkpt>      <trkpt lat="42.51640" lon="-71.07399"><ele>27</ele></trkpt>      <trkpt lat="42.51649" lon="-71.07399"><ele>27</ele></trkpt>      <trkpt lat="42.51658" lon="-71.07401"><ele>27</ele></trkpt>      <trkpt lat="42.51667" lon="-71.07405"><ele>27</ele></trkpt>      <trkpt lat="42.51681" lon="-71.07419"><ele>27</ele></trkpt>      <trkpt lat="42.51690" lon="-71.07431"><ele>27</ele></trkpt>      <trkpt lat="42.51702" lon="-71.07450"><ele>27</ele></trkpt>      <trkpt lat="42.51712" lon="-71.07467"><ele>27</ele></trkpt>      <trkpt lat="42.51729" lon="-71.07496"><ele>27</ele></trkpt>      <trkpt lat="42.51743" lon="-71.07516"><ele>27</ele></trkpt>      <trkpt lat="42.51750" lon="-71.07524"><ele>27</ele></trkpt>      <trkpt lat="42.51757" lon="-71.07533"><ele>27</ele></trkpt>      <trkpt lat="42.51765" lon="-71.07541"><ele>27</ele></trkpt>      <trkpt lat="42.51789" lon="-71.07563"><ele>27</ele></trkpt>      <trkpt lat="42.51812" lon="-71.07585"><ele>27</ele></trkpt>      <trkpt lat="42.51821" lon="-71.07594"><ele>27</ele></trkpt>      <trkpt lat="42.51853" lon="-71.07624"><ele>27</ele></trkpt>      <trkpt lat="42.51876" lon="-71.07644"><ele>27</ele></trkpt>      <trkpt lat="42.51913" lon="-71.07675"><ele>27</ele></trkpt>      <trkpt lat="42.51927" lon="-71.07686"><ele>27</ele></trkpt>      <trkpt lat="42.51948" lon="-71.07704"><ele>27</ele></trkpt>      <trkpt lat="42.51960" lon="-71.07713"><ele>26</ele></trkpt>      <trkpt lat="42.51970" lon="-71.07721"><ele>26</ele></trkpt>      <trkpt lat="42.51982" lon="-71.07730"><ele>26</ele></trkpt>      <trkpt lat="42.51992" lon="-71.07737"><ele>26</ele></trkpt>      <trkpt lat="42.52007" lon="-71.07745"><ele>26</ele></trkpt>      <trkpt lat="42.52033" lon="-71.07754"><ele>26</ele></trkpt>      <trkpt lat="42.52054" lon="-71.07762"><ele>26</ele></trkpt>      <trkpt lat="42.52072" lon="-71.07768"><ele>26</ele></trkpt>      <trkpt lat="42.52091" lon="-71.07773"><ele>26</ele></trkpt>      <trkpt lat="42.52105" lon="-71.07774"><ele>26</ele></trkpt>      <trkpt lat="42.52115" lon="-71.07775"><ele>26</ele></trkpt>      <trkpt lat="42.52124" lon="-71.07774"><ele>26</ele></trkpt>      <trkpt lat="42.52140" lon="-71.07772"><ele>26</ele></trkpt>      <trkpt lat="42.52149" lon="-71.07770"><ele>26</ele></trkpt>      <trkpt lat="42.52158" lon="-71.07767"><ele>26</ele></trkpt>      <trkpt lat="42.52165" lon="-71.07764"><ele>26</ele></trkpt>      <trkpt lat="42.52184" lon="-71.07754"><ele>26</ele></trkpt>      <trkpt lat="42.52194" lon="-71.07745"><ele>26</ele></trkpt>      <trkpt lat="42.52207" lon="-71.07734"><ele>26</ele></trkpt>      <trkpt lat="42.52224" lon="-71.07721"><ele>26</ele></trkpt>      <trkpt lat="42.52238" lon="-71.07718"><ele>26</ele></trkpt>      <trkpt lat="42.52252" lon="-71.07740"><ele>26</ele></trkpt>      <trkpt lat="42.52277" lon="-71.07776"><ele>26</ele></trkpt>      <trkpt lat="42.52288" lon="-71.07791"><ele>26</ele></trkpt>      <trkpt lat="42.52296" lon="-71.07805"><ele>26</ele></trkpt>      <trkpt lat="42.52305" lon="-71.07822"><ele>26</ele></trkpt>      <trkpt lat="42.52313" lon="-71.07838"><ele>26</ele></trkpt>      <trkpt lat="42.52319" lon="-71.07851"><ele>26</ele></trkpt>      <trkpt lat="42.52325" lon="-71.07866"><ele>26</ele></trkpt>      <trkpt lat="42.52330" lon="-71.07876"><ele>26</ele></trkpt>      <trkpt lat="42.52337" lon="-71.07889"><ele>26</ele></trkpt>      <trkpt lat="42.52345" lon="-71.07903"><ele>26</ele></trkpt>      <trkpt lat="42.52357" lon="-71.07918"><ele>26</ele></trkpt>      <trkpt lat="42.52364" lon="-71.07926"><ele>26</ele></trkpt>      <trkpt lat="42.52371" lon="-71.07933"><ele>26</ele></trkpt>      <trkpt lat="42.52383" lon="-71.07941"><ele>26</ele></trkpt>      <trkpt lat="42.52396" lon="-71.07948"><ele>26</ele></trkpt>      <trkpt lat="42.52405" lon="-71.07953"><ele>26</ele></trkpt>      <trkpt lat="42.52424" lon="-71.07956"><ele>26</ele></trkpt>      <trkpt lat="42.52442" lon="-71.07952"><ele>26</ele></trkpt>      <trkpt lat="42.52450" lon="-71.07947"><ele>25</ele></trkpt>      <trkpt lat="42.52462" lon="-71.07938"><ele>25</ele></trkpt>      <trkpt lat="42.52479" lon="-71.07926"><ele>25</ele></trkpt>      <trkpt lat="42.52487" lon="-71.07922"><ele>25</ele></trkpt>      <trkpt lat="42.52497" lon="-71.07920"><ele>25</ele></trkpt>      <trkpt lat="42.52507" lon="-71.07919"><ele>25</ele></trkpt>      <trkpt lat="42.52521" lon="-71.07921"><ele>25</ele></trkpt>      <trkpt lat="42.52535" lon="-71.07927"><ele>25</ele></trkpt>      <trkpt lat="42.52575" lon="-71.07948"><ele>25</ele></trkpt>      <trkpt lat="42.52600" lon="-71.07961"><ele>25</ele></trkpt>      <trkpt lat="42.52613" lon="-71.07970"><ele>25</ele></trkpt>      <trkpt lat="42.52620" lon="-71.07976"><ele>25</ele></trkpt>      <trkpt lat="42.52629" lon="-71.07978"><ele>25</ele></trkpt>      <trkpt lat="42.52636" lon="-71.07995"><ele>25</ele></trkpt>      <trkpt lat="42.52642" lon="-71.08009"><ele>25</ele></trkpt>      <trkpt lat="42.52659" lon="-71.08043"><ele>25</ele></trkpt>      <trkpt lat="42.52674" lon="-71.08059"><ele>25</ele></trkpt>      <trkpt lat="42.52688" lon="-71.08065"><ele>25</ele></trkpt>      <trkpt lat="42.52702" lon="-71.08066"><ele>25</ele></trkpt>      <trkpt lat="42.52723" lon="-71.08060"><ele>25</ele></trkpt>      <trkpt lat="42.52747" lon="-71.08054"><ele>25</ele></trkpt>      <trkpt lat="42.52759" lon="-71.08054"><ele>25</ele></trkpt>      <trkpt lat="42.52775" lon="-71.08060"><ele>25</ele></trkpt>      <trkpt lat="42.52788" lon="-71.08063"><ele>25</ele></trkpt>      <trkpt lat="42.52803" lon="-71.08070"><ele>25</ele></trkpt>      <trkpt lat="42.52825" lon="-71.08082"><ele>25</ele></trkpt>      <trkpt lat="42.52985" lon="-71.08169"><ele>25</ele></trkpt>      <trkpt lat="42.53119" lon="-71.08245"><ele>25</ele></trkpt>      <trkpt lat="42.53160" lon="-71.08269"><ele>25</ele></trkpt>      <trkpt lat="42.53186" lon="-71.08286"><ele>25</ele></trkpt>      <trkpt lat="42.53194" lon="-71.08291"><ele>25</ele></trkpt>      <trkpt lat="42.53205" lon="-71.08298"><ele>25</ele></trkpt>      <trkpt lat="42.53224" lon="-71.08311"><ele>25</ele></trkpt>      <trkpt lat="42.53239" lon="-71.08322"><ele>25</ele></trkpt>      <trkpt lat="42.53246" lon="-71.08329"><ele>25</ele></trkpt>      <trkpt lat="42.53267" lon="-71.08349"><ele>25</ele></trkpt>      <trkpt lat="42.53279" lon="-71.08360"><ele>25</ele></trkpt>      <trkpt lat="42.53289" lon="-71.08370"><ele>25</ele></trkpt>      <trkpt lat="42.53310" lon="-71.08390"><ele>25</ele></trkpt>      <trkpt lat="42.53332" lon="-71.08411"><ele>24</ele></trkpt>      <trkpt lat="42.53354" lon="-71.08432"><ele>24</ele></trkpt>      <trkpt lat="42.53369" lon="-71.08447"><ele>24</ele></trkpt>      <trkpt lat="42.53382" lon="-71.08459"><ele>24</ele></trkpt>      <trkpt lat="42.53394" lon="-71.08469"><ele>24</ele></trkpt>      <trkpt lat="42.53401" lon="-71.08474"><ele>24</ele></trkpt>      <trkpt lat="42.53409" lon="-71.08480"><ele>24</ele></trkpt>      <trkpt lat="42.53421" lon="-71.08487"><ele>24</ele></trkpt>      <trkpt lat="42.53432" lon="-71.08492"><ele>24</ele></trkpt>      <trkpt lat="42.53445" lon="-71.08499"><ele>24</ele></trkpt>      <trkpt lat="42.53467" lon="-71.08510"><ele>24</ele></trkpt>      <trkpt lat="42.53532" lon="-71.08542"><ele>24</ele></trkpt>      <trkpt lat="42.53567" lon="-71.08559"><ele>24</ele></trkpt>      <trkpt lat="42.53579" lon="-71.08566"><ele>24</ele></trkpt>      <trkpt lat="42.53587" lon="-71.08571"><ele>24</ele></trkpt>      <trkpt lat="42.53601" lon="-71.08579"><ele>24</ele></trkpt>      <trkpt lat="42.53615" lon="-71.08588"><ele>24</ele></trkpt>      <trkpt lat="42.53859" lon="-71.08757"><ele>24</ele></trkpt>      <trkpt lat="42.53888" lon="-71.08778"><ele>24</ele></trkpt>      <trkpt lat="42.53918" lon="-71.08797"><ele>24</ele></trkpt>      <trkpt lat="42.53927" lon="-71.08802"><ele>24</ele></trkpt>      <trkpt lat="42.53941" lon="-71.08809"><ele>24</ele></trkpt>      <trkpt lat="42.53950" lon="-71.08814"><ele>24</ele></trkpt>      <trkpt lat="42.53963" lon="-71.08819"><ele>24</ele></trkpt>      <trkpt lat="42.53975" lon="-71.08822"><ele>24</ele></trkpt>      <trkpt lat="42.53993" lon="-71.08828"><ele>24</ele></trkpt>      <trkpt lat="42.54027" lon="-71.08834"><ele>24</ele></trkpt>      <trkpt lat="42.54050" lon="-71.08839"><ele>24</ele></trkpt>      <trkpt lat="42.54085" lon="-71.08846"><ele>24</ele></trkpt>      <trkpt lat="42.54123" lon="-71.08854"><ele>23</ele></trkpt>      <trkpt lat="42.54151" lon="-71.08859"><ele>23</ele></trkpt>      <trkpt lat="42.54173" lon="-71.08864"><ele>23</ele></trkpt>      <trkpt lat="42.54184" lon="-71.08866"><ele>23</ele></trkpt>      <trkpt lat="42.54196" lon="-71.08869"><ele>23</ele></trkpt>      <trkpt lat="42.54205" lon="-71.08872"><ele>23</ele></trkpt>      <trkpt lat="42.54219" lon="-71.08877"><ele>23</ele></trkpt>      <trkpt lat="42.54232" lon="-71.08883"><ele>23</ele></trkpt>      <trkpt lat="42.54245" lon="-71.08891"><ele>23</ele></trkpt>      <trkpt lat="42.54262" lon="-71.08902"><ele>23</ele></trkpt>      <trkpt lat="42.54284" lon="-71.08918"><ele>23</ele></trkpt>      <trkpt lat="42.54292" lon="-71.08923"><ele>23</ele></trkpt>      <trkpt lat="42.54302" lon="-71.08928"><ele>23</ele></trkpt>      <trkpt lat="42.54317" lon="-71.08935"><ele>23</ele></trkpt>      <trkpt lat="42.54325" lon="-71.08938"><ele>23</ele></trkpt>      <trkpt lat="42.54335" lon="-71.08942"><ele>23</ele></trkpt>      <trkpt lat="42.54351" lon="-71.08947"><ele>23</ele></trkpt>      <trkpt lat="42.54375" lon="-71.08954"><ele>23</ele></trkpt>      <trkpt lat="42.54391" lon="-71.08959"><ele>23</ele></trkpt>      <trkpt lat="42.54407" lon="-71.08964"><ele>23</ele></trkpt>      <trkpt lat="42.54419" lon="-71.08970"><ele>23</ele></trkpt>      <trkpt lat="42.54435" lon="-71.08979"><ele>23</ele></trkpt>      <trkpt lat="42.54462" lon="-71.08993"><ele>23</ele></trkpt>      <trkpt lat="42.54477" lon="-71.09001"><ele>23</ele></trkpt>      <trkpt lat="42.54491" lon="-71.09007"><ele>24</ele></trkpt>      <trkpt lat="42.54505" lon="-71.09013"><ele>24</ele></trkpt>      <trkpt lat="42.54521" lon="-71.09018"><ele>24</ele></trkpt>      <trkpt lat="42.54547" lon="-71.09026"><ele>24</ele></trkpt>      <trkpt lat="42.54558" lon="-71.09030"><ele>24</ele></trkpt>      <trkpt lat="42.54568" lon="-71.09035"><ele>24</ele></trkpt>      <trkpt lat="42.54577" lon="-71.09039"><ele>24</ele></trkpt>      <trkpt lat="42.54588" lon="-71.09046"><ele>24</ele></trkpt>      <trkpt lat="42.54598" lon="-71.09052"><ele>24</ele></trkpt>      <trkpt lat="42.54610" lon="-71.09061"><ele>24</ele></trkpt>      <trkpt lat="42.54621" lon="-71.09070"><ele>24</ele></trkpt>      <trkpt lat="42.54632" lon="-71.09081"><ele>24</ele></trkpt>      <trkpt lat="42.54642" lon="-71.09091"><ele>24</ele></trkpt>      <trkpt lat="42.54655" lon="-71.09107"><ele>24</ele></trkpt>      <trkpt lat="42.54671" lon="-71.09128"><ele>24</ele></trkpt>      <trkpt lat="42.54776" lon="-71.09271"><ele>24</ele></trkpt>      <trkpt lat="42.54827" lon="-71.09341"><ele>24</ele></trkpt>      <trkpt lat="42.54857" lon="-71.09379"><ele>24</ele></trkpt>      <trkpt lat="42.54886" lon="-71.09418"><ele>24</ele></trkpt>      <trkpt lat="42.54911" lon="-71.09451"><ele>24</ele></trkpt>      <trkpt lat="42.54943" lon="-71.09488"><ele>24</ele></trkpt>      <trkpt lat="42.54955" lon="-71.09501"><ele>24</ele></trkpt>      <trkpt lat="42.54967" lon="-71.09513"><ele>24</ele></trkpt>      <trkpt lat="42.54989" lon="-71.09533"><ele>24</ele></trkpt>      <trkpt lat="42.55017" lon="-71.09557"><ele>24</ele></trkpt>      <trkpt lat="42.55041" lon="-71.09576"><ele>24</ele></trkpt>      <trkpt lat="42.55061" lon="-71.09588"><ele>24</ele></trkpt>      <trkpt lat="42.55073" lon="-71.09594"><ele>24</ele></trkpt>      <trkpt lat="42.55083" lon="-71.09599"><ele>24</ele></trkpt>      <trkpt lat="42.55102" lon="-71.09605"><ele>24</ele></trkpt>      <trkpt lat="42.55127" lon="-71.09609"><ele>24</ele></trkpt>      <trkpt lat="42.55160" lon="-71.09612"><ele>24</ele></trkpt>      <trkpt lat="42.55206" lon="-71.09616"><ele>24</ele></trkpt>      <trkpt lat="42.55253" lon="-71.09618"><ele>24</ele></trkpt>      <trkpt lat="42.55268" lon="-71.09618"><ele>24</ele></trkpt>      <trkpt lat="42.55284" lon="-71.09618"><ele>24</ele></trkpt>      <trkpt lat="42.55296" lon="-71.09616"><ele>24</ele></trkpt>      <trkpt lat="42.55316" lon="-71.09614"><ele>24</ele></trkpt>      <trkpt lat="42.55353" lon="-71.09610"><ele>24</ele></trkpt>      <trkpt lat="42.55395" lon="-71.09606"><ele>24</ele></trkpt>      <trkpt lat="42.55441" lon="-71.09600"><ele>24</ele></trkpt>      <trkpt lat="42.55467" lon="-71.09594"><ele>24</ele></trkpt>      <trkpt lat="42.55485" lon="-71.09588"><ele>24</ele></trkpt>      <trkpt lat="42.55505" lon="-71.09579"><ele>24</ele></trkpt>      <trkpt lat="42.55524" lon="-71.09569"><ele>24</ele></trkpt>      <trkpt lat="42.55566" lon="-71.09548"><ele>24</ele></trkpt>      <trkpt lat="42.55600" lon="-71.09528"><ele>24</ele></trkpt>      <trkpt lat="42.55638" lon="-71.09508"><ele>24</ele></trkpt>      <trkpt lat="42.55684" lon="-71.09483"><ele>24</ele></trkpt>      <trkpt lat="42.55725" lon="-71.09461"><ele>24</ele></trkpt>      <trkpt lat="42.55735" lon="-71.09455"><ele>24</ele></trkpt>      <trkpt lat="42.55744" lon="-71.09450"><ele>24</ele></trkpt>      <trkpt lat="42.55761" lon="-71.09441"><ele>24</ele></trkpt>      <trkpt lat="42.55794" lon="-71.09421"><ele>24</ele></trkpt>      <trkpt lat="42.55803" lon="-71.09414"><ele>24</ele></trkpt>      <trkpt lat="42.55812" lon="-71.09406"><ele>24</ele></trkpt>      <trkpt lat="42.55833" lon="-71.09386"><ele>24</ele></trkpt>      <trkpt lat="42.55859" lon="-71.09358"><ele>24</ele></trkpt>      <trkpt lat="42.55887" lon="-71.09326"><ele>24</ele></trkpt>      <trkpt lat="42.55927" lon="-71.09282"><ele>24</ele></trkpt>      <trkpt lat="42.55967" lon="-71.09239"><ele>24</ele></trkpt>      <trkpt lat="42.56010" lon="-71.09202"><ele>24</ele></trkpt>      <trkpt lat="42.56048" lon="-71.09170"><ele>24</ele></trkpt>      <trkpt lat="42.56079" lon="-71.09144"><ele>24</ele></trkpt>      <trkpt lat="42.56105" lon="-71.09120"><ele>24</ele></trkpt>      <trkpt lat="42.56133" lon="-71.09092"><ele>24</ele></trkpt>      <trkpt lat="42.56160" lon="-71.09066"><ele>24</ele></trkpt>      <trkpt lat="42.56174" lon="-71.09052"><ele>24</ele></trkpt>      <trkpt lat="42.56213" lon="-71.09014"><ele>24</ele></trkpt>      <trkpt lat="42.56292" lon="-71.08936"><ele>24</ele></trkpt>      <trkpt lat="42.56313" lon="-71.08915"><ele>24</ele></trkpt>      <trkpt lat="42.56345" lon="-71.08883"><ele>24</ele></trkpt>      <trkpt lat="42.56355" lon="-71.08874"><ele>24</ele></trkpt>      <trkpt lat="42.56367" lon="-71.08862"><ele>24</ele></trkpt>      <trkpt lat="42.56390" lon="-71.08839"><ele>24</ele></trkpt>      <trkpt lat="42.56408" lon="-71.08822"><ele>24</ele></trkpt>      <trkpt lat="42.56458" lon="-71.08774"><ele>24</ele></trkpt>      <trkpt lat="42.56507" lon="-71.08725"><ele>24</ele></trkpt>      <trkpt lat="42.56541" lon="-71.08694"><ele>24</ele></trkpt>      <trkpt lat="42.56605" lon="-71.08630"><ele>24</ele></trkpt>      <trkpt lat="42.56649" lon="-71.08587"><ele>24</ele></trkpt>      <trkpt lat="42.56667" lon="-71.08569"><ele>24</ele></trkpt>      <trkpt lat="42.56682" lon="-71.08554"><ele>24</ele></trkpt>      <trkpt lat="42.56729" lon="-71.08508"><ele>24</ele></trkpt>      <trkpt lat="42.56756" lon="-71.08482"><ele>24</ele></trkpt>      <trkpt lat="42.56775" lon="-71.08464"><ele>24</ele></trkpt>      <trkpt lat="42.56817" lon="-71.08422"><ele>24</ele></trkpt>      <trkpt lat="42.56840" lon="-71.08400"><ele>24</ele></trkpt>      <trkpt lat="42.56872" lon="-71.08370"><ele>24</ele></trkpt>      <trkpt lat="42.56920" lon="-71.08322"><ele>24</ele></trkpt>      <trkpt lat="42.56975" lon="-71.08266"><ele>24</ele></trkpt>      <trkpt lat="42.56983" lon="-71.08258"><ele>24</ele></trkpt>      <trkpt lat="42.57026" lon="-71.08216"><ele>24</ele></trkpt>      <trkpt lat="42.57060" lon="-71.08183"><ele>24</ele></trkpt>      <trkpt lat="42.57081" lon="-71.08163"><ele>24</ele></trkpt>      <trkpt lat="42.57103" lon="-71.08143"><ele>24</ele></trkpt>      <trkpt lat="42.57123" lon="-71.08125"><ele>24</ele></trkpt>      <trkpt lat="42.57133" lon="-71.08118"><ele>24</ele></trkpt>      <trkpt lat="42.57142" lon="-71.08111"><ele>24</ele></trkpt>      <trkpt lat="42.57148" lon="-71.08106"><ele>24</ele></trkpt>      <trkpt lat="42.57175" lon="-71.08086"><ele>24</ele></trkpt>      <trkpt lat="42.57199" lon="-71.08068"><ele>24</ele></trkpt>      <trkpt lat="42.57230" lon="-71.08048"><ele>24</ele></trkpt>      <trkpt lat="42.57246" lon="-71.08036"><ele>24</ele></trkpt>      <trkpt lat="42.57260" lon="-71.08025"><ele>24</ele></trkpt>      <trkpt lat="42.57313" lon="-71.07988"><ele>24</ele></trkpt>      <trkpt lat="42.57359" lon="-71.07956"><ele>24</ele></trkpt>      <trkpt lat="42.57373" lon="-71.07947"><ele>24</ele></trkpt>      <trkpt lat="42.57382" lon="-71.07941"><ele>24</ele></trkpt>      <trkpt lat="42.57400" lon="-71.07928"><ele>24</ele></trkpt>      <trkpt lat="42.57410" lon="-71.07921"><ele>24</ele></trkpt>      <trkpt lat="42.57443" lon="-71.07897"><ele>24</ele></trkpt>      <trkpt lat="42.57530" lon="-71.07836"><ele>29</ele></trkpt>      <trkpt lat="42.57542" lon="-71.07828"><ele>29</ele></trkpt>      <trkpt lat="42.57562" lon="-71.07816"><ele>29</ele></trkpt>      <trkpt lat="42.57575" lon="-71.07810"><ele>29</ele></trkpt>      <trkpt lat="42.57588" lon="-71.07805"><ele>29</ele></trkpt>      <trkpt lat="42.57615" lon="-71.07802"><ele>29</ele></trkpt>      <trkpt lat="42.57647" lon="-71.07809"><ele>28</ele></trkpt>      <trkpt lat="42.57667" lon="-71.07815"><ele>27</ele></trkpt>      <trkpt lat="42.57682" lon="-71.07819"><ele>27</ele></trkpt>      <trkpt lat="42.57700" lon="-71.07824"><ele>27</ele></trkpt>      <trkpt lat="42.57717" lon="-71.07829"><ele>27</ele></trkpt>      <trkpt lat="42.57763" lon="-71.07843"><ele>26</ele></trkpt>      <trkpt lat="42.57818" lon="-71.07862"><ele>26</ele></trkpt>      <trkpt lat="42.57866" lon="-71.07877"><ele>26</ele></trkpt>      <trkpt lat="42.57900" lon="-71.07887"><ele>25</ele></trkpt>      <trkpt lat="42.57929" lon="-71.07890"><ele>25</ele></trkpt>      <trkpt lat="42.57959" lon="-71.07888"><ele>25</ele></trkpt>      <trkpt lat="42.57986" lon="-71.07887"><ele>24</ele></trkpt>      <trkpt lat="42.58015" lon="-71.07890"><ele>24</ele></trkpt>      <trkpt lat="42.58041" lon="-71.07898"><ele>24</ele></trkpt>      <trkpt lat="42.58050" lon="-71.07901"><ele>24</ele></trkpt>      <trkpt lat="42.58104" lon="-71.07921"><ele>23</ele></trkpt>      <trkpt lat="42.58149" lon="-71.07938"><ele>23</ele></trkpt>      <trkpt lat="42.58179" lon="-71.07955"><ele>23</ele></trkpt>      <trkpt lat="42.58209" lon="-71.07976"><ele>23</ele></trkpt>      <trkpt lat="42.58233" lon="-71.07995"><ele>23</ele></trkpt>      <trkpt lat="42.58261" lon="-71.08015"><ele>23</ele></trkpt>      <trkpt lat="42.58283" lon="-71.08026"><ele>23</ele></trkpt>      <trkpt lat="42.58299" lon="-71.08033"><ele>23</ele></trkpt>      <trkpt lat="42.58350" lon="-71.08052"><ele>22</ele></trkpt>      <trkpt lat="42.58380" lon="-71.08063"><ele>22</ele></trkpt>      <trkpt lat="42.58413" lon="-71.08074"><ele>21</ele></trkpt>      <trkpt lat="42.58435" lon="-71.08083"><ele>21</ele></trkpt>      <trkpt lat="42.58454" lon="-71.08091"><ele>21</ele></trkpt>      <trkpt lat="42.58484" lon="-71.08102"><ele>21</ele></trkpt>      <trkpt lat="42.58509" lon="-71.08112"><ele>21</ele></trkpt>      <trkpt lat="42.58548" lon="-71.08126"><ele>23</ele></trkpt>      <trkpt lat="42.58569" lon="-71.08136"><ele>23</ele></trkpt>      <trkpt lat="42.58591" lon="-71.08149"><ele>23</ele></trkpt>      <trkpt lat="42.58609" lon="-71.08161"><ele>24</ele></trkpt>      <trkpt lat="42.58625" lon="-71.08168"><ele>24</ele></trkpt>      <trkpt lat="42.58636" lon="-71.08172"><ele>24</ele></trkpt>      <trkpt lat="42.58649" lon="-71.08176"><ele>24</ele></trkpt>      <trkpt lat="42.58692" lon="-71.08184"><ele>24</ele></trkpt>      <trkpt lat="42.58759" lon="-71.08195"><ele>24</ele></trkpt>      <trkpt lat="42.58776" lon="-71.08198"><ele>24</ele></trkpt>      <trkpt lat="42.58836" lon="-71.08208"><ele>24</ele></trkpt>      <trkpt lat="42.58850" lon="-71.08210"><ele>25</ele></trkpt>      <trkpt lat="42.58865" lon="-71.08213"><ele>25</ele></trkpt>      <trkpt lat="42.58879" lon="-71.08216"><ele>26</ele></trkpt>      <trkpt lat="42.58887" lon="-71.08218"><ele>26</ele></trkpt>      <trkpt lat="42.58903" lon="-71.08224"><ele>26</ele></trkpt>      <trkpt lat="42.58915" lon="-71.08231"><ele>27</ele></trkpt>      <trkpt lat="42.58932" lon="-71.08246"><ele>27</ele></trkpt>      <trkpt lat="42.58946" lon="-71.08260"><ele>27</ele></trkpt>      <trkpt lat="42.58961" lon="-71.08276"><ele>28</ele></trkpt>      <trkpt lat="42.58974" lon="-71.08292"><ele>28</ele></trkpt>      <trkpt lat="42.58992" lon="-71.08313"><ele>28</ele></trkpt>      <trkpt lat="42.59006" lon="-71.08328"><ele>28</ele></trkpt>      <trkpt lat="42.59019" lon="-71.08341"><ele>28</ele></trkpt>      <trkpt lat="42.59032" lon="-71.08351"><ele>28</ele></trkpt>      <trkpt lat="42.59044" lon="-71.08360"><ele>28</ele></trkpt>      <trkpt lat="42.59057" lon="-71.08367"><ele>28</ele></trkpt>      <trkpt lat="42.59067" lon="-71.08372"><ele>28</ele></trkpt>      <trkpt lat="42.59089" lon="-71.08383"><ele>28</ele></trkpt>      <trkpt lat="42.59154" lon="-71.08418"><ele>28</ele></trkpt>      <trkpt lat="42.59242" lon="-71.08469"><ele>29</ele></trkpt>      <trkpt lat="42.59272" lon="-71.08485"><ele>30</ele></trkpt>      <trkpt lat="42.59289" lon="-71.08495"><ele>31</ele></trkpt>      <trkpt lat="42.59299" lon="-71.08502"><ele>32</ele></trkpt>      <trkpt lat="42.59313" lon="-71.08510"><ele>33</ele></trkpt>      <trkpt lat="42.59333" lon="-71.08522"><ele>35</ele></trkpt>      <trkpt lat="42.59348" lon="-71.08528"><ele>37</ele></trkpt>      <trkpt lat="42.59360" lon="-71.08533"><ele>39</ele></trkpt>      <trkpt lat="42.59373" lon="-71.08535"><ele>41</ele></trkpt>      <trkpt lat="42.59387" lon="-71.08536"><ele>43</ele></trkpt>      <trkpt lat="42.59401" lon="-71.08537"><ele>45</ele></trkpt>      <trkpt lat="42.59422" lon="-71.08538"><ele>48</ele></trkpt>      <trkpt lat="42.59445" lon="-71.08540"><ele>49</ele></trkpt>      <trkpt lat="42.59464" lon="-71.08545"><ele>50</ele></trkpt>      <trkpt lat="42.59477" lon="-71.08550"><ele>51</ele></trkpt>      <trkpt lat="42.59489" lon="-71.08556"><ele>51</ele></trkpt>      <trkpt lat="42.59504" lon="-71.08566"><ele>52</ele></trkpt>      <trkpt lat="42.59517" lon="-71.08574"><ele>52</ele></trkpt>      <trkpt lat="42.59544" lon="-71.08592"><ele>51</ele></trkpt>      <trkpt lat="42.59559" lon="-71.08605"><ele>50</ele></trkpt>      <trkpt lat="42.59573" lon="-71.08616"><ele>50</ele></trkpt>      <trkpt lat="42.59588" lon="-71.08630"><ele>48</ele></trkpt>      <trkpt lat="42.59602" lon="-71.08643"><ele>48</ele></trkpt>      <trkpt lat="42.59629" lon="-71.08666"><ele>47</ele></trkpt>      <trkpt lat="42.59636" lon="-71.08644"><ele>46</ele></trkpt>      <trkpt lat="42.59640" lon="-71.08626"><ele>46</ele></trkpt>      <trkpt lat="42.59643" lon="-71.08612"><ele>45</ele></trkpt>      <trkpt lat="42.59661" lon="-71.08537"><ele>43</ele></trkpt>      <trkpt lat="42.59674" lon="-71.08481"><ele>40</ele></trkpt>      <trkpt lat="42.59680" lon="-71.08455"><ele>40</ele></trkpt>      <trkpt lat="42.59684" lon="-71.08428"><ele>39</ele></trkpt>      <trkpt lat="42.59687" lon="-71.08414"><ele>39</ele></trkpt>      <trkpt lat="42.59690" lon="-71.08396"><ele>39</ele></trkpt>      <trkpt lat="42.59691" lon="-71.08378"><ele>40</ele></trkpt>      <trkpt lat="42.59693" lon="-71.08356"><ele>41</ele></trkpt>      <trkpt lat="42.59696" lon="-71.08335"><ele>41</ele></trkpt>      <trkpt lat="42.59698" lon="-71.08313"><ele>42</ele></trkpt>      <trkpt lat="42.59700" lon="-71.08286"><ele>43</ele></trkpt>      <trkpt lat="42.59701" lon="-71.08273"><ele>44</ele></trkpt>      <trkpt lat="42.59702" lon="-71.08256"><ele>44</ele></trkpt>      <trkpt lat="42.59704" lon="-71.08237"><ele>45</ele></trkpt>      <trkpt lat="42.59708" lon="-71.08206"><ele>46</ele></trkpt>      <trkpt lat="42.59711" lon="-71.08194"><ele>47</ele></trkpt>      <trkpt lat="42.59716" lon="-71.08170"><ele>48</ele></trkpt>      <trkpt lat="42.59729" lon="-71.08121"><ele>49</ele></trkpt>      <trkpt lat="42.59733" lon="-71.08107"><ele>50</ele></trkpt>      <trkpt lat="42.59740" lon="-71.08081"><ele>50</ele></trkpt>      <trkpt lat="42.59748" lon="-71.08061"><ele>50</ele></trkpt>      <trkpt lat="42.59767" lon="-71.08017"><ele>50</ele></trkpt>      <trkpt lat="42.59771" lon="-71.08007"><ele>49</ele></trkpt>      <trkpt lat="42.59780" lon="-71.07986"><ele>48</ele></trkpt>      <trkpt lat="42.59784" lon="-71.07974"><ele>48</ele></trkpt>      <trkpt lat="42.59789" lon="-71.07954"><ele>47</ele></trkpt>      <trkpt lat="42.59790" lon="-71.07932"><ele>47</ele></trkpt>      <trkpt lat="42.59790" lon="-71.07918"><ele>47</ele></trkpt>      <trkpt lat="42.59788" lon="-71.07885"><ele>48</ele></trkpt>      <trkpt lat="42.59787" lon="-71.07851"><ele>48</ele></trkpt>      <trkpt lat="42.59787" lon="-71.07841"><ele>49</ele></trkpt>      <trkpt lat="42.59787" lon="-71.07828"><ele>49</ele></trkpt>      <trkpt lat="42.59787" lon="-71.07815"><ele>50</ele></trkpt>      <trkpt lat="42.59790" lon="-71.07798"><ele>50</ele></trkpt>      <trkpt lat="42.59791" lon="-71.07785"><ele>51</ele></trkpt>      <trkpt lat="42.59795" lon="-71.07764"><ele>51</ele></trkpt>      <trkpt lat="42.59798" lon="-71.07753"><ele>52</ele></trkpt>      <trkpt lat="42.59803" lon="-71.07734"><ele>52</ele></trkpt>      <trkpt lat="42.59811" lon="-71.07717"><ele>52</ele></trkpt>      <trkpt lat="42.59816" lon="-71.07706"><ele>53</ele></trkpt>      <trkpt lat="42.59823" lon="-71.07694"><ele>53</ele></trkpt>      <trkpt lat="42.59829" lon="-71.07684"><ele>53</ele></trkpt>      <trkpt lat="42.59844" lon="-71.07663"><ele>52</ele></trkpt>      <trkpt lat="42.59860" lon="-71.07644"><ele>52</ele></trkpt>      <trkpt lat="42.59874" lon="-71.07628"><ele>51</ele></trkpt>      <trkpt lat="42.59891" lon="-71.07607"><ele>51</ele></trkpt>      <trkpt lat="42.59903" lon="-71.07592"><ele>50</ele></trkpt>      <trkpt lat="42.59909" lon="-71.07583"><ele>50</ele></trkpt>      <trkpt lat="42.59940" lon="-71.07541"><ele>47</ele></trkpt>      <trkpt lat="42.59952" lon="-71.07523"><ele>47</ele></trkpt>      <trkpt lat="42.59959" lon="-71.07511"><ele>46</ele></trkpt>      <trkpt lat="42.59967" lon="-71.07500"><ele>46</ele></trkpt>      <trkpt lat="42.59976" lon="-71.07487"><ele>46</ele></trkpt>      <trkpt lat="42.59994" lon="-71.07457"><ele>45</ele></trkpt>      <trkpt lat="42.60007" lon="-71.07436"><ele>45</ele></trkpt>      <trkpt lat="42.60023" lon="-71.07407"><ele>46</ele></trkpt>      <trkpt lat="42.60033" lon="-71.07388"><ele>47</ele></trkpt>      <trkpt lat="42.60039" lon="-71.07374"><ele>47</ele></trkpt>      <trkpt lat="42.60046" lon="-71.07359"><ele>48</ele></trkpt>      <trkpt lat="42.60052" lon="-71.07342"><ele>49</ele></trkpt>      <trkpt lat="42.60056" lon="-71.07329"><ele>49</ele></trkpt>      <trkpt lat="42.60058" lon="-71.07315"><ele>49</ele></trkpt>      <trkpt lat="42.60060" lon="-71.07303"><ele>49</ele></trkpt>      <trkpt lat="42.60063" lon="-71.07283"><ele>48</ele></trkpt>      <trkpt lat="42.60066" lon="-71.07243"><ele>47</ele></trkpt>      <trkpt lat="42.60068" lon="-71.07225"><ele>47</ele></trkpt>      <trkpt lat="42.60073" lon="-71.07195"><ele>46</ele></trkpt>      <trkpt lat="42.60075" lon="-71.07184"><ele>45</ele></trkpt>      <trkpt lat="42.60078" lon="-71.07172"><ele>45</ele></trkpt>      <trkpt lat="42.60085" lon="-71.07149"><ele>44</ele></trkpt>      <trkpt lat="42.60092" lon="-71.07129"><ele>44</ele></trkpt>      <trkpt lat="42.60101" lon="-71.07101"><ele>43</ele></trkpt>      <trkpt lat="42.60109" lon="-71.07068"><ele>42</ele></trkpt>      <trkpt lat="42.60112" lon="-71.07052"><ele>41</ele></trkpt>      <trkpt lat="42.60115" lon="-71.07032"><ele>40</ele></trkpt>      <trkpt lat="42.60117" lon="-71.07010"><ele>40</ele></trkpt>      <trkpt lat="42.60118" lon="-71.06987"><ele>39</ele></trkpt>      <trkpt lat="42.60114" lon="-71.06962"><ele>38</ele></trkpt>      <trkpt lat="42.60110" lon="-71.06942"><ele>38</ele></trkpt>      <trkpt lat="42.60107" lon="-71.06926"><ele>37</ele></trkpt>      <trkpt lat="42.60103" lon="-71.06915"><ele>37</ele></trkpt>      <trkpt lat="42.60093" lon="-71.06891"><ele>37</ele></trkpt>      <trkpt lat="42.60083" lon="-71.06868"><ele>36</ele></trkpt>      <trkpt lat="42.60074" lon="-71.06848"><ele>36</ele></trkpt>      <trkpt lat="42.60067" lon="-71.06830"><ele>36</ele></trkpt>      <trkpt lat="42.60063" lon="-71.06818"><ele>36</ele></trkpt>      <trkpt lat="42.60059" lon="-71.06807"><ele>35</ele></trkpt>      <trkpt lat="42.60050" lon="-71.06768"><ele>35</ele></trkpt>      <trkpt lat="42.60044" lon="-71.06740"><ele>35</ele></trkpt>      <trkpt lat="42.60041" lon="-71.06723"><ele>35</ele></trkpt>      <trkpt lat="42.60038" lon="-71.06709"><ele>35</ele></trkpt>      <trkpt lat="42.60033" lon="-71.06697"><ele>35</ele></trkpt>      <trkpt lat="42.60023" lon="-71.06675"><ele>34</ele></trkpt>      <trkpt lat="42.60018" lon="-71.06664"><ele>34</ele></trkpt>      <trkpt lat="42.60011" lon="-71.06647"><ele>34</ele></trkpt>      <trkpt lat="42.60006" lon="-71.06628"><ele>34</ele></trkpt>      <trkpt lat="42.60003" lon="-71.06604"><ele>34</ele></trkpt>      <trkpt lat="42.60004" lon="-71.06593"><ele>34</ele></trkpt>      <trkpt lat="42.60005" lon="-71.06576"><ele>34</ele></trkpt>      <trkpt lat="42.60012" lon="-71.06545"><ele>33</ele></trkpt>      <trkpt lat="42.60031" lon="-71.06476"><ele>32</ele></trkpt>      <trkpt lat="42.60039" lon="-71.06450"><ele>31</ele></trkpt>      <trkpt lat="42.60050" lon="-71.06413"><ele>31</ele></trkpt>      <trkpt lat="42.60065" lon="-71.06366"><ele>31</ele></trkpt>      <trkpt lat="42.60071" lon="-71.06348"><ele>31</ele></trkpt>      <trkpt lat="42.60079" lon="-71.06324"><ele>31</ele></trkpt>      <trkpt lat="42.60091" lon="-71.06300"><ele>31</ele></trkpt>      <trkpt lat="42.60104" lon="-71.06277"><ele>31</ele></trkpt>      <trkpt lat="42.60113" lon="-71.06266"><ele>30</ele></trkpt>      <trkpt lat="42.60120" lon="-71.06261"><ele>30</ele></trkpt>      <trkpt lat="42.60138" lon="-71.06251"><ele>30</ele></trkpt>      <trkpt lat="42.60146" lon="-71.06248"><ele>30</ele></trkpt>      <trkpt lat="42.60159" lon="-71.06249"><ele>30</ele></trkpt>      <trkpt lat="42.60175" lon="-71.06254"><ele>30</ele></trkpt>      <trkpt lat="42.60184" lon="-71.06259"><ele>30</ele></trkpt>      <trkpt lat="42.60205" lon="-71.06271"><ele>29</ele></trkpt>      <trkpt lat="42.60227" lon="-71.06282"><ele>29</ele></trkpt>      <trkpt lat="42.60239" lon="-71.06288"><ele>29</ele></trkpt>      <trkpt lat="42.60250" lon="-71.06291"><ele>29</ele></trkpt>      <trkpt lat="42.60259" lon="-71.06292"><ele>29</ele></trkpt>      <trkpt lat="42.60268" lon="-71.06292"><ele>29</ele></trkpt>      <trkpt lat="42.60277" lon="-71.06288"><ele>29</ele></trkpt>      <trkpt lat="42.60285" lon="-71.06281"><ele>29</ele></trkpt>      <trkpt lat="42.60291" lon="-71.06274"><ele>29</ele></trkpt>      <trkpt lat="42.60300" lon="-71.06255"><ele>29</ele></trkpt>      <trkpt lat="42.60305" lon="-71.06241"><ele>29</ele></trkpt>      <trkpt lat="42.60311" lon="-71.06222"><ele>29</ele></trkpt>      <trkpt lat="42.60319" lon="-71.06197"><ele>29</ele></trkpt>      <trkpt lat="42.60327" lon="-71.06178"><ele>29</ele></trkpt>      <trkpt lat="42.60332" lon="-71.06167"><ele>29</ele></trkpt>      <trkpt lat="42.60340" lon="-71.06156"><ele>29</ele></trkpt>      <trkpt lat="42.60349" lon="-71.06143"><ele>29</ele></trkpt>      <trkpt lat="42.60359" lon="-71.06129"><ele>29</ele></trkpt>      <trkpt lat="42.60385" lon="-71.06091"><ele>29</ele></trkpt>      <trkpt lat="42.60391" lon="-71.06082"><ele>29</ele></trkpt>      <trkpt lat="42.60398" lon="-71.06072"><ele>29</ele></trkpt>      <trkpt lat="42.60405" lon="-71.06061"><ele>29</ele></trkpt>      <trkpt lat="42.60414" lon="-71.06048"><ele>29</ele></trkpt>      <trkpt lat="42.60421" lon="-71.06035"><ele>29</ele></trkpt>      <trkpt lat="42.60426" lon="-71.06022"><ele>29</ele></trkpt>      <trkpt lat="42.60430" lon="-71.06010"><ele>29</ele></trkpt>      <trkpt lat="42.60436" lon="-71.05989"><ele>29</ele></trkpt>      <trkpt lat="42.60439" lon="-71.05972"><ele>29</ele></trkpt>      <trkpt lat="42.60443" lon="-71.05951"><ele>29</ele></trkpt>      <trkpt lat="42.60445" lon="-71.05938"><ele>29</ele></trkpt>      <trkpt lat="42.60448" lon="-71.05920"><ele>29</ele></trkpt>      <trkpt lat="42.60453" lon="-71.05897"><ele>29</ele></trkpt>      <trkpt lat="42.60456" lon="-71.05879"><ele>29</ele></trkpt>      <trkpt lat="42.60462" lon="-71.05847"><ele>29</ele></trkpt>      <trkpt lat="42.60469" lon="-71.05812"><ele>29</ele></trkpt>      <trkpt lat="42.60471" lon="-71.05791"><ele>29</ele></trkpt>      <trkpt lat="42.60473" lon="-71.05766"><ele>29</ele></trkpt>      <trkpt lat="42.60474" lon="-71.05742"><ele>29</ele></trkpt>      <trkpt lat="42.60475" lon="-71.05706"><ele>29</ele></trkpt>      <trkpt lat="42.60476" lon="-71.05686"><ele>29</ele></trkpt>      <trkpt lat="42.60477" lon="-71.05660"><ele>29</ele></trkpt>      <trkpt lat="42.60478" lon="-71.05642"><ele>29</ele></trkpt>      <trkpt lat="42.60479" lon="-71.05603"><ele>29</ele></trkpt>      <trkpt lat="42.60481" lon="-71.05572"><ele>29</ele></trkpt>      <trkpt lat="42.60482" lon="-71.05548"><ele>29</ele></trkpt>      <trkpt lat="42.60482" lon="-71.05532"><ele>29</ele></trkpt>      <trkpt lat="42.60483" lon="-71.05502"><ele>30</ele></trkpt>      <trkpt lat="42.60484" lon="-71.05476"><ele>30</ele></trkpt>      <trkpt lat="42.60483" lon="-71.05447"><ele>30</ele></trkpt>      <trkpt lat="42.60483" lon="-71.05427"><ele>30</ele></trkpt>      <trkpt lat="42.60482" lon="-71.05416"><ele>30</ele></trkpt>      <trkpt lat="42.60481" lon="-71.05399"><ele>30</ele></trkpt>      <trkpt lat="42.60479" lon="-71.05376"><ele>31</ele></trkpt>      <trkpt lat="42.60476" lon="-71.05355"><ele>31</ele></trkpt>      <trkpt lat="42.60473" lon="-71.05325"><ele>31</ele></trkpt>      <trkpt lat="42.60471" lon="-71.05306"><ele>31</ele></trkpt>      <trkpt lat="42.60468" lon="-71.05280"><ele>32</ele></trkpt>      <trkpt lat="42.60466" lon="-71.05268"><ele>32</ele></trkpt>      <trkpt lat="42.60464" lon="-71.05247"><ele>33</ele></trkpt>      <trkpt lat="42.60459" lon="-71.05208"><ele>35</ele></trkpt>      <trkpt lat="42.60458" lon="-71.05188"><ele>36</ele></trkpt>      <trkpt lat="42.60457" lon="-71.05162"><ele>38</ele></trkpt>      <trkpt lat="42.60458" lon="-71.05140"><ele>39</ele></trkpt>      <trkpt lat="42.60459" lon="-71.05126"><ele>39</ele></trkpt>      <trkpt lat="42.60461" lon="-71.05112"><ele>40</ele></trkpt>      <trkpt lat="42.60463" lon="-71.05096"><ele>41</ele></trkpt>      <trkpt lat="42.60466" lon="-71.05081"><ele>41</ele></trkpt>      <trkpt lat="42.60469" lon="-71.05063"><ele>41</ele></trkpt>      <trkpt lat="42.60475" lon="-71.05037"><ele>41</ele></trkpt>      <trkpt lat="42.60480" lon="-71.05018"><ele>40</ele></trkpt>      <trkpt lat="42.60485" lon="-71.04997"><ele>40</ele></trkpt>      <trkpt lat="42.60488" lon="-71.04983"><ele>39</ele></trkpt>      <trkpt lat="42.60491" lon="-71.04972"><ele>39</ele></trkpt>      <trkpt lat="42.60495" lon="-71.04954"><ele>37</ele></trkpt>      <trkpt lat="42.60500" lon="-71.04936"><ele>36</ele></trkpt>      <trkpt lat="42.60506" lon="-71.04911"><ele>35</ele></trkpt>      <trkpt lat="42.60514" lon="-71.04874"><ele>33</ele></trkpt>      <trkpt lat="42.60519" lon="-71.04846"><ele>32</ele></trkpt>      <trkpt lat="42.60521" lon="-71.04832"><ele>32</ele></trkpt>      <trkpt lat="42.60523" lon="-71.04804"><ele>31</ele></trkpt>      <trkpt lat="42.60524" lon="-71.04791"><ele>30</ele></trkpt>      <trkpt lat="42.60523" lon="-71.04761"><ele>29</ele></trkpt>      <trkpt lat="42.60522" lon="-71.04735"><ele>29</ele></trkpt>      <trkpt lat="42.60520" lon="-71.04710"><ele>29</ele></trkpt>      <trkpt lat="42.60518" lon="-71.04690"><ele>29</ele></trkpt>      <trkpt lat="42.60516" lon="-71.04665"><ele>29</ele></trkpt>      <trkpt lat="42.60514" lon="-71.04632"><ele>30</ele></trkpt>      <trkpt lat="42.60511" lon="-71.04608"><ele>30</ele></trkpt>      <trkpt lat="42.60506" lon="-71.04584"><ele>31</ele></trkpt>      <trkpt lat="42.60503" lon="-71.04570"><ele>32</ele></trkpt>      <trkpt lat="42.60493" lon="-71.04541"><ele>33</ele></trkpt>      <trkpt lat="42.60483" lon="-71.04519"><ele>33</ele></trkpt>      <trkpt lat="42.60478" lon="-71.04505"><ele>33</ele></trkpt>      <trkpt lat="42.60451" lon="-71.04449"><ele>33</ele></trkpt>      <trkpt lat="42.60440" lon="-71.04427"><ele>32</ele></trkpt>      <trkpt lat="42.60433" lon="-71.04405"><ele>31</ele></trkpt>      <trkpt lat="42.60425" lon="-71.04382"><ele>30</ele></trkpt>      <trkpt lat="42.60420" lon="-71.04360"><ele>30</ele></trkpt>      <trkpt lat="42.60417" lon="-71.04341"><ele>29</ele></trkpt>      <trkpt lat="42.60413" lon="-71.04314"><ele>29</ele></trkpt>      <trkpt lat="42.60411" lon="-71.04294"><ele>29</ele></trkpt>      <trkpt lat="42.60410" lon="-71.04279"><ele>29</ele></trkpt>      <trkpt lat="42.60405" lon="-71.04223"><ele>29</ele></trkpt>      <trkpt lat="42.60400" lon="-71.04188"><ele>29</ele></trkpt>      <trkpt lat="42.60399" lon="-71.04172"><ele>29</ele></trkpt>      <trkpt lat="42.60397" lon="-71.04160"><ele>29</ele></trkpt>      <trkpt lat="42.60393" lon="-71.04128"><ele>29</ele></trkpt>      <trkpt lat="42.60385" lon="-71.04096"><ele>29</ele></trkpt>      <trkpt lat="42.60375" lon="-71.04063"><ele>29</ele></trkpt>      <trkpt lat="42.60366" lon="-71.04031"><ele>30</ele></trkpt>      <trkpt lat="42.60361" lon="-71.04012"><ele>30</ele></trkpt>      <trkpt lat="42.60351" lon="-71.03977"><ele>30</ele></trkpt>      <trkpt lat="42.60335" lon="-71.03921"><ele>30</ele></trkpt>      <trkpt lat="42.60318" lon="-71.03863"><ele>32</ele></trkpt>      <trkpt lat="42.60314" lon="-71.03847"><ele>32</ele></trkpt>      <trkpt lat="42.60300" lon="-71.03796"><ele>33</ele></trkpt>      <trkpt lat="42.60295" lon="-71.03774"><ele>34</ele></trkpt>      <trkpt lat="42.60292" lon="-71.03755"><ele>34</ele></trkpt>      <trkpt lat="42.60287" lon="-71.03731"><ele>34</ele></trkpt>      <trkpt lat="42.60280" lon="-71.03691"><ele>35</ele></trkpt>      <trkpt lat="42.60277" lon="-71.03666"><ele>35</ele></trkpt>      <trkpt lat="42.60273" lon="-71.03640"><ele>35</ele></trkpt>      <trkpt lat="42.60270" lon="-71.03601"><ele>35</ele></trkpt>      <trkpt lat="42.60268" lon="-71.03581"><ele>35</ele></trkpt>      <trkpt lat="42.60264" lon="-71.03527"><ele>35</ele></trkpt>      <trkpt lat="42.60263" lon="-71.03515"><ele>35</ele></trkpt>      <trkpt lat="42.60262" lon="-71.03503"><ele>35</ele></trkpt>      <trkpt lat="42.60257" lon="-71.03465"><ele>32</ele></trkpt>      <trkpt lat="42.60249" lon="-71.03421"><ele>29</ele></trkpt>      <trkpt lat="42.60244" lon="-71.03397"><ele>28</ele></trkpt>      <trkpt lat="42.60237" lon="-71.03368"><ele>27</ele></trkpt>      <trkpt lat="42.60228" lon="-71.03341"><ele>26</ele></trkpt>      <trkpt lat="42.60197" lon="-71.03235"><ele>24</ele></trkpt>      <trkpt lat="42.60178" lon="-71.03176"><ele>22</ele></trkpt>      <trkpt lat="42.60172" lon="-71.03158"><ele>22</ele></trkpt>      <trkpt lat="42.60159" lon="-71.03114"><ele>22</ele></trkpt>      <trkpt lat="42.60148" lon="-71.03077"><ele>22</ele></trkpt>      <trkpt lat="42.60138" lon="-71.03048"><ele>23</ele></trkpt>      <trkpt lat="42.60125" lon="-71.03014"><ele>25</ele></trkpt>      <trkpt lat="42.60118" lon="-71.02993"><ele>27</ele></trkpt>      <trkpt lat="42.60108" lon="-71.02967"><ele>29</ele></trkpt>      <trkpt lat="42.60098" lon="-71.02943"><ele>31</ele></trkpt>      <trkpt lat="42.60090" lon="-71.02925"><ele>33</ele></trkpt>      <trkpt lat="42.60079" lon="-71.02898"><ele>34</ele></trkpt>      <trkpt lat="42.60074" lon="-71.02884"><ele>35</ele></trkpt>      <trkpt lat="42.60055" lon="-71.02834"><ele>37</ele></trkpt>      <trkpt lat="42.60040" lon="-71.02790"><ele>39</ele></trkpt>      <trkpt lat="42.60018" lon="-71.02728"><ele>42</ele></trkpt>      <trkpt lat="42.60006" lon="-71.02690"><ele>43</ele></trkpt>      <trkpt lat="42.59997" lon="-71.02651"><ele>44</ele></trkpt>      <trkpt lat="42.59989" lon="-71.02615"><ele>44</ele></trkpt>      <trkpt lat="42.59984" lon="-71.02586"><ele>44</ele></trkpt>      <trkpt lat="42.59981" lon="-71.02570"><ele>44</ele></trkpt>      <trkpt lat="42.59977" lon="-71.02547"><ele>44</ele></trkpt>      <trkpt lat="42.59971" lon="-71.02506"><ele>44</ele></trkpt>      <trkpt lat="42.59969" lon="-71.02486"><ele>44</ele></trkpt>      <trkpt lat="42.59968" lon="-71.02467"><ele>43</ele></trkpt>      <trkpt lat="42.59967" lon="-71.02446"><ele>42</ele></trkpt>      <trkpt lat="42.59966" lon="-71.02426"><ele>41</ele></trkpt>      <trkpt lat="42.59966" lon="-71.02406"><ele>40</ele></trkpt>      <trkpt lat="42.59966" lon="-71.02388"><ele>40</ele></trkpt>      <trkpt lat="42.59964" lon="-71.02362"><ele>39</ele></trkpt>      <trkpt lat="42.59962" lon="-71.02346"><ele>38</ele></trkpt>      <trkpt lat="42.59957" lon="-71.02322"><ele>38</ele></trkpt>      <trkpt lat="42.59950" lon="-71.02295"><ele>38</ele></trkpt>      <trkpt lat="42.59945" lon="-71.02277"><ele>37</ele></trkpt>      <trkpt lat="42.59943" lon="-71.02266"><ele>37</ele></trkpt>      <trkpt lat="42.59943" lon="-71.02253"><ele>37</ele></trkpt>      <trkpt lat="42.59948" lon="-71.02244"><ele>37</ele></trkpt>      <trkpt lat="42.59936" lon="-71.02223"><ele>37</ele></trkpt>      <trkpt lat="42.59930" lon="-71.02213"><ele>37</ele></trkpt>      <trkpt lat="42.59922" lon="-71.02196"><ele>37</ele></trkpt>      <trkpt lat="42.59913" lon="-71.02181"><ele>37</ele></trkpt>      <trkpt lat="42.59903" lon="-71.02164"><ele>37</ele></trkpt>      <trkpt lat="42.59892" lon="-71.02145"><ele>37</ele></trkpt>      <trkpt lat="42.59877" lon="-71.02119"><ele>37</ele></trkpt>      <trkpt lat="42.59849" lon="-71.02068"><ele>36</ele></trkpt>      <trkpt lat="42.59842" lon="-71.02056"><ele>36</ele></trkpt>      <trkpt lat="42.59830" lon="-71.02034"><ele>35</ele></trkpt>      <trkpt lat="42.59822" lon="-71.02019"><ele>35</ele></trkpt>      <trkpt lat="42.59807" lon="-71.01993"><ele>36</ele></trkpt>      <trkpt lat="42.59783" lon="-71.01948"><ele>38</ele></trkpt>      <trkpt lat="42.59746" lon="-71.01884"><ele>38</ele></trkpt>      <trkpt lat="42.59703" lon="-71.01806"><ele>36</ele></trkpt>      <trkpt lat="42.59681" lon="-71.01771"><ele>36</ele></trkpt>      <trkpt lat="42.59676" lon="-71.01763"><ele>35</ele></trkpt>      <trkpt lat="42.59565" lon="-71.01630"><ele>29</ele></trkpt>      <trkpt lat="42.59533" lon="-71.01595"><ele>28</ele></trkpt>      <trkpt lat="42.59520" lon="-71.01583"><ele>28</ele></trkpt>      <trkpt lat="42.59506" lon="-71.01571"><ele>27</ele></trkpt>      <trkpt lat="42.59491" lon="-71.01560"><ele>27</ele></trkpt>      <trkpt lat="42.59466" lon="-71.01546"><ele>25</ele></trkpt>      <trkpt lat="42.59443" lon="-71.01537"><ele>24</ele></trkpt>      <trkpt lat="42.59433" lon="-71.01533"><ele>23</ele></trkpt>      <trkpt lat="42.59416" lon="-71.01525"><ele>23</ele></trkpt>      <trkpt lat="42.59387" lon="-71.01514"><ele>24</ele></trkpt>      <trkpt lat="42.59369" lon="-71.01507"><ele>25</ele></trkpt>      <trkpt lat="42.59360" lon="-71.01502"><ele>26</ele></trkpt>      <trkpt lat="42.59341" lon="-71.01494"><ele>26</ele></trkpt>      <trkpt lat="42.59314" lon="-71.01478"><ele>27</ele></trkpt>      <trkpt lat="42.59296" lon="-71.01468"><ele>28</ele></trkpt>      <trkpt lat="42.59268" lon="-71.01522"><ele>28</ele></trkpt>      <trkpt lat="42.59257" lon="-71.01540"><ele>28</ele></trkpt>      <trkpt lat="42.59248" lon="-71.01556"><ele>28</ele></trkpt>      <trkpt lat="42.59238" lon="-71.01577"><ele>28</ele></trkpt>      <trkpt lat="42.59228" lon="-71.01602"><ele>29</ele></trkpt>      <trkpt lat="42.59215" lon="-71.01636"><ele>29</ele></trkpt>      <trkpt lat="42.59201" lon="-71.01676"><ele>29</ele></trkpt>      <trkpt lat="42.59188" lon="-71.01714"><ele>29</ele></trkpt>      <trkpt lat="42.59180" lon="-71.01733"><ele>29</ele></trkpt>      <trkpt lat="42.59176" lon="-71.01745"><ele>29</ele></trkpt>      <trkpt lat="42.59168" lon="-71.01768"><ele>29</ele></trkpt>      <trkpt lat="42.59155" lon="-71.01807"><ele>29</ele></trkpt>      <trkpt lat="42.59141" lon="-71.01844"><ele>29</ele></trkpt>      <trkpt lat="42.59120" lon="-71.01899"><ele>29</ele></trkpt>      <trkpt lat="42.59112" lon="-71.01917"><ele>29</ele></trkpt>      <trkpt lat="42.59104" lon="-71.01930"><ele>29</ele></trkpt>      <trkpt lat="42.59099" lon="-71.01940"><ele>29</ele></trkpt>      <trkpt lat="42.59084" lon="-71.01958"><ele>29</ele></trkpt>      <trkpt lat="42.59071" lon="-71.01972"><ele>29</ele></trkpt>      <trkpt lat="42.59054" lon="-71.01987"><ele>29</ele></trkpt>      <trkpt lat="42.59014" lon="-71.02023"><ele>28</ele></trkpt>      <trkpt lat="42.58990" lon="-71.02043"><ele>28</ele></trkpt>      <trkpt lat="42.58971" lon="-71.02059"><ele>28</ele></trkpt>      <trkpt lat="42.58946" lon="-71.02076"><ele>28</ele></trkpt>      <trkpt lat="42.58935" lon="-71.02082"><ele>28</ele></trkpt>      <trkpt lat="42.58919" lon="-71.02090"><ele>28</ele></trkpt>      <trkpt lat="42.58910" lon="-71.02094"><ele>28</ele></trkpt>      <trkpt lat="42.58891" lon="-71.02103"><ele>28</ele></trkpt>      <trkpt lat="42.58867" lon="-71.02112"><ele>28</ele></trkpt>      <trkpt lat="42.58847" lon="-71.02119"><ele>28</ele></trkpt>      <trkpt lat="42.58822" lon="-71.02126"><ele>28</ele></trkpt>      <trkpt lat="42.58796" lon="-71.02134"><ele>28</ele></trkpt>      <trkpt lat="42.58759" lon="-71.02145"><ele>28</ele></trkpt>      <trkpt lat="42.58730" lon="-71.02155"><ele>28</ele></trkpt>      <trkpt lat="42.58706" lon="-71.02166"><ele>29</ele></trkpt>      <trkpt lat="42.58688" lon="-71.02174"><ele>29</ele></trkpt>      <trkpt lat="42.58668" lon="-71.02183"><ele>29</ele></trkpt>      <trkpt lat="42.58647" lon="-71.02193"><ele>29</ele></trkpt>      <trkpt lat="42.58615" lon="-71.02208"><ele>29</ele></trkpt>      <trkpt lat="42.58593" lon="-71.02218"><ele>29</ele></trkpt>      <trkpt lat="42.58580" lon="-71.02222"><ele>29</ele></trkpt>      <trkpt lat="42.58570" lon="-71.02225"><ele>29</ele></trkpt>      <trkpt lat="42.58561" lon="-71.02227"><ele>30</ele></trkpt>      <trkpt lat="42.58542" lon="-71.02230"><ele>30</ele></trkpt>      <trkpt lat="42.58532" lon="-71.02231"><ele>30</ele></trkpt>      <trkpt lat="42.58521" lon="-71.02232"><ele>30</ele></trkpt>      <trkpt lat="42.58506" lon="-71.02233"><ele>30</ele></trkpt>      <trkpt lat="42.58485" lon="-71.02232"><ele>31</ele></trkpt>      <trkpt lat="42.58469" lon="-71.02229"><ele>32</ele></trkpt>      <trkpt lat="42.58454" lon="-71.02227"><ele>33</ele></trkpt>      <trkpt lat="42.58432" lon="-71.02222"><ele>34</ele></trkpt>      <trkpt lat="42.58416" lon="-71.02220"><ele>35</ele></trkpt>      <trkpt lat="42.58399" lon="-71.02219"><ele>36</ele></trkpt>      <trkpt lat="42.58378" lon="-71.02218"><ele>36</ele></trkpt>      <trkpt lat="42.58357" lon="-71.02219"><ele>36</ele></trkpt>      <trkpt lat="42.58335" lon="-71.02221"><ele>37</ele></trkpt>      <trkpt lat="42.58304" lon="-71.02224"><ele>37</ele></trkpt>      <trkpt lat="42.58272" lon="-71.02227"><ele>37</ele></trkpt>      <trkpt lat="42.58249" lon="-71.02232"><ele>38</ele></trkpt>      <trkpt lat="42.58232" lon="-71.02235"><ele>38</ele></trkpt>      <trkpt lat="42.58196" lon="-71.02248"><ele>39</ele></trkpt>      <trkpt lat="42.58174" lon="-71.02260"><ele>39</ele></trkpt>      <trkpt lat="42.58161" lon="-71.02268"><ele>38</ele></trkpt>      <trkpt lat="42.58140" lon="-71.02283"><ele>37</ele></trkpt>      <trkpt lat="42.58115" lon="-71.02302"><ele>34</ele></trkpt>      <trkpt lat="42.58098" lon="-71.02316"><ele>33</ele></trkpt>      <trkpt lat="42.58060" lon="-71.02345"><ele>31</ele></trkpt>      <trkpt lat="42.58036" lon="-71.02367"><ele>31</ele></trkpt>      <trkpt lat="42.58013" lon="-71.02386"><ele>30</ele></trkpt>      <trkpt lat="42.57989" lon="-71.02407"><ele>30</ele></trkpt>      <trkpt lat="42.57963" lon="-71.02437"><ele>30</ele></trkpt>      <trkpt lat="42.57936" lon="-71.02474"><ele>30</ele></trkpt>      <trkpt lat="42.57927" lon="-71.02486"><ele>30</ele></trkpt>      <trkpt lat="42.57868" lon="-71.02571"><ele>30</ele></trkpt>      <trkpt lat="42.57826" lon="-71.02641"><ele>30</ele></trkpt>      <trkpt lat="42.57812" lon="-71.02662"><ele>30</ele></trkpt>      <trkpt lat="42.57804" lon="-71.02673"><ele>30</ele></trkpt>      <trkpt lat="42.57777" lon="-71.02706"><ele>30</ele></trkpt>      <trkpt lat="42.57763" lon="-71.02720"><ele>30</ele></trkpt>      <trkpt lat="42.57746" lon="-71.02733"><ele>30</ele></trkpt>      <trkpt lat="42.57717" lon="-71.02753"><ele>31</ele></trkpt>      <trkpt lat="42.57693" lon="-71.02765"><ele>31</ele></trkpt>      <trkpt lat="42.57666" lon="-71.02773"><ele>31</ele></trkpt>      <trkpt lat="42.57651" lon="-71.02776"><ele>32</ele></trkpt>      <trkpt lat="42.57635" lon="-71.02779"><ele>32</ele></trkpt>      <trkpt lat="42.57594" lon="-71.02781"><ele>35</ele></trkpt>      <trkpt lat="42.57581" lon="-71.02780"><ele>35</ele></trkpt>      <trkpt lat="42.57561" lon="-71.02780"><ele>35</ele></trkpt>      <trkpt lat="42.57541" lon="-71.02779"><ele>35</ele></trkpt>      <trkpt lat="42.57529" lon="-71.02779"><ele>34</ele></trkpt>      <trkpt lat="42.57502" lon="-71.02781"><ele>33</ele></trkpt>      <trkpt lat="42.57473" lon="-71.02787"><ele>31</ele></trkpt>      <trkpt lat="42.57447" lon="-71.02796"><ele>29</ele></trkpt>      <trkpt lat="42.57425" lon="-71.02807"><ele>28</ele></trkpt>      <trkpt lat="42.57366" lon="-71.02837"><ele>23</ele></trkpt>      <trkpt lat="42.57303" lon="-71.02867"><ele>22</ele></trkpt>      <trkpt lat="42.57272" lon="-71.02882"><ele>22</ele></trkpt>      <trkpt lat="42.57248" lon="-71.02895"><ele>22</ele></trkpt>      <trkpt lat="42.57235" lon="-71.02902"><ele>22</ele></trkpt>      <trkpt lat="42.57202" lon="-71.02918"><ele>22</ele></trkpt>      <trkpt lat="42.57180" lon="-71.02928"><ele>22</ele></trkpt>      <trkpt lat="42.57164" lon="-71.02936"><ele>22</ele></trkpt>      <trkpt lat="42.57142" lon="-71.02943"><ele>21</ele></trkpt>      <trkpt lat="42.57123" lon="-71.02947"><ele>19</ele></trkpt>      <trkpt lat="42.57106" lon="-71.02948"><ele>18</ele></trkpt>      <trkpt lat="42.57092" lon="-71.02948"><ele>18</ele></trkpt>      <trkpt lat="42.57078" lon="-71.02945"><ele>17</ele></trkpt>      <trkpt lat="42.57050" lon="-71.02938"><ele>16</ele></trkpt>      <trkpt lat="42.57016" lon="-71.02925"><ele>14</ele></trkpt>      <trkpt lat="42.57006" lon="-71.02922"><ele>14</ele></trkpt>      <trkpt lat="42.56991" lon="-71.02916"><ele>14</ele></trkpt>      <trkpt lat="42.56979" lon="-71.02913"><ele>15</ele></trkpt>      <trkpt lat="42.56965" lon="-71.02911"><ele>15</ele></trkpt>      <trkpt lat="42.56952" lon="-71.02913"><ele>16</ele></trkpt>      <trkpt lat="42.56937" lon="-71.02917"><ele>17</ele></trkpt>      <trkpt lat="42.56924" lon="-71.02920"><ele>17</ele></trkpt>      <trkpt lat="42.56907" lon="-71.02927"><ele>18</ele></trkpt>      <trkpt lat="42.56898" lon="-71.02933"><ele>19</ele></trkpt>      <trkpt lat="42.56884" lon="-71.02944"><ele>20</ele></trkpt>      <trkpt lat="42.56873" lon="-71.02953"><ele>20</ele></trkpt>      <trkpt lat="42.56863" lon="-71.02967"><ele>21</ele></trkpt>      <trkpt lat="42.56852" lon="-71.02983"><ele>22</ele></trkpt>      <trkpt lat="42.56837" lon="-71.03013"><ele>23</ele></trkpt>      <trkpt lat="42.56823" lon="-71.03044"><ele>23</ele></trkpt>      <trkpt lat="42.56818" lon="-71.03054"><ele>23</ele></trkpt>      <trkpt lat="42.56810" lon="-71.03069"><ele>23</ele></trkpt>      <trkpt lat="42.56795" lon="-71.03101"><ele>24</ele></trkpt>      <trkpt lat="42.56779" lon="-71.03126"><ele>24</ele></trkpt>      <trkpt lat="42.56768" lon="-71.03140"><ele>25</ele></trkpt>      <trkpt lat="42.56745" lon="-71.03172"><ele>26</ele></trkpt>      <trkpt lat="42.56735" lon="-71.03184"><ele>26</ele></trkpt>      <trkpt lat="42.56689" lon="-71.03250"><ele>28</ele></trkpt>      <trkpt lat="42.56679" lon="-71.03263"><ele>28</ele></trkpt>      <trkpt lat="42.56638" lon="-71.03320"><ele>32</ele></trkpt>      <trkpt lat="42.56612" lon="-71.03356"><ele>34</ele></trkpt>      <trkpt lat="42.56547" lon="-71.03447"><ele>41</ele></trkpt>      <trkpt lat="42.56536" lon="-71.03462"><ele>42</ele></trkpt>      <trkpt lat="42.56525" lon="-71.03478"><ele>43</ele></trkpt>      <trkpt lat="42.56475" lon="-71.03553"><ele>46</ele></trkpt>      <trkpt lat="42.56392" lon="-71.03678"><ele>50</ele></trkpt>      <trkpt lat="42.56363" lon="-71.03722"><ele>51</ele></trkpt>      <trkpt lat="42.56353" lon="-71.03738"><ele>51</ele></trkpt>      <trkpt lat="42.56317" lon="-71.03784"><ele>51</ele></trkpt>      <trkpt lat="42.56309" lon="-71.03795"><ele>51</ele></trkpt>      <trkpt lat="42.56257" lon="-71.03857"><ele>46</ele></trkpt>      <trkpt lat="42.56231" lon="-71.03888"><ele>44</ele></trkpt>      <trkpt lat="42.56202" lon="-71.03924"><ele>41</ele></trkpt>      <trkpt lat="42.56188" lon="-71.03939"><ele>39</ele></trkpt>      <trkpt lat="42.56165" lon="-71.03956"><ele>38</ele></trkpt>      <trkpt lat="42.56137" lon="-71.03970"><ele>36</ele></trkpt>      <trkpt lat="42.56115" lon="-71.03977"><ele>36</ele></trkpt>      <trkpt lat="42.56070" lon="-71.03997"><ele>34</ele></trkpt>      <trkpt lat="42.56022" lon="-71.04019"><ele>33</ele></trkpt>      <trkpt lat="42.55896" lon="-71.04074"><ele>32</ele></trkpt>      <trkpt lat="42.55884" lon="-71.04081"><ele>32</ele></trkpt>      <trkpt lat="42.55873" lon="-71.04087"><ele>31</ele></trkpt>      <trkpt lat="42.55831" lon="-71.04109"><ele>31</ele></trkpt>      <trkpt lat="42.55782" lon="-71.04132"><ele>31</ele></trkpt>      <trkpt lat="42.55768" lon="-71.04136"><ele>31</ele></trkpt>      <trkpt lat="42.55756" lon="-71.04139"><ele>31</ele></trkpt>      <trkpt lat="42.55735" lon="-71.04146"><ele>32</ele></trkpt>      <trkpt lat="42.55701" lon="-71.04160"><ele>32</ele></trkpt>      <trkpt lat="42.55692" lon="-71.04166"><ele>32</ele></trkpt>      <trkpt lat="42.55676" lon="-71.04176"><ele>32</ele></trkpt>      <trkpt lat="42.55644" lon="-71.04193"><ele>32</ele></trkpt>      <trkpt lat="42.55632" lon="-71.04200"><ele>32</ele></trkpt>      <trkpt lat="42.55563" lon="-71.04242"><ele>33</ele></trkpt>      <trkpt lat="42.55525" lon="-71.04264"><ele>34</ele></trkpt>      <trkpt lat="42.55516" lon="-71.04270"><ele>34</ele></trkpt>      <trkpt lat="42.55492" lon="-71.04280"><ele>34</ele></trkpt>      <trkpt lat="42.55467" lon="-71.04292"><ele>35</ele></trkpt>      <trkpt lat="42.55450" lon="-71.04298"><ele>35</ele></trkpt>      <trkpt lat="42.55435" lon="-71.04302"><ele>36</ele></trkpt>      <trkpt lat="42.55425" lon="-71.04302"><ele>37</ele></trkpt>      <trkpt lat="42.55403" lon="-71.04301"><ele>37</ele></trkpt>      <trkpt lat="42.55394" lon="-71.04301"><ele>38</ele></trkpt>      <trkpt lat="42.55330" lon="-71.04302"><ele>39</ele></trkpt>      <trkpt lat="42.55278" lon="-71.04303"><ele>40</ele></trkpt>      <trkpt lat="42.55238" lon="-71.04304"><ele>40</ele></trkpt>      <trkpt lat="42.55206" lon="-71.04301"><ele>40</ele></trkpt>      <trkpt lat="42.55187" lon="-71.04300"><ele>41</ele></trkpt>      <trkpt lat="42.55174" lon="-71.04297"><ele>41</ele></trkpt>      <trkpt lat="42.55155" lon="-71.04293"><ele>41</ele></trkpt>      <trkpt lat="42.55143" lon="-71.04288"><ele>41</ele></trkpt>      <trkpt lat="42.55133" lon="-71.04285"><ele>41</ele></trkpt>      <trkpt lat="42.55122" lon="-71.04279"><ele>41</ele></trkpt>      <trkpt lat="42.55113" lon="-71.04274"><ele>41</ele></trkpt>      <trkpt lat="42.55102" lon="-71.04266"><ele>41</ele></trkpt>      <trkpt lat="42.55062" lon="-71.04234"><ele>41</ele></trkpt>      <trkpt lat="42.55038" lon="-71.04215"><ele>41</ele></trkpt>      <trkpt lat="42.54989" lon="-71.04172"><ele>41</ele></trkpt>      <trkpt lat="42.54945" lon="-71.04133"><ele>41</ele></trkpt>      <trkpt lat="42.54925" lon="-71.04118"><ele>41</ele></trkpt>      <trkpt lat="42.54914" lon="-71.04109"><ele>41</ele></trkpt>      <trkpt lat="42.54898" lon="-71.04096"><ele>41</ele></trkpt>      <trkpt lat="42.54879" lon="-71.04086"><ele>41</ele></trkpt>      <trkpt lat="42.54870" lon="-71.04081"><ele>41</ele></trkpt>      <trkpt lat="42.54849" lon="-71.04073"><ele>40</ele></trkpt>      <trkpt lat="42.54839" lon="-71.04069"><ele>40</ele></trkpt>      <trkpt lat="42.54818" lon="-71.04060"><ele>40</ele></trkpt>      <trkpt lat="42.54785" lon="-71.04048"><ele>40</ele></trkpt>      <trkpt lat="42.54764" lon="-71.04039"><ele>39</ele></trkpt>      <trkpt lat="42.54741" lon="-71.04028"><ele>39</ele></trkpt>      <trkpt lat="42.54732" lon="-71.04025"><ele>39</ele></trkpt>      <trkpt lat="42.54720" lon="-71.04021"><ele>39</ele></trkpt>      <trkpt lat="42.54710" lon="-71.04018"><ele>39</ele></trkpt>      <trkpt lat="42.54700" lon="-71.04015"><ele>39</ele></trkpt>      <trkpt lat="42.54692" lon="-71.04013"><ele>38</ele></trkpt>      <trkpt lat="42.54683" lon="-71.04012"><ele>38</ele></trkpt>      <trkpt lat="42.54668" lon="-71.04011"><ele>37</ele></trkpt>      <trkpt lat="42.54657" lon="-71.04010"><ele>36</ele></trkpt>      <trkpt lat="42.54648" lon="-71.04011"><ele>35</ele></trkpt>      <trkpt lat="42.54638" lon="-71.04012"><ele>35</ele></trkpt>      <trkpt lat="42.54628" lon="-71.04014"><ele>34</ele></trkpt>      <trkpt lat="42.54618" lon="-71.04016"><ele>33</ele></trkpt>      <trkpt lat="42.54606" lon="-71.04020"><ele>32</ele></trkpt>      <trkpt lat="42.54590" lon="-71.04027"><ele>32</ele></trkpt>      <trkpt lat="42.54578" lon="-71.04033"><ele>32</ele></trkpt>      <trkpt lat="42.54570" lon="-71.04038"><ele>32</ele></trkpt>      <trkpt lat="42.54563" lon="-71.04043"><ele>32</ele></trkpt>      <trkpt lat="42.54555" lon="-71.04049"><ele>32</ele></trkpt>      <trkpt lat="42.54543" lon="-71.04059"><ele>31</ele></trkpt>      <trkpt lat="42.54531" lon="-71.04072"><ele>31</ele></trkpt>      <trkpt lat="42.54524" lon="-71.04080"><ele>31</ele></trkpt>      <trkpt lat="42.54516" lon="-71.04089"><ele>31</ele></trkpt>      <trkpt lat="42.54506" lon="-71.04101"><ele>31</ele></trkpt>      <trkpt lat="42.54499" lon="-71.04112"><ele>31</ele></trkpt>      <trkpt lat="42.54492" lon="-71.04122"><ele>31</ele></trkpt>      <trkpt lat="42.54474" lon="-71.04149"><ele>31</ele></trkpt>      <trkpt lat="42.54459" lon="-71.04176"><ele>31</ele></trkpt>      <trkpt lat="42.54451" lon="-71.04190"><ele>31</ele></trkpt>      <trkpt lat="42.54423" lon="-71.04237"><ele>31</ele></trkpt>      <trkpt lat="42.54417" lon="-71.04248"><ele>31</ele></trkpt>      <trkpt lat="42.54411" lon="-71.04259"><ele>31</ele></trkpt>      <trkpt lat="42.54391" lon="-71.04296"><ele>31</ele></trkpt>      <trkpt lat="42.54380" lon="-71.04316"><ele>31</ele></trkpt>      <trkpt lat="42.54364" lon="-71.04347"><ele>31</ele></trkpt>      <trkpt lat="42.54359" lon="-71.04355"><ele>31</ele></trkpt>      <trkpt lat="42.54327" lon="-71.04411"><ele>31</ele></trkpt>      <trkpt lat="42.54319" lon="-71.04422"><ele>31</ele></trkpt>      <trkpt lat="42.54298" lon="-71.04455"><ele>31</ele></trkpt>      <trkpt lat="42.54277" lon="-71.04485"><ele>31</ele></trkpt>      <trkpt lat="42.54262" lon="-71.04510"><ele>31</ele></trkpt>      <trkpt lat="42.54248" lon="-71.04529"><ele>31</ele></trkpt>      <trkpt lat="42.54220" lon="-71.04571"><ele>31</ele></trkpt>      <trkpt lat="42.54197" lon="-71.04605"><ele>30</ele></trkpt>      <trkpt lat="42.54172" lon="-71.04641"><ele>30</ele></trkpt>      <trkpt lat="42.54145" lon="-71.04680"><ele>30</ele></trkpt>      <trkpt lat="42.54128" lon="-71.04706"><ele>30</ele></trkpt>      <trkpt lat="42.54109" lon="-71.04731"><ele>29</ele></trkpt>      <trkpt lat="42.54089" lon="-71.04760"><ele>28</ele></trkpt>      <trkpt lat="42.54063" lon="-71.04800"><ele>28</ele></trkpt>      <trkpt lat="42.54056" lon="-71.04812"><ele>27</ele></trkpt>      <trkpt lat="42.54037" lon="-71.04836"><ele>27</ele></trkpt>      <trkpt lat="42.54025" lon="-71.04854"><ele>26</ele></trkpt>      <trkpt lat="42.54013" lon="-71.04871"><ele>26</ele></trkpt>      <trkpt lat="42.54004" lon="-71.04881"><ele>26</ele></trkpt>      <trkpt lat="42.53986" lon="-71.04902"><ele>26</ele></trkpt>      <trkpt lat="42.53978" lon="-71.04913"><ele>26</ele></trkpt>      <trkpt lat="42.53971" lon="-71.04921"><ele>25</ele></trkpt>      <trkpt lat="42.53951" lon="-71.04946"><ele>25</ele></trkpt>      <trkpt lat="42.53940" lon="-71.04963"><ele>25</ele></trkpt>      <trkpt lat="42.53928" lon="-71.04983"><ele>25</ele></trkpt>      <trkpt lat="42.53919" lon="-71.05009"><ele>25</ele></trkpt>      <trkpt lat="42.53910" lon="-71.05033"><ele>25</ele></trkpt>      <trkpt lat="42.53905" lon="-71.05045"><ele>25</ele></trkpt>      <trkpt lat="42.53899" lon="-71.05064"><ele>25</ele></trkpt>      <trkpt lat="42.53885" lon="-71.05100"><ele>25</ele></trkpt>      <trkpt lat="42.53866" lon="-71.05143"><ele>25</ele></trkpt>      <trkpt lat="42.53848" lon="-71.05184"><ele>25</ele></trkpt>      <trkpt lat="42.53827" lon="-71.05230"><ele>25</ele></trkpt>      <trkpt lat="42.53810" lon="-71.05270"><ele>24</ele></trkpt>      <trkpt lat="42.53806" lon="-71.05279"><ele>24</ele></trkpt>      <trkpt lat="42.53789" lon="-71.05318"><ele>24</ele></trkpt>      <trkpt lat="42.53776" lon="-71.05349"><ele>24</ele></trkpt>      <trkpt lat="42.53770" lon="-71.05364"><ele>24</ele></trkpt>      <trkpt lat="42.53762" lon="-71.05383"><ele>24</ele></trkpt>      <trkpt lat="42.53753" lon="-71.05402"><ele>24</ele></trkpt>      <trkpt lat="42.53742" lon="-71.05429"><ele>24</ele></trkpt>      <trkpt lat="42.53727" lon="-71.05461"><ele>24</ele></trkpt>      <trkpt lat="42.53717" lon="-71.05479"><ele>24</ele></trkpt>      <trkpt lat="42.53702" lon="-71.05505"><ele>24</ele></trkpt>      <trkpt lat="42.53682" lon="-71.05533"><ele>23</ele></trkpt>      <trkpt lat="42.53663" lon="-71.05555"><ele>23</ele></trkpt>      <trkpt lat="42.53641" lon="-71.05580"><ele>23</ele></trkpt>      <trkpt lat="42.53623" lon="-71.05598"><ele>23</ele></trkpt>      <trkpt lat="42.53609" lon="-71.05613"><ele>23</ele></trkpt>      <trkpt lat="42.53599" lon="-71.05624"><ele>23</ele></trkpt>      <trkpt lat="42.53576" lon="-71.05648"><ele>23</ele></trkpt>      <trkpt lat="42.53558" lon="-71.05672"><ele>23</ele></trkpt>      <trkpt lat="42.53549" lon="-71.05689"><ele>24</ele></trkpt>      <trkpt lat="42.53537" lon="-71.05714"><ele>24</ele></trkpt>      <trkpt lat="42.53524" lon="-71.05745"><ele>24</ele></trkpt>      <trkpt lat="42.53506" lon="-71.05792"><ele>24</ele></trkpt>      <trkpt lat="42.53499" lon="-71.05813"><ele>24</ele></trkpt>      <trkpt lat="42.53493" lon="-71.05829"><ele>24</ele></trkpt>      <trkpt lat="42.53475" lon="-71.05869"><ele>25</ele></trkpt>      <trkpt lat="42.53452" lon="-71.05909"><ele>25</ele></trkpt>      <trkpt lat="42.53434" lon="-71.05934"><ele>25</ele></trkpt>      <trkpt lat="42.53428" lon="-71.05942"><ele>26</ele></trkpt>      <trkpt lat="42.53419" lon="-71.05955"><ele>26</ele></trkpt>      <trkpt lat="42.53397" lon="-71.05980"><ele>26</ele></trkpt>      <trkpt lat="42.53384" lon="-71.05996"><ele>26</ele></trkpt>      <trkpt lat="42.53378" lon="-71.06003"><ele>26</ele></trkpt>      <trkpt lat="42.53356" lon="-71.06031"><ele>26</ele></trkpt>      <trkpt lat="42.53349" lon="-71.06041"><ele>27</ele></trkpt>      <trkpt lat="42.53340" lon="-71.06052"><ele>27</ele></trkpt>      <trkpt lat="42.53332" lon="-71.06063"><ele>27</ele></trkpt>      <trkpt lat="42.53313" lon="-71.06086"><ele>27</ele></trkpt>      <trkpt lat="42.53305" lon="-71.06096"><ele>27</ele></trkpt>      <trkpt lat="42.53287" lon="-71.06120"><ele>28</ele></trkpt>      <trkpt lat="42.53272" lon="-71.06140"><ele>28</ele></trkpt>      <trkpt lat="42.53259" lon="-71.06161"><ele>28</ele></trkpt>      <trkpt lat="42.53243" lon="-71.06194"><ele>28</ele></trkpt>      <trkpt lat="42.53223" lon="-71.06236"><ele>27</ele></trkpt>      <trkpt lat="42.53204" lon="-71.06274"><ele>27</ele></trkpt>      <trkpt lat="42.53180" lon="-71.06322"><ele>25</ele></trkpt>      <trkpt lat="42.53164" lon="-71.06352"><ele>25</ele></trkpt>      <trkpt lat="42.53146" lon="-71.06386"><ele>25</ele></trkpt>      <trkpt lat="42.53131" lon="-71.06409"><ele>25</ele></trkpt>      <trkpt lat="42.53113" lon="-71.06428"><ele>25</ele></trkpt>      <trkpt lat="42.53097" lon="-71.06440"><ele>25</ele></trkpt>      <trkpt lat="42.53084" lon="-71.06448"><ele>25</ele></trkpt>      <trkpt lat="42.53062" lon="-71.06456"><ele>25</ele></trkpt>      <trkpt lat="42.53041" lon="-71.06459"><ele>25</ele></trkpt>      <trkpt lat="42.53014" lon="-71.06463"><ele>25</ele></trkpt>      <trkpt lat="42.52978" lon="-71.06468"><ele>25</ele></trkpt>      <trkpt lat="42.52957" lon="-71.06472"><ele>25</ele></trkpt>      <trkpt lat="42.52927" lon="-71.06479"><ele>25</ele></trkpt>      <trkpt lat="42.52889" lon="-71.06494"><ele>25</ele></trkpt>      <trkpt lat="42.52854" lon="-71.06511"><ele>25</ele></trkpt>      <trkpt lat="42.52825" lon="-71.06528"><ele>25</ele></trkpt>      <trkpt lat="42.52790" lon="-71.06547"><ele>25</ele></trkpt>      <trkpt lat="42.52752" lon="-71.06569"><ele>25</ele></trkpt>      <trkpt lat="42.52728" lon="-71.06585"><ele>25</ele></trkpt>      <trkpt lat="42.52705" lon="-71.06599"><ele>25</ele></trkpt>      <trkpt lat="42.52687" lon="-71.06610"><ele>25</ele></trkpt>      <trkpt lat="42.52672" lon="-71.06618"><ele>25</ele></trkpt>      <trkpt lat="42.52658" lon="-71.06620"><ele>25</ele></trkpt>      <trkpt lat="42.52645" lon="-71.06620"><ele>25</ele></trkpt>      <trkpt lat="42.52626" lon="-71.06620"><ele>25</ele></trkpt>      <trkpt lat="42.52614" lon="-71.06618"><ele>25</ele></trkpt>      <trkpt lat="42.52602" lon="-71.06617"><ele>25</ele></trkpt>      <trkpt lat="42.52589" lon="-71.06614"><ele>25</ele></trkpt>      <trkpt lat="42.52577" lon="-71.06612"><ele>25</ele></trkpt>      <trkpt lat="42.52550" lon="-71.06605"><ele>25</ele></trkpt>      <trkpt lat="42.52539" lon="-71.06602"><ele>25</ele></trkpt>      <trkpt lat="42.52527" lon="-71.06598"><ele>25</ele></trkpt>      <trkpt lat="42.52493" lon="-71.06590"><ele>24</ele></trkpt>      <trkpt lat="42.52445" lon="-71.06576"><ele>24</ele></trkpt>      <trkpt lat="42.52431" lon="-71.06572"><ele>24</ele></trkpt>      <trkpt lat="42.52411" lon="-71.06567"><ele>24</ele></trkpt>      <trkpt lat="42.52395" lon="-71.06561"><ele>24</ele></trkpt>      <trkpt lat="42.52385" lon="-71.06557"><ele>24</ele></trkpt>      <trkpt lat="42.52374" lon="-71.06552"><ele>23</ele></trkpt>      <trkpt lat="42.52364" lon="-71.06545"><ele>23</ele></trkpt>      <trkpt lat="42.52352" lon="-71.06536"><ele>23</ele></trkpt>      <trkpt lat="42.52341" lon="-71.06527"><ele>23</ele></trkpt>      <trkpt lat="42.52316" lon="-71.06506"><ele>23</ele></trkpt>      <trkpt lat="42.52283" lon="-71.06477"><ele>23</ele></trkpt>      <trkpt lat="42.52246" lon="-71.06445"><ele>23</ele></trkpt>      <trkpt lat="42.52214" lon="-71.06419"><ele>23</ele></trkpt>      <trkpt lat="42.52190" lon="-71.06398"><ele>23</ele></trkpt>      <trkpt lat="42.52180" lon="-71.06391"><ele>23</ele></trkpt>      <trkpt lat="42.52169" lon="-71.06385"><ele>23</ele></trkpt>      <trkpt lat="42.52159" lon="-71.06380"><ele>23</ele></trkpt>      <trkpt lat="42.52151" lon="-71.06377"><ele>23</ele></trkpt>      <trkpt lat="42.52124" lon="-71.06365"><ele>23</ele></trkpt>      <trkpt lat="42.52101" lon="-71.06357"><ele>23</ele></trkpt>      <trkpt lat="42.52089" lon="-71.06354"><ele>23</ele></trkpt>      <trkpt lat="42.52072" lon="-71.06353"><ele>23</ele></trkpt>      <trkpt lat="42.52049" lon="-71.06353"><ele>23</ele></trkpt>      <trkpt lat="42.52025" lon="-71.06353"><ele>23</ele></trkpt>      <trkpt lat="42.52005" lon="-71.06353"><ele>23</ele></trkpt>      <trkpt lat="42.51989" lon="-71.06353"><ele>23</ele></trkpt>      <trkpt lat="42.51968" lon="-71.06354"><ele>23</ele></trkpt>      <trkpt lat="42.51957" lon="-71.06354"><ele>23</ele></trkpt>      <trkpt lat="42.51943" lon="-71.06355"><ele>23</ele></trkpt>      <trkpt lat="42.51908" lon="-71.06358"><ele>23</ele></trkpt>      <trkpt lat="42.51887" lon="-71.06359"><ele>23</ele></trkpt>      <trkpt lat="42.51877" lon="-71.06361"><ele>23</ele></trkpt>      <trkpt lat="42.51866" lon="-71.06364"><ele>23</ele></trkpt>      <trkpt lat="42.51855" lon="-71.06367"><ele>22</ele></trkpt>      <trkpt lat="42.51838" lon="-71.06374"><ele>22</ele></trkpt>      <trkpt lat="42.51828" lon="-71.06378"><ele>22</ele></trkpt>      <trkpt lat="42.51818" lon="-71.06383"><ele>22</ele></trkpt>      <trkpt lat="42.51810" lon="-71.06387"><ele>22</ele></trkpt>      <trkpt lat="42.51790" lon="-71.06399"><ele>22</ele></trkpt>      <trkpt lat="42.51759" lon="-71.06415"><ele>21</ele></trkpt>      <trkpt lat="42.51729" lon="-71.06429"><ele>21</ele></trkpt>      <trkpt lat="42.51718" lon="-71.06437"><ele>21</ele></trkpt>      <trkpt lat="42.51708" lon="-71.06444"><ele>21</ele></trkpt>      <trkpt lat="42.51699" lon="-71.06452"><ele>21</ele></trkpt>      <trkpt lat="42.51664" lon="-71.06482"><ele>21</ele></trkpt>      <trkpt lat="42.51640" lon="-71.06507"><ele>21</ele></trkpt>      <trkpt lat="42.51628" lon="-71.06521"><ele>21</ele></trkpt>      <trkpt lat="42.51607" lon="-71.06546"><ele>21</ele></trkpt>      <trkpt lat="42.51600" lon="-71.06554"><ele>21</ele></trkpt>      <trkpt lat="42.51593" lon="-71.06561"><ele>21</ele></trkpt>      <trkpt lat="42.51580" lon="-71.06572"><ele>21</ele></trkpt>      <trkpt lat="42.51569" lon="-71.06579"><ele>21</ele></trkpt>      <trkpt lat="42.51555" lon="-71.06586"><ele>21</ele></trkpt>      <trkpt lat="42.51541" lon="-71.06591"><ele>21</ele></trkpt>      <trkpt lat="42.51522" lon="-71.06597"><ele>21</ele></trkpt>      <trkpt lat="42.51496" lon="-71.06605"><ele>21</ele></trkpt>      <trkpt lat="42.51481" lon="-71.06610"><ele>21</ele></trkpt>      <trkpt lat="42.51466" lon="-71.06614"><ele>21</ele></trkpt>      <trkpt lat="42.51457" lon="-71.06616"><ele>20</ele></trkpt>      <trkpt lat="42.51446" lon="-71.06619"><ele>20</ele></trkpt>      <trkpt lat="42.51434" lon="-71.06621"><ele>20</ele></trkpt>      <trkpt lat="42.51420" lon="-71.06622"><ele>20</ele></trkpt>      <trkpt lat="42.51412" lon="-71.06623"><ele>20</ele></trkpt>      <trkpt lat="42.51386" lon="-71.06626"><ele>20</ele></trkpt>      <trkpt lat="42.51373" lon="-71.06629"><ele>20</ele></trkpt>      <trkpt lat="42.51351" lon="-71.06633"><ele>20</ele></trkpt>      <trkpt lat="42.51338" lon="-71.06636"><ele>20</ele></trkpt>      <trkpt lat="42.51325" lon="-71.06641"><ele>20</ele></trkpt>      <trkpt lat="42.51316" lon="-71.06645"><ele>20</ele></trkpt>      <trkpt lat="42.51306" lon="-71.06649"><ele>20</ele></trkpt>      <trkpt lat="42.51296" lon="-71.06653"><ele>20</ele></trkpt>      <trkpt lat="42.51280" lon="-71.06660"><ele>20</ele></trkpt>      <trkpt lat="42.51267" lon="-71.06663"><ele>20</ele></trkpt>      <trkpt lat="42.51252" lon="-71.06665"><ele>20</ele></trkpt>      <trkpt lat="42.51239" lon="-71.06665"><ele>20</ele></trkpt>      <trkpt lat="42.51225" lon="-71.06662"><ele>20</ele></trkpt>      <trkpt lat="42.51216" lon="-71.06659"><ele>20</ele></trkpt>      <trkpt lat="42.51206" lon="-71.06656"><ele>20</ele></trkpt>      <trkpt lat="42.51197" lon="-71.06653"><ele>20</ele></trkpt>      <trkpt lat="42.51183" lon="-71.06649"><ele>20</ele></trkpt>      <trkpt lat="42.51118" lon="-71.06629"><ele>20</ele></trkpt>      <trkpt lat="42.51105" lon="-71.06624"><ele>20</ele></trkpt>      <trkpt lat="42.51094" lon="-71.06619"><ele>20</ele></trkpt>      <trkpt lat="42.51084" lon="-71.06614"><ele>20</ele></trkpt>      <trkpt lat="42.51069" lon="-71.06615"><ele>20</ele></trkpt>      <trkpt lat="42.51050" lon="-71.06616"><ele>20</ele></trkpt>      <trkpt lat="42.51042" lon="-71.06619"><ele>20</ele></trkpt>      <trkpt lat="42.51028" lon="-71.06612"><ele>20</ele></trkpt>      <trkpt lat="42.51010" lon="-71.06604"><ele>20</ele></trkpt>      <trkpt lat="42.51001" lon="-71.06599"><ele>20</ele></trkpt>      <trkpt lat="42.50978" lon="-71.06586"><ele>20</ele></trkpt>      <trkpt lat="42.50971" lon="-71.06581"><ele>20</ele></trkpt>      <trkpt lat="42.50946" lon="-71.06565"><ele>20</ele></trkpt>      <trkpt lat="42.50927" lon="-71.06553"><ele>20</ele></trkpt>      <trkpt lat="42.50913" lon="-71.06546"><ele>20</ele></trkpt>      <trkpt lat="42.50895" lon="-71.06542"><ele>19</ele></trkpt>      <trkpt lat="42.50878" lon="-71.06542"><ele>19</ele></trkpt>      <trkpt lat="42.50867" lon="-71.06542"><ele>19</ele></trkpt>      <trkpt lat="42.50856" lon="-71.06541"><ele>19</ele></trkpt>      <trkpt lat="42.50835" lon="-71.06540"><ele>19</ele></trkpt>      <trkpt lat="42.50817" lon="-71.06538"><ele>19</ele></trkpt>      <trkpt lat="42.50800" lon="-71.06536"><ele>19</ele></trkpt>      <trkpt lat="42.50779" lon="-71.06533"><ele>19</ele></trkpt>      <trkpt lat="42.50764" lon="-71.06531"><ele>19</ele></trkpt>      <trkpt lat="42.50756" lon="-71.06530"><ele>19</ele></trkpt>      <trkpt lat="42.50740" lon="-71.06529"><ele>19</ele></trkpt>      <trkpt lat="42.50720" lon="-71.06530"><ele>19</ele></trkpt>      <trkpt lat="42.50704" lon="-71.06532"><ele>20</ele></trkpt>      <trkpt lat="42.50690" lon="-71.06535"><ele>20</ele></trkpt>      <trkpt lat="42.50677" lon="-71.06538"><ele>20</ele></trkpt>      <trkpt lat="42.50658" lon="-71.06541"><ele>20</ele></trkpt>      <trkpt lat="42.50643" lon="-71.06543"><ele>20</ele></trkpt>      <trkpt lat="42.50621" lon="-71.06545"><ele>20</ele></trkpt>      <trkpt lat="42.50600" lon="-71.06548"><ele>21</ele></trkpt>      <trkpt lat="42.50572" lon="-71.06556"><ele>21</ele></trkpt>      <trkpt lat="42.50548" lon="-71.06565"><ele>21</ele></trkpt>      <trkpt lat="42.50541" lon="-71.06568"><ele>22</ele></trkpt>      <trkpt lat="42.50514" lon="-71.06580"><ele>22</ele></trkpt>      <trkpt lat="42.50502" lon="-71.06584"><ele>22</ele></trkpt>      <trkpt lat="42.50474" lon="-71.06596"><ele>23</ele></trkpt>      <trkpt lat="42.50462" lon="-71.06601"><ele>24</ele></trkpt>      <trkpt lat="42.50450" lon="-71.06607"><ele>24</ele></trkpt>      <trkpt lat="42.50438" lon="-71.06613"><ele>25</ele></trkpt>      <trkpt lat="42.50427" lon="-71.06620"><ele>25</ele></trkpt>      <trkpt lat="42.50414" lon="-71.06628"><ele>25</ele></trkpt>      <trkpt lat="42.50402" lon="-71.06636"><ele>25</ele></trkpt>      <trkpt lat="42.50361" lon="-71.06667"><ele>25</ele></trkpt>      <trkpt lat="42.50335" lon="-71.06687"><ele>25</ele></trkpt>      <trkpt lat="42.50326" lon="-71.06694"><ele>25</ele></trkpt>      <trkpt lat="42.50297" lon="-71.06716"><ele>26</ele></trkpt>      <trkpt lat="42.50282" lon="-71.06729"><ele>26</ele></trkpt>      <trkpt lat="42.50279" lon="-71.06744"><ele>26</ele></trkpt>      <trkpt lat="42.50277" lon="-71.06757"><ele>26</ele></trkpt>      <trkpt lat="42.50267" lon="-71.06809"><ele>27</ele></trkpt>      <trkpt lat="42.50257" lon="-71.06865"><ele>27</ele></trkpt>      <trkpt lat="42.50253" lon="-71.06887"><ele>27</ele></trkpt>      <trkpt lat="42.50252" lon="-71.06898"><ele>27</ele></trkpt>      <trkpt lat="42.50250" lon="-71.06909"><ele>27</ele></trkpt>      <trkpt lat="42.50245" lon="-71.06937"><ele>28</ele></trkpt>      <trkpt lat="42.50240" lon="-71.06956"><ele>28</ele></trkpt>      <trkpt lat="42.50236" lon="-71.06966"><ele>28</ele></trkpt>      <trkpt lat="42.50248" lon="-71.06972"><ele>28</ele></trkpt>      <trkpt lat="42.50259" lon="-71.06979"><ele>28</ele></trkpt>      <trkpt lat="42.50280" lon="-71.06994"><ele>28</ele></trkpt>      <trkpt lat="42.50344" lon="-71.07043"><ele>28</ele></trkpt>      <trkpt lat="42.50366" lon="-71.07059"><ele>29</ele></trkpt>      <trkpt lat="42.50401" lon="-71.07085"><ele>29</ele></trkpt>      <trkpt lat="42.50441" lon="-71.07113"><ele>29</ele></trkpt>      <trkpt lat="42.50449" lon="-71.07119"><ele>29</ele></trkpt>      <trkpt lat="42.50479" lon="-71.07133"><ele>29</ele></trkpt>      <trkpt lat="42.50510" lon="-71.07150"><ele>29</ele></trkpt>      <trkpt lat="42.50525" lon="-71.07159"><ele>30</ele></trkpt>      <trkpt lat="42.50542" lon="-71.07162"><ele>30</ele></trkpt>      <trkpt lat="42.50560" lon="-71.07167"><ele>30</ele></trkpt>      <trkpt lat="42.50578" lon="-71.07171"><ele>30</ele></trkpt>      <trkpt lat="42.50587" lon="-71.07172"><ele>30</ele></trkpt>      <trkpt lat="42.50595" lon="-71.07171"><ele>30</ele></trkpt>      <trkpt lat="42.50604" lon="-71.07170"><ele>29</ele></trkpt>      <trkpt lat="42.50613" lon="-71.07168"><ele>29</ele></trkpt>      <trkpt lat="42.50633" lon="-71.07164"><ele>29</ele></trkpt>      <trkpt lat="42.50668" lon="-71.07156"><ele>29</ele></trkpt>      <trkpt lat="42.50678" lon="-71.07153"><ele>29</ele></trkpt>      <trkpt lat="42.50690" lon="-71.07150"><ele>29</ele></trkpt>      <trkpt lat="42.50714" lon="-71.07144"><ele>29</ele></trkpt>      <trkpt lat="42.50727" lon="-71.07140"><ele>29</ele></trkpt>      <trkpt lat="42.50735" lon="-71.07139"><ele>29</ele></trkpt>      <trkpt lat="42.50748" lon="-71.07136"><ele>29</ele></trkpt>      <trkpt lat="42.50757" lon="-71.07133"><ele>29</ele></trkpt>      <trkpt lat="42.50772" lon="-71.07130"><ele>29</ele></trkpt>      <trkpt lat="42.50795" lon="-71.07124"><ele>29</ele></trkpt>      <trkpt lat="42.50781" lon="-71.07138"><ele>29</ele></trkpt>      <trkpt lat="42.50772" lon="-71.07152"><ele>29</ele></trkpt>      <trkpt lat="42.50753" lon="-71.07187"><ele>29</ele></trkpt>      <trkpt lat="42.50732" lon="-71.07229"><ele>29</ele></trkpt>      <trkpt lat="42.50726" lon="-71.07243"><ele>29</ele></trkpt>      <trkpt lat="42.50721" lon="-71.07255"><ele>29</ele></trkpt>      <trkpt lat="42.50717" lon="-71.07267"><ele>29</ele></trkpt>      <trkpt lat="42.50714" lon="-71.07278"><ele>29</ele></trkpt>      <trkpt lat="42.50709" lon="-71.07297"><ele>29</ele></trkpt>      <trkpt lat="42.50705" lon="-71.07311"><ele>29</ele></trkpt>      <trkpt lat="42.50702" lon="-71.07327"><ele>29</ele></trkpt>      <trkpt lat="42.50699" lon="-71.07341"><ele>29</ele></trkpt>      <trkpt lat="42.50695" lon="-71.07361"><ele>29</ele></trkpt>      <trkpt lat="42.50693" lon="-71.07375"><ele>29</ele></trkpt>      <trkpt lat="42.50689" lon="-71.07391"><ele>29</ele></trkpt>      <trkpt lat="42.50697" lon="-71.07411"><ele>28</ele></trkpt>      <trkpt lat="42.50689" lon="-71.07434"><ele>28</ele></trkpt>      <trkpt lat="42.50683" lon="-71.07450"><ele>28</ele></trkpt>      <trkpt lat="42.50679" lon="-71.07461"><ele>28</ele></trkpt>      <trkpt lat="42.50674" lon="-71.07476"><ele>28</ele></trkpt>      <trkpt lat="42.50666" lon="-71.07496"><ele>28</ele></trkpt>      <trkpt lat="42.50660" lon="-71.07509"><ele>28</ele></trkpt>      <trkpt lat="42.50652" lon="-71.07525"><ele>28</ele></trkpt>      <trkpt lat="42.50648" lon="-71.07535"><ele>28</ele></trkpt>      <trkpt lat="42.50641" lon="-71.07545"><ele>27</ele></trkpt>      <trkpt lat="42.50630" lon="-71.07561"><ele>27</ele></trkpt>      <trkpt lat="42.50621" lon="-71.07581"><ele>27</ele></trkpt>      <trkpt lat="42.50616" lon="-71.07596"><ele>27</ele></trkpt>      <trkpt lat="42.50617" lon="-71.07613"><ele>27</ele></trkpt>      <trkpt lat="42.50617" lon="-71.07626"><ele>27</ele></trkpt>      <trkpt lat="42.50619" lon="-71.07653"><ele>26</ele></trkpt>      <trkpt lat="42.50628" lon="-71.07679"><ele>26</ele></trkpt>      <trkpt lat="42.50633" lon="-71.07688"><ele>25</ele></trkpt>      <trkpt lat="42.50640" lon="-71.07703"><ele>25</ele></trkpt>      <trkpt lat="42.50648" lon="-71.07729"><ele>24</ele></trkpt>      <trkpt lat="42.50654" lon="-71.07744"><ele>24</ele></trkpt>      <trkpt lat="42.50660" lon="-71.07756"><ele>24</ele></trkpt>      <trkpt lat="42.50668" lon="-71.07771"><ele>24</ele></trkpt>      <trkpt lat="42.50672" lon="-71.07781"><ele>24</ele></trkpt>      <trkpt lat="42.50678" lon="-71.07794"><ele>24</ele></trkpt>      <trkpt lat="42.50683" lon="-71.07806"><ele>24</ele></trkpt>      <trkpt lat="42.50671" lon="-71.07809"><ele>24</ele></trkpt>      <trkpt lat="42.50662" lon="-71.07814"><ele>24</ele></trkpt>    </trkseg>  </trk></gpx>