<?xml version="1.0"?><gpx version="1.0" creator="cycle.travel"  xmlns:xsi="http://www.w3.org/2001/XMLSchema-instance"  xmlns="http://www.topografix.com/GPX/1/0"  xsi:schemaLocation="http://www.topografix.com/GPX/1/0 http://www.topografix.com/GPX/1/0/gpx.xsd">  <trk>    <name>Peabody + Salem</name>    <trkseg>      <trkpt lat="42.53910" lon="-70.94773" />      <trkpt lat="42.53904" lon="-70.94764" />      <trkpt lat="42.53893" lon="-70.94751" />      <trkpt lat="42.53880" lon="-70.94736" />      <trkpt lat="42.53872" lon="-70.94727" />      <trkpt lat="42.53863" lon="-70.94725" />      <trkpt lat="42.53849" lon="-70.94718" />      <trkpt lat="42.53833" lon="-70.94699" />      <trkpt lat="42.53822" lon="-70.94685" />      <trkpt lat="42.53809" lon="-70.94670" />      <trkpt lat="42.53797" lon="-70.94655" />      <trkpt lat="42.53788" lon="-70.94639" />      <trkpt lat="42.53783" lon="-70.94629" />      <trkpt lat="42.53774" lon="-70.94615" />      <trkpt lat="42.53727" lon="-70.94558" />      <trkpt lat="42.53714" lon="-70.94542" />      <trkpt lat="42.53694" lon="-70.94518" />      <trkpt lat="42.53699" lon="-70.94505" />      <trkpt lat="42.53747" lon="-70.94377" />      <trkpt lat="42.53760" lon="-70.94342" />      <trkpt lat="42.53747" lon="-70.94340" />      <trkpt lat="42.53700" lon="-70.94307" />      <trkpt lat="42.53704" lon="-70.94295" />      <trkpt lat="42.53724" lon="-70.94243" />      <trkpt lat="42.53732" lon="-70.94215" />      <trkpt lat="42.53734" lon="-70.94205" />      <trkpt lat="42.53736" lon="-70.94194" />      <trkpt lat="42.53737" lon="-70.94182" />      <trkpt lat="42.53736" lon="-70.94157" />      <trkpt lat="42.53732" lon="-70.94094" />      <trkpt lat="42.53730" lon="-70.94038" />      <trkpt lat="42.53726" lon="-70.94020" />      <trkpt lat="42.53728" lon="-70.93999" />      <trkpt lat="42.53734" lon="-70.93984" />      <trkpt lat="42.53751" lon="-70.93939" />      <trkpt lat="42.53759" lon="-70.93920" />      <trkpt lat="42.53764" lon="-70.93884" />      <trkpt lat="42.53750" lon="-70.93864" />      <trkpt lat="42.53760" lon="-70.93849" />      <trkpt lat="42.53820" lon="-70.93728" />      <trkpt lat="42.53826" lon="-70.93714" />      <trkpt lat="42.53822" lon="-70.93697" />      <trkpt lat="42.53802" lon="-70.93670" />      <trkpt lat="42.53788" lon="-70.93660" />      <trkpt lat="42.53768" lon="-70.93663" />      <trkpt lat="42.53767" lon="-70.93647" />      <trkpt lat="42.53761" lon="-70.93636" />      <trkpt lat="42.53727" lon="-70.93589" />      <trkpt lat="42.53664" lon="-70.93504" />      <trkpt lat="42.53655" lon="-70.93493" />      <trkpt lat="42.53644" lon="-70.93490" />      <trkpt lat="42.53622" lon="-70.93491" />      <trkpt lat="42.53620" lon="-70.93463" />      <trkpt lat="42.53619" lon="-70.93442" />      <trkpt lat="42.53618" lon="-70.93412" />      <trkpt lat="42.53616" lon="-70.93384" />      <trkpt lat="42.53617" lon="-70.93350" />      <trkpt lat="42.53617" lon="-70.93332" />      <trkpt lat="42.53623" lon="-70.93309" />      <trkpt lat="42.53614" lon="-70.93293" />      <trkpt lat="42.53609" lon="-70.93281" />      <trkpt lat="42.53602" lon="-70.93262" />      <trkpt lat="42.53587" lon="-70.93223" />      <trkpt lat="42.53578" lon="-70.93198" />      <trkpt lat="42.53569" lon="-70.93176" />      <trkpt lat="42.53562" lon="-70.93160" />      <trkpt lat="42.53545" lon="-70.93114" />      <trkpt lat="42.53525" lon="-70.93062" />      <trkpt lat="42.53519" lon="-70.93047" />      <trkpt lat="42.53515" lon="-70.93035" />      <trkpt lat="42.53507" lon="-70.93015" />      <trkpt lat="42.53487" lon="-70.92962" />      <trkpt lat="42.53475" lon="-70.92924" />      <trkpt lat="42.53465" lon="-70.92892" />      <trkpt lat="42.53460" lon="-70.92876" />      <trkpt lat="42.53456" lon="-70.92866" />      <trkpt lat="42.53450" lon="-70.92855" />      <trkpt lat="42.53435" lon="-70.92841" />      <trkpt lat="42.53407" lon="-70.92823" />      <trkpt lat="42.53395" lon="-70.92816" />      <trkpt lat="42.53378" lon="-70.92808" />      <trkpt lat="42.53361" lon="-70.92800" />      <trkpt lat="42.53326" lon="-70.92783" />      <trkpt lat="42.53310" lon="-70.92775" />      <trkpt lat="42.53294" lon="-70.92769" />      <trkpt lat="42.53281" lon="-70.92763" />      <trkpt lat="42.53266" lon="-70.92757" />      <trkpt lat="42.53245" lon="-70.92749" />      <trkpt lat="42.53234" lon="-70.92746" />      <trkpt lat="42.53225" lon="-70.92744" />      <trkpt lat="42.53213" lon="-70.92741" />      <trkpt lat="42.53204" lon="-70.92739" />      <trkpt lat="42.53182" lon="-70.92737" />      <trkpt lat="42.53166" lon="-70.92736" />      <trkpt lat="42.53153" lon="-70.92736" />      <trkpt lat="42.53120" lon="-70.92735" />      <trkpt lat="42.53105" lon="-70.92734" />      <trkpt lat="42.53085" lon="-70.92733" />      <trkpt lat="42.53070" lon="-70.92733" />      <trkpt lat="42.53056" lon="-70.92732" />      <trkpt lat="42.53046" lon="-70.92732" />      <trkpt lat="42.53035" lon="-70.92731" />      <trkpt lat="42.53027" lon="-70.92731" />      <trkpt lat="42.53013" lon="-70.92729" />      <trkpt lat="42.52992" lon="-70.92727" />      <trkpt lat="42.52978" lon="-70.92725" />      <trkpt lat="42.52937" lon="-70.92721" />      <trkpt lat="42.52923" lon="-70.92719" />      <trkpt lat="42.52915" lon="-70.92719" />      <trkpt lat="42.52906" lon="-70.92718" />      <trkpt lat="42.52896" lon="-70.92719" />      <trkpt lat="42.52887" lon="-70.92720" />      <trkpt lat="42.52871" lon="-70.92722" />      <trkpt lat="42.52857" lon="-70.92725" />      <trkpt lat="42.52845" lon="-70.92727" />      <trkpt lat="42.52835" lon="-70.92729" />      <trkpt lat="42.52817" lon="-70.92731" />      <trkpt lat="42.52798" lon="-70.92732" />      <trkpt lat="42.52781" lon="-70.92733" />      <trkpt lat="42.52766" lon="-70.92732" />      <trkpt lat="42.52752" lon="-70.92732" />      <trkpt lat="42.52734" lon="-70.92730" />      <trkpt lat="42.52719" lon="-70.92727" />      <trkpt lat="42.52719" lon="-70.92711" />      <trkpt lat="42.52716" lon="-70.92692" />      <trkpt lat="42.52710" lon="-70.92660" />      <trkpt lat="42.52693" lon="-70.92567" />      <trkpt lat="42.52682" lon="-70.92506" />      <trkpt lat="42.52668" lon="-70.92430" />      <trkpt lat="42.52654" lon="-70.92338" />      <trkpt lat="42.52646" lon="-70.92275" />      <trkpt lat="42.52643" lon="-70.92253" />      <trkpt lat="42.52637" lon="-70.92218" />      <trkpt lat="42.52632" lon="-70.92193" />      <trkpt lat="42.52627" lon="-70.92161" />      <trkpt lat="42.52623" lon="-70.92147" />      <trkpt lat="42.52620" lon="-70.92131" />      <trkpt lat="42.52615" lon="-70.92113" />      <trkpt lat="42.52611" lon="-70.92096" />      <trkpt lat="42.52607" lon="-70.92084" />      <trkpt lat="42.52603" lon="-70.92071" />      <trkpt lat="42.52597" lon="-70.92054" />      <trkpt lat="42.52589" lon="-70.92034" />      <trkpt lat="42.52584" lon="-70.92020" />      <trkpt lat="42.52579" lon="-70.92009" />      <trkpt lat="42.52566" lon="-70.91978" />      <trkpt lat="42.52559" lon="-70.91960" />      <trkpt lat="42.52549" lon="-70.91936" />      <trkpt lat="42.52543" lon="-70.91919" />      <trkpt lat="42.52533" lon="-70.91895" />      <trkpt lat="42.52526" lon="-70.91876" />      <trkpt lat="42.52517" lon="-70.91855" />      <trkpt lat="42.52512" lon="-70.91840" />      <trkpt lat="42.52507" lon="-70.91827" />      <trkpt lat="42.52501" lon="-70.91812" />      <trkpt lat="42.52495" lon="-70.91801" />      <trkpt lat="42.52487" lon="-70.91790" />      <trkpt lat="42.52479" lon="-70.91781" />      <trkpt lat="42.52451" lon="-70.91747" />      <trkpt lat="42.52439" lon="-70.91730" />      <trkpt lat="42.52433" lon="-70.91721" />      <trkpt lat="42.52423" lon="-70.91701" />      <trkpt lat="42.52419" lon="-70.91689" />      <trkpt lat="42.52415" lon="-70.91678" />      <trkpt lat="42.52411" lon="-70.91664" />      <trkpt lat="42.52406" lon="-70.91647" />      <trkpt lat="42.52343" lon="-70.91415" />      <trkpt lat="42.52339" lon="-70.91396" />      <trkpt lat="42.52335" lon="-70.91382" />      <trkpt lat="42.52333" lon="-70.91369" />      <trkpt lat="42.52331" lon="-70.91356" />      <trkpt lat="42.52329" lon="-70.91342" />      <trkpt lat="42.52328" lon="-70.91330" />      <trkpt lat="42.52327" lon="-70.91314" />      <trkpt lat="42.52324" lon="-70.91282" />      <trkpt lat="42.52322" lon="-70.91259" />      <trkpt lat="42.52320" lon="-70.91242" />      <trkpt lat="42.52317" lon="-70.91225" />      <trkpt lat="42.52312" lon="-70.91200" />      <trkpt lat="42.52308" lon="-70.91184" />      <trkpt lat="42.52305" lon="-70.91170" />      <trkpt lat="42.52301" lon="-70.91155" />      <trkpt lat="42.52298" lon="-70.91144" />      <trkpt lat="42.52291" lon="-70.91121" />      <trkpt lat="42.52285" lon="-70.91100" />      <trkpt lat="42.52275" lon="-70.91087" />      <trkpt lat="42.52262" lon="-70.91072" />      <trkpt lat="42.52239" lon="-70.91060" />      <trkpt lat="42.52218" lon="-70.91051" />      <trkpt lat="42.52203" lon="-70.91044" />      <trkpt lat="42.52195" lon="-70.91041" />      <trkpt lat="42.52178" lon="-70.91036" />      <trkpt lat="42.52170" lon="-70.91035" />      <trkpt lat="42.52160" lon="-70.91036" />      <trkpt lat="42.52151" lon="-70.91037" />      <trkpt lat="42.52132" lon="-70.91041" />      <trkpt lat="42.52102" lon="-70.90934" />      <trkpt lat="42.52091" lon="-70.90918" />      <trkpt lat="42.52080" lon="-70.90910" />      <trkpt lat="42.52067" lon="-70.90894" />      <trkpt lat="42.52044" lon="-70.90877" />      <trkpt lat="42.52028" lon="-70.90856" />      <trkpt lat="42.52017" lon="-70.90838" />      <trkpt lat="42.52023" lon="-70.90822" />      <trkpt lat="42.52033" lon="-70.90791" />      <trkpt lat="42.52080" lon="-70.90642" />      <trkpt lat="42.52087" lon="-70.90627" />      <trkpt lat="42.52100" lon="-70.90603" />      <trkpt lat="42.52112" lon="-70.90586" />      <trkpt lat="42.52121" lon="-70.90563" />      <trkpt lat="42.52132" lon="-70.90586" />      <trkpt lat="42.52144" lon="-70.90611" />      <trkpt lat="42.52150" lon="-70.90601" />      <trkpt lat="42.52155" lon="-70.90591" />      <trkpt lat="42.52162" lon="-70.90574" />      <trkpt lat="42.52171" lon="-70.90549" />      <trkpt lat="42.52181" lon="-70.90530" />      <trkpt lat="42.52196" lon="-70.90509" />      <trkpt lat="42.52202" lon="-70.90502" />      <trkpt lat="42.52212" lon="-70.90489" />      <trkpt lat="42.52219" lon="-70.90476" />      <trkpt lat="42.52224" lon="-70.90465" />      <trkpt lat="42.52231" lon="-70.90449" />      <trkpt lat="42.52235" lon="-70.90436" />      <trkpt lat="42.52239" lon="-70.90421" />      <trkpt lat="42.52243" lon="-70.90410" />      <trkpt lat="42.52248" lon="-70.90399" />      <trkpt lat="42.52256" lon="-70.90384" />      <trkpt lat="42.52267" lon="-70.90365" />      <trkpt lat="42.52276" lon="-70.90348" />      <trkpt lat="42.52283" lon="-70.90338" />      <trkpt lat="42.52295" lon="-70.90319" />      <trkpt lat="42.52305" lon="-70.90304" />      <trkpt lat="42.52316" lon="-70.90290" />      <trkpt lat="42.52323" lon="-70.90277" />      <trkpt lat="42.52329" lon="-70.90266" />      <trkpt lat="42.52334" lon="-70.90249" />      <trkpt lat="42.52336" lon="-70.90238" />      <trkpt lat="42.52339" lon="-70.90214" />      <trkpt lat="42.52342" lon="-70.90200" />      <trkpt lat="42.52345" lon="-70.90190" />      <trkpt lat="42.52352" lon="-70.90171" />      <trkpt lat="42.52365" lon="-70.90151" />      <trkpt lat="42.52374" lon="-70.90138" />      <trkpt lat="42.52385" lon="-70.90124" />      <trkpt lat="42.52393" lon="-70.90110" />      <trkpt lat="42.52398" lon="-70.90100" />      <trkpt lat="42.52406" lon="-70.90078" />      <trkpt lat="42.52410" lon="-70.90065" />      <trkpt lat="42.52413" lon="-70.90052" />      <trkpt lat="42.52416" lon="-70.90041" />      <trkpt lat="42.52418" lon="-70.90030" />      <trkpt lat="42.52426" lon="-70.90012" />      <trkpt lat="42.52424" lon="-70.89989" />      <trkpt lat="42.52425" lon="-70.89964" />      <trkpt lat="42.52417" lon="-70.89951" />      <trkpt lat="42.52417" lon="-70.89931" />      <trkpt lat="42.52411" lon="-70.89921" />      <trkpt lat="42.52415" lon="-70.89909" />      <trkpt lat="42.52420" lon="-70.89896" />      <trkpt lat="42.52433" lon="-70.89865" />      <trkpt lat="42.52437" lon="-70.89853" />      <trkpt lat="42.52446" lon="-70.89836" />      <trkpt lat="42.52434" lon="-70.89827" />      <trkpt lat="42.52452" lon="-70.89782" />      <trkpt lat="42.52452" lon="-70.89761" />      <trkpt lat="42.52446" lon="-70.89743" />      <trkpt lat="42.52435" lon="-70.89720" />      <trkpt lat="42.52423" lon="-70.89696" />      <trkpt lat="42.52414" lon="-70.89677" />      <trkpt lat="42.52411" lon="-70.89664" />      <trkpt lat="42.52405" lon="-70.89653" />      <trkpt lat="42.52399" lon="-70.89666" />      <trkpt lat="42.52396" lon="-70.89678" />      <trkpt lat="42.52397" lon="-70.89709" />      <trkpt lat="42.52389" lon="-70.89660" />      <trkpt lat="42.52389" lon="-70.89647" />      <trkpt lat="42.52390" lon="-70.89635" />      <trkpt lat="42.52392" lon="-70.89623" />      <trkpt lat="42.52398" lon="-70.89588" />      <trkpt lat="42.52416" lon="-70.89540" />      <trkpt lat="42.52437" lon="-70.89487" />      <trkpt lat="42.52442" lon="-70.89472" />      <trkpt lat="42.52447" lon="-70.89460" />      <trkpt lat="42.52452" lon="-70.89447" />      <trkpt lat="42.52457" lon="-70.89435" />      <trkpt lat="42.52461" lon="-70.89425" />      <trkpt lat="42.52471" lon="-70.89410" />      <trkpt lat="42.52477" lon="-70.89401" />      <trkpt lat="42.52487" lon="-70.89391" />      <trkpt lat="42.52495" lon="-70.89383" />      <trkpt lat="42.52503" lon="-70.89377" />      <trkpt lat="42.52516" lon="-70.89368" />      <trkpt lat="42.52534" lon="-70.89363" />      <trkpt lat="42.52552" lon="-70.89359" />      <trkpt lat="42.52551" lon="-70.89339" />      <trkpt lat="42.52565" lon="-70.89339" />      <trkpt lat="42.52579" lon="-70.89340" />      <trkpt lat="42.52594" lon="-70.89344" />      <trkpt lat="42.52624" lon="-70.89355" />      <trkpt lat="42.52677" lon="-70.89375" />      <trkpt lat="42.52700" lon="-70.89379" />      <trkpt lat="42.52724" lon="-70.89381" />      <trkpt lat="42.52738" lon="-70.89378" />      <trkpt lat="42.52747" lon="-70.89375" />      <trkpt lat="42.52768" lon="-70.89367" />      <trkpt lat="42.52824" lon="-70.89329" />      <trkpt lat="42.53078" lon="-70.89159" />      <trkpt lat="42.53168" lon="-70.89096" />      <trkpt lat="42.53193" lon="-70.89079" />      <trkpt lat="42.53224" lon="-70.89060" />      <trkpt lat="42.53247" lon="-70.89046" />      <trkpt lat="42.53269" lon="-70.89034" />      <trkpt lat="42.53294" lon="-70.89020" />      <trkpt lat="42.53346" lon="-70.88994" />      <trkpt lat="42.53367" lon="-70.88983" />      <trkpt lat="42.53407" lon="-70.88960" />      <trkpt lat="42.53419" lon="-70.88953" />      <trkpt lat="42.53534" lon="-70.88895" />      <trkpt lat="42.53649" lon="-70.88840" />      <trkpt lat="42.53661" lon="-70.88835" />      <trkpt lat="42.53680" lon="-70.88827" />      <trkpt lat="42.53709" lon="-70.88814" />      <trkpt lat="42.53729" lon="-70.88806" />      <trkpt lat="42.53981" lon="-70.88720" />      <trkpt lat="42.53994" lon="-70.88715" />      <trkpt lat="42.54007" lon="-70.88709" />      <trkpt lat="42.54019" lon="-70.88702" />      <trkpt lat="42.54030" lon="-70.88694" />      <trkpt lat="42.54042" lon="-70.88685" />      <trkpt lat="42.54054" lon="-70.88673" />      <trkpt lat="42.54066" lon="-70.88660" />      <trkpt lat="42.54076" lon="-70.88647" />      <trkpt lat="42.54083" lon="-70.88635" />      <trkpt lat="42.54096" lon="-70.88613" />      <trkpt lat="42.54123" lon="-70.88566" />      <trkpt lat="42.54129" lon="-70.88555" />      <trkpt lat="42.54137" lon="-70.88545" />      <trkpt lat="42.54144" lon="-70.88536" />      <trkpt lat="42.54154" lon="-70.88525" />      <trkpt lat="42.54162" lon="-70.88517" />      <trkpt lat="42.54180" lon="-70.88506" />      <trkpt lat="42.54191" lon="-70.88502" />      <trkpt lat="42.54206" lon="-70.88500" />      <trkpt lat="42.54218" lon="-70.88499" />      <trkpt lat="42.54229" lon="-70.88499" />      <trkpt lat="42.54278" lon="-70.88501" />      <trkpt lat="42.54331" lon="-70.88501" />      <trkpt lat="42.54401" lon="-70.88503" />      <trkpt lat="42.54411" lon="-70.88503" />      <trkpt lat="42.54423" lon="-70.88501" />      <trkpt lat="42.54477" lon="-70.88486" />      <trkpt lat="42.54510" lon="-70.88478" />      <trkpt lat="42.54559" lon="-70.88465" />      <trkpt lat="42.54583" lon="-70.88459" />      <trkpt lat="42.54605" lon="-70.88453" />      <trkpt lat="42.54613" lon="-70.88451" />      <trkpt lat="42.54669" lon="-70.88436" />      <trkpt lat="42.54687" lon="-70.88431" />      <trkpt lat="42.54734" lon="-70.88419" />      <trkpt lat="42.54747" lon="-70.88416" />      <trkpt lat="42.54767" lon="-70.88411" />      <trkpt lat="42.54783" lon="-70.88406" />      <trkpt lat="42.54820" lon="-70.88396" />      <trkpt lat="42.54870" lon="-70.88383" />      <trkpt lat="42.54886" lon="-70.88379" />      <trkpt lat="42.54938" lon="-70.88366" />      <trkpt lat="42.54955" lon="-70.88361" />      <trkpt lat="42.54989" lon="-70.88352" />      <trkpt lat="42.55000" lon="-70.88349" />      <trkpt lat="42.55012" lon="-70.88345" />      <trkpt lat="42.55029" lon="-70.88339" />      <trkpt lat="42.55058" lon="-70.88329" />      <trkpt lat="42.55083" lon="-70.88319" />      <trkpt lat="42.55094" lon="-70.88315" />      <trkpt lat="42.55120" lon="-70.88305" />      <trkpt lat="42.55217" lon="-70.88268" />      <trkpt lat="42.55250" lon="-70.88255" />      <trkpt lat="42.55281" lon="-70.88243" />      <trkpt lat="42.55316" lon="-70.88229" />      <trkpt lat="42.55333" lon="-70.88222" />      <trkpt lat="42.55359" lon="-70.88212" />      <trkpt lat="42.55382" lon="-70.88203" />      <trkpt lat="42.55391" lon="-70.88199" />      <trkpt lat="42.55403" lon="-70.88194" />      <trkpt lat="42.55412" lon="-70.88189" />      <trkpt lat="42.55428" lon="-70.88180" />      <trkpt lat="42.55447" lon="-70.88170" />      <trkpt lat="42.55468" lon="-70.88158" />      <trkpt lat="42.55540" lon="-70.88119" />      <trkpt lat="42.55559" lon="-70.88108" />      <trkpt lat="42.55571" lon="-70.88102" />      <trkpt lat="42.55607" lon="-70.88082" />      <trkpt lat="42.55620" lon="-70.88075" />      <trkpt lat="42.55654" lon="-70.88055" />      <trkpt lat="42.55663" lon="-70.88050" />      <trkpt lat="42.55689" lon="-70.88036" />      <trkpt lat="42.55703" lon="-70.88029" />      <trkpt lat="42.55717" lon="-70.88020" />      <trkpt lat="42.55723" lon="-70.88012" />      <trkpt lat="42.55737" lon="-70.88006" />      <trkpt lat="42.55750" lon="-70.88007" />      <trkpt lat="42.55763" lon="-70.88010" />      <trkpt lat="42.55773" lon="-70.88017" />      <trkpt lat="42.55786" lon="-70.88030" />      <trkpt lat="42.55790" lon="-70.88053" />      <trkpt lat="42.55795" lon="-70.88063" />      <trkpt lat="42.55801" lon="-70.88076" />      <trkpt lat="42.55812" lon="-70.88100" />      <trkpt lat="42.55830" lon="-70.88131" />      <trkpt lat="42.55840" lon="-70.88148" />      <trkpt lat="42.55850" lon="-70.88164" />      <trkpt lat="42.55857" lon="-70.88175" />      <trkpt lat="42.55869" lon="-70.88191" />      <trkpt lat="42.55879" lon="-70.88206" />      <trkpt lat="42.55889" lon="-70.88220" />      <trkpt lat="42.55899" lon="-70.88235" />      <trkpt lat="42.55906" lon="-70.88243" />      <trkpt lat="42.55923" lon="-70.88267" />      <trkpt lat="42.55939" lon="-70.88283" />      <trkpt lat="42.55955" lon="-70.88292" />      <trkpt lat="42.55962" lon="-70.88296" />      <trkpt lat="42.55972" lon="-70.88300" />      <trkpt lat="42.55985" lon="-70.88304" />      <trkpt lat="42.56018" lon="-70.88316" />      <trkpt lat="42.56055" lon="-70.88330" />      <trkpt lat="42.56064" lon="-70.88333" />      <trkpt lat="42.56108" lon="-70.88350" />      <trkpt lat="42.56163" lon="-70.88372" />      <trkpt lat="42.56172" lon="-70.88375" />      <trkpt lat="42.56206" lon="-70.88388" />      <trkpt lat="42.56249" lon="-70.88404" />      <trkpt lat="42.56269" lon="-70.88413" />      <trkpt lat="42.56301" lon="-70.88427" />      <trkpt lat="42.56333" lon="-70.88443" />      <trkpt lat="42.56368" lon="-70.88462" />      <trkpt lat="42.56407" lon="-70.88484" />      <trkpt lat="42.56424" lon="-70.88495" />      <trkpt lat="42.56435" lon="-70.88504" />      <trkpt lat="42.56443" lon="-70.88510" />      <trkpt lat="42.56455" lon="-70.88520" />      <trkpt lat="42.56468" lon="-70.88530" />      <trkpt lat="42.56478" lon="-70.88538" />      <trkpt lat="42.56500" lon="-70.88557" />      <trkpt lat="42.56507" lon="-70.88564" />      <trkpt lat="42.56529" lon="-70.88586" />      <trkpt lat="42.56536" lon="-70.88593" />      <trkpt lat="42.56547" lon="-70.88604" />      <trkpt lat="42.56561" lon="-70.88618" />      <trkpt lat="42.56572" lon="-70.88630" />      <trkpt lat="42.56593" lon="-70.88650" />      <trkpt lat="42.56617" lon="-70.88675" />      <trkpt lat="42.56627" lon="-70.88686" />      <trkpt lat="42.56647" lon="-70.88707" />      <trkpt lat="42.56685" lon="-70.88749" />      <trkpt lat="42.56709" lon="-70.88779" />      <trkpt lat="42.56738" lon="-70.88812" />      <trkpt lat="42.56754" lon="-70.88830" />      <trkpt lat="42.56771" lon="-70.88851" />      <trkpt lat="42.56778" lon="-70.88858" />      <trkpt lat="42.56790" lon="-70.88872" />      <trkpt lat="42.56810" lon="-70.88896" />      <trkpt lat="42.56826" lon="-70.88916" />      <trkpt lat="42.56857" lon="-70.88952" />      <trkpt lat="42.56869" lon="-70.88966" />      <trkpt lat="42.56881" lon="-70.88980" />      <trkpt lat="42.56891" lon="-70.88992" />      <trkpt lat="42.56909" lon="-70.89013" />      <trkpt lat="42.56927" lon="-70.89035" />      <trkpt lat="42.56937" lon="-70.89047" />      <trkpt lat="42.56947" lon="-70.89059" />      <trkpt lat="42.56956" lon="-70.89070" />      <trkpt lat="42.56980" lon="-70.89098" />      <trkpt lat="42.57003" lon="-70.89126" />      <trkpt lat="42.57026" lon="-70.89154" />      <trkpt lat="42.57051" lon="-70.89185" />      <trkpt lat="42.57074" lon="-70.89209" />      <trkpt lat="42.57082" lon="-70.89218" />      <trkpt lat="42.57090" lon="-70.89226" />      <trkpt lat="42.57099" lon="-70.89236" />      <trkpt lat="42.57117" lon="-70.89252" />      <trkpt lat="42.57138" lon="-70.89271" />      <trkpt lat="42.57188" lon="-70.89316" />      <trkpt lat="42.57220" lon="-70.89342" />      <trkpt lat="42.57229" lon="-70.89351" />      <trkpt lat="42.57253" lon="-70.89373" />      <trkpt lat="42.57314" lon="-70.89430" />      <trkpt lat="42.57337" lon="-70.89451" />      <trkpt lat="42.57343" lon="-70.89458" />      <trkpt lat="42.57359" lon="-70.89471" />      <trkpt lat="42.57368" lon="-70.89479" />      <trkpt lat="42.57387" lon="-70.89492" />      <trkpt lat="42.57401" lon="-70.89502" />      <trkpt lat="42.57442" lon="-70.89526" />      <trkpt lat="42.57453" lon="-70.89533" />      <trkpt lat="42.57462" lon="-70.89539" />      <trkpt lat="42.57470" lon="-70.89543" />      <trkpt lat="42.57485" lon="-70.89548" />      <trkpt lat="42.57507" lon="-70.89555" />      <trkpt lat="42.57520" lon="-70.89559" />      <trkpt lat="42.57531" lon="-70.89563" />      <trkpt lat="42.57542" lon="-70.89567" />      <trkpt lat="42.57598" lon="-70.89593" />      <trkpt lat="42.57608" lon="-70.89598" />      <trkpt lat="42.57640" lon="-70.89614" />      <trkpt lat="42.57672" lon="-70.89630" />      <trkpt lat="42.57681" lon="-70.89634" />      <trkpt lat="42.57688" lon="-70.89638" />      <trkpt lat="42.57664" lon="-70.89700" />      <trkpt lat="42.57643" lon="-70.89749" />      <trkpt lat="42.57638" lon="-70.89758" />      <trkpt lat="42.57618" lon="-70.89790" />      <trkpt lat="42.57570" lon="-70.89858" />      <trkpt lat="42.57565" lon="-70.89868" />      <trkpt lat="42.57556" lon="-70.89883" />      <trkpt lat="42.57547" lon="-70.89901" />      <trkpt lat="42.57541" lon="-70.89914" />      <trkpt lat="42.57532" lon="-70.89934" />      <trkpt lat="42.57517" lon="-70.89976" />      <trkpt lat="42.57502" lon="-70.90024" />      <trkpt lat="42.57492" lon="-70.90064" />      <trkpt lat="42.57489" lon="-70.90080" />      <trkpt lat="42.57481" lon="-70.90119" />      <trkpt lat="42.57477" lon="-70.90136" />      <trkpt lat="42.57457" lon="-70.90237" />      <trkpt lat="42.57445" lon="-70.90295" />      <trkpt lat="42.57427" lon="-70.90373" />      <trkpt lat="42.57414" lon="-70.90434" />      <trkpt lat="42.57408" lon="-70.90460" />      <trkpt lat="42.57398" lon="-70.90504" />      <trkpt lat="42.57383" lon="-70.90579" />      <trkpt lat="42.57377" lon="-70.90609" />      <trkpt lat="42.57365" lon="-70.90652" />      <trkpt lat="42.57345" lon="-70.90715" />      <trkpt lat="42.57319" lon="-70.90782" />      <trkpt lat="42.57311" lon="-70.90800" />      <trkpt lat="42.57304" lon="-70.90818" />      <trkpt lat="42.57294" lon="-70.90843" />      <trkpt lat="42.57271" lon="-70.90901" />      <trkpt lat="42.57262" lon="-70.90921" />      <trkpt lat="42.57252" lon="-70.90942" />      <trkpt lat="42.57242" lon="-70.90963" />      <trkpt lat="42.57231" lon="-70.90982" />      <trkpt lat="42.57220" lon="-70.90999" />      <trkpt lat="42.57210" lon="-70.91016" />      <trkpt lat="42.57198" lon="-70.91033" />      <trkpt lat="42.57184" lon="-70.91051" />      <trkpt lat="42.57165" lon="-70.91075" />      <trkpt lat="42.57147" lon="-70.91097" />      <trkpt lat="42.57137" lon="-70.91109" />      <trkpt lat="42.57128" lon="-70.91120" />      <trkpt lat="42.57122" lon="-70.91129" />      <trkpt lat="42.57116" lon="-70.91138" />      <trkpt lat="42.57105" lon="-70.91158" />      <trkpt lat="42.57095" lon="-70.91182" />      <trkpt lat="42.57086" lon="-70.91206" />      <trkpt lat="42.57040" lon="-70.91331" />      <trkpt lat="42.57022" lon="-70.91380" />      <trkpt lat="42.57013" lon="-70.91403" />      <trkpt lat="42.57000" lon="-70.91441" />      <trkpt lat="42.56993" lon="-70.91462" />      <trkpt lat="42.56985" lon="-70.91489" />      <trkpt lat="42.56978" lon="-70.91516" />      <trkpt lat="42.56972" lon="-70.91553" />      <trkpt lat="42.56966" lon="-70.91607" />      <trkpt lat="42.56960" lon="-70.91669" />      <trkpt lat="42.56953" lon="-70.91734" />      <trkpt lat="42.56947" lon="-70.91776" />      <trkpt lat="42.56939" lon="-70.91815" />      <trkpt lat="42.56927" lon="-70.91869" />      <trkpt lat="42.56897" lon="-70.92004" />      <trkpt lat="42.56888" lon="-70.92050" />      <trkpt lat="42.56882" lon="-70.92093" />      <trkpt lat="42.56879" lon="-70.92113" />      <trkpt lat="42.56873" lon="-70.92155" />      <trkpt lat="42.56855" lon="-70.92294" />      <trkpt lat="42.56851" lon="-70.92329" />      <trkpt lat="42.56844" lon="-70.92379" />      <trkpt lat="42.56840" lon="-70.92405" />      <trkpt lat="42.56837" lon="-70.92432" />      <trkpt lat="42.56832" lon="-70.92460" />      <trkpt lat="42.56829" lon="-70.92486" />      <trkpt lat="42.56819" lon="-70.92558" />      <trkpt lat="42.56816" lon="-70.92577" />      <trkpt lat="42.56814" lon="-70.92597" />      <trkpt lat="42.56812" lon="-70.92619" />      <trkpt lat="42.56811" lon="-70.92637" />      <trkpt lat="42.56811" lon="-70.92656" />      <trkpt lat="42.56811" lon="-70.92674" />      <trkpt lat="42.56812" lon="-70.92690" />      <trkpt lat="42.56813" lon="-70.92714" />      <trkpt lat="42.56813" lon="-70.92730" />      <trkpt lat="42.56820" lon="-70.92763" />      <trkpt lat="42.56831" lon="-70.92828" />      <trkpt lat="42.56831" lon="-70.92845" />      <trkpt lat="42.56829" lon="-70.92857" />      <trkpt lat="42.56827" lon="-70.92873" />      <trkpt lat="42.56821" lon="-70.92890" />      <trkpt lat="42.56819" lon="-70.92904" />      <trkpt lat="42.56816" lon="-70.92919" />      <trkpt lat="42.56813" lon="-70.92936" />      <trkpt lat="42.56809" lon="-70.92952" />      <trkpt lat="42.56806" lon="-70.92967" />      <trkpt lat="42.56801" lon="-70.92984" />      <trkpt lat="42.56773" lon="-70.93073" />      <trkpt lat="42.56767" lon="-70.93093" />      <trkpt lat="42.56762" lon="-70.93111" />      <trkpt lat="42.56727" lon="-70.93228" />      <trkpt lat="42.56724" lon="-70.93242" />      <trkpt lat="42.56716" lon="-70.93260" />      <trkpt lat="42.56708" lon="-70.93274" />      <trkpt lat="42.56694" lon="-70.93302" />      <trkpt lat="42.56675" lon="-70.93336" />      <trkpt lat="42.56662" lon="-70.93359" />      <trkpt lat="42.56657" lon="-70.93369" />      <trkpt lat="42.56635" lon="-70.93407" />      <trkpt lat="42.56629" lon="-70.93418" />      <trkpt lat="42.56620" lon="-70.93434" />      <trkpt lat="42.56610" lon="-70.93453" />      <trkpt lat="42.56604" lon="-70.93463" />      <trkpt lat="42.56597" lon="-70.93476" />      <trkpt lat="42.56588" lon="-70.93492" />      <trkpt lat="42.56575" lon="-70.93514" />      <trkpt lat="42.56566" lon="-70.93530" />      <trkpt lat="42.56560" lon="-70.93541" />      <trkpt lat="42.56553" lon="-70.93554" />      <trkpt lat="42.56545" lon="-70.93567" />      <trkpt lat="42.56538" lon="-70.93577" />      <trkpt lat="42.56495" lon="-70.93627" />      <trkpt lat="42.56482" lon="-70.93639" />      <trkpt lat="42.56471" lon="-70.93652" />      <trkpt lat="42.56463" lon="-70.93660" />      <trkpt lat="42.56446" lon="-70.93681" />      <trkpt lat="42.56437" lon="-70.93692" />      <trkpt lat="42.56422" lon="-70.93709" />      <trkpt lat="42.56411" lon="-70.93721" />      <trkpt lat="42.56396" lon="-70.93735" />      <trkpt lat="42.56376" lon="-70.93753" />      <trkpt lat="42.56366" lon="-70.93763" />      <trkpt lat="42.56339" lon="-70.93787" />      <trkpt lat="42.56322" lon="-70.93820" />      <trkpt lat="42.56311" lon="-70.93836" />      <trkpt lat="42.56304" lon="-70.93844" />      <trkpt lat="42.56298" lon="-70.93853" />      <trkpt lat="42.56282" lon="-70.93871" />      <trkpt lat="42.56254" lon="-70.93899" />      <trkpt lat="42.56233" lon="-70.93921" />      <trkpt lat="42.56213" lon="-70.93941" />      <trkpt lat="42.56206" lon="-70.93949" />      <trkpt lat="42.56181" lon="-70.93975" />      <trkpt lat="42.56175" lon="-70.93982" />      <trkpt lat="42.56166" lon="-70.93991" />      <trkpt lat="42.56151" lon="-70.94005" />      <trkpt lat="42.56125" lon="-70.94033" />      <trkpt lat="42.56119" lon="-70.94040" />      <trkpt lat="42.56084" lon="-70.94076" />      <trkpt lat="42.56064" lon="-70.94097" />      <trkpt lat="42.56054" lon="-70.94107" />      <trkpt lat="42.56042" lon="-70.94119" />      <trkpt lat="42.56019" lon="-70.94139" />      <trkpt lat="42.55978" lon="-70.94173" />      <trkpt lat="42.55944" lon="-70.94201" />      <trkpt lat="42.55930" lon="-70.94212" />      <trkpt lat="42.55916" lon="-70.94221" />      <trkpt lat="42.55902" lon="-70.94230" />      <trkpt lat="42.55865" lon="-70.94249" />      <trkpt lat="42.55840" lon="-70.94263" />      <trkpt lat="42.55797" lon="-70.94284" />      <trkpt lat="42.55786" lon="-70.94289" />      <trkpt lat="42.55757" lon="-70.94303" />      <trkpt lat="42.55746" lon="-70.94308" />      <trkpt lat="42.55725" lon="-70.94319" />      <trkpt lat="42.55680" lon="-70.94340" />      <trkpt lat="42.55627" lon="-70.94365" />      <trkpt lat="42.55611" lon="-70.94373" />      <trkpt lat="42.55600" lon="-70.94378" />      <trkpt lat="42.55562" lon="-70.94397" />      <trkpt lat="42.55535" lon="-70.94410" />      <trkpt lat="42.55527" lon="-70.94413" />      <trkpt lat="42.55470" lon="-70.94441" />      <trkpt lat="42.55452" lon="-70.94452" />      <trkpt lat="42.55442" lon="-70.94458" />      <trkpt lat="42.55419" lon="-70.94474" />      <trkpt lat="42.55376" lon="-70.94506" />      <trkpt lat="42.55350" lon="-70.94526" />      <trkpt lat="42.55324" lon="-70.94547" />      <trkpt lat="42.55299" lon="-70.94566" />      <trkpt lat="42.55284" lon="-70.94578" />      <trkpt lat="42.55256" lon="-70.94601" />      <trkpt lat="42.55239" lon="-70.94613" />      <trkpt lat="42.55225" lon="-70.94623" />      <trkpt lat="42.55206" lon="-70.94634" />      <trkpt lat="42.55192" lon="-70.94644" />      <trkpt lat="42.55177" lon="-70.94653" />      <trkpt lat="42.55164" lon="-70.94657" />      <trkpt lat="42.55156" lon="-70.94661" />      <trkpt lat="42.55138" lon="-70.94666" />      <trkpt lat="42.55116" lon="-70.94672" />      <trkpt lat="42.55091" lon="-70.94679" />      <trkpt lat="42.55078" lon="-70.94683" />      <trkpt lat="42.55064" lon="-70.94687" />      <trkpt lat="42.55045" lon="-70.94692" />      <trkpt lat="42.55029" lon="-70.94695" />      <trkpt lat="42.55004" lon="-70.94697" />      <trkpt lat="42.54986" lon="-70.94695" />      <trkpt lat="42.54940" lon="-70.94686" />      <trkpt lat="42.54921" lon="-70.94680" />      <trkpt lat="42.54906" lon="-70.94673" />      <trkpt lat="42.54893" lon="-70.94663" />      <trkpt lat="42.54871" lon="-70.94642" />      <trkpt lat="42.54857" lon="-70.94627" />      <trkpt lat="42.54836" lon="-70.94605" />      <trkpt lat="42.54810" lon="-70.94579" />      <trkpt lat="42.54799" lon="-70.94568" />      <trkpt lat="42.54789" lon="-70.94561" />      <trkpt lat="42.54777" lon="-70.94554" />      <trkpt lat="42.54755" lon="-70.94542" />      <trkpt lat="42.54745" lon="-70.94540" />      <trkpt lat="42.54734" lon="-70.94537" />      <trkpt lat="42.54714" lon="-70.94533" />      <trkpt lat="42.54695" lon="-70.94530" />      <trkpt lat="42.54683" lon="-70.94529" />      <trkpt lat="42.54673" lon="-70.94527" />      <trkpt lat="42.54647" lon="-70.94523" />      <trkpt lat="42.54620" lon="-70.94528" />      <trkpt lat="42.54607" lon="-70.94530" />      <trkpt lat="42.54597" lon="-70.94537" />      <trkpt lat="42.54589" lon="-70.94545" />      <trkpt lat="42.54580" lon="-70.94553" />      <trkpt lat="42.54546" lon="-70.94577" />      <trkpt lat="42.54532" lon="-70.94587" />      <trkpt lat="42.54521" lon="-70.94594" />      <trkpt lat="42.54513" lon="-70.94598" />      <trkpt lat="42.54504" lon="-70.94605" />      <trkpt lat="42.54496" lon="-70.94614" />      <trkpt lat="42.54474" lon="-70.94638" />      <trkpt lat="42.54451" lon="-70.94663" />      <trkpt lat="42.54425" lon="-70.94690" />      <trkpt lat="42.54378" lon="-70.94737" />      <trkpt lat="42.54364" lon="-70.94742" />      <trkpt lat="42.54353" lon="-70.94740" />      <trkpt lat="42.54347" lon="-70.94755" />      <trkpt lat="42.54338" lon="-70.94767" />      <trkpt lat="42.54329" lon="-70.94777" />      <trkpt lat="42.54320" lon="-70.94785" />      <trkpt lat="42.54310" lon="-70.94797" />      <trkpt lat="42.54298" lon="-70.94809" />      <trkpt lat="42.54291" lon="-70.94820" />      <trkpt lat="42.54281" lon="-70.94833" />      <trkpt lat="42.54271" lon="-70.94850" />      <trkpt lat="42.54266" lon="-70.94859" />      <trkpt lat="42.54259" lon="-70.94871" />      <trkpt lat="42.54252" lon="-70.94884" />      <trkpt lat="42.54244" lon="-70.94896" />      <trkpt lat="42.54236" lon="-70.94906" />      <trkpt lat="42.54230" lon="-70.94915" />      <trkpt lat="42.54222" lon="-70.94926" />      <trkpt lat="42.54211" lon="-70.94941" />      <trkpt lat="42.54196" lon="-70.94960" />      <trkpt lat="42.54185" lon="-70.94976" />      <trkpt lat="42.54174" lon="-70.94991" />      <trkpt lat="42.54162" lon="-70.95010" />      <trkpt lat="42.54148" lon="-70.94999" />      <trkpt lat="42.54136" lon="-70.94988" />      <trkpt lat="42.54121" lon="-70.94977" />      <trkpt lat="42.54110" lon="-70.94970" />      <trkpt lat="42.54101" lon="-70.94965" />      <trkpt lat="42.54089" lon="-70.94960" />      <trkpt lat="42.54076" lon="-70.94956" />      <trkpt lat="42.54062" lon="-70.94949" />      <trkpt lat="42.54047" lon="-70.94941" />      <trkpt lat="42.54034" lon="-70.94933" />      <trkpt lat="42.54021" lon="-70.94925" />      <trkpt lat="42.54007" lon="-70.94911" />      <trkpt lat="42.53994" lon="-70.94896" />      <trkpt lat="42.53981" lon="-70.94880" />      <trkpt lat="42.53972" lon="-70.94869" />      <trkpt lat="42.53961" lon="-70.94852" />      <trkpt lat="42.53952" lon="-70.94835" />      <trkpt lat="42.53944" lon="-70.94818" />      <trkpt lat="42.53935" lon="-70.94802" />      <trkpt lat="42.53928" lon="-70.94794" />      <trkpt lat="42.53921" lon="-70.94785" />      <trkpt lat="42.53910" lon="-70.94773" />    </trkseg>  </trk></gpx>