<?xml version='1.0' encoding='UTF-8'?>
<gpx version="1.1" creator="https://www.komoot.de" xmlns="http://www.topografix.com/GPX/1/1" xmlns:xsi="http://www.w3.org/2001/XMLSchema-instance" xsi:schemaLocation="http://www.topografix.com/GPX/1/1 http://www.topografix.com/GPX/1/1/gpx.xsd">
  <metadata>
    <name>Reading + Stoneham mains</name>
    <author>
      <link href="https://www.komoot.de">
        <text>komoot</text>
        <type>text/html</type>
      </link>
    </author>
  </metadata>
  <trk>
    <name>Reading + Stoneham mains</name>
    <trkseg>
      <trkpt lat="42.521550" lon="-71.138350">
        <ele>21.706831</ele>
      </trkpt>
      <trkpt lat="42.522050" lon="-71.137980">
        <ele>21.706831</ele>
      </trkpt>
      <trkpt lat="42.522180" lon="-71.137900">
        <ele>21.706831</ele>
      </trkpt>
      <trkpt lat="42.522310" lon="-71.137820">
        <ele>21.706831</ele>
      </trkpt>
      <trkpt lat="42.522480" lon="-71.137730">
        <ele>22.383389</ele>
      </trkpt>
      <trkpt lat="42.522690" lon="-71.137670">
        <ele>23.434123</ele>
      </trkpt>
      <trkpt lat="42.522780" lon="-71.137650">
        <ele>23.880645</ele>
      </trkpt>
      <trkpt lat="42.522860" lon="-71.137640">
        <ele>24.273994</ele>
      </trkpt>
      <trkpt lat="42.522950" lon="-71.137640">
        <ele>24.714645</ele>
      </trkpt>
      <trkpt lat="42.523050" lon="-71.137640">
        <ele>25.204257</ele>
      </trkpt>
      <trkpt lat="42.523140" lon="-71.137650">
        <ele>25.646384</ele>
      </trkpt>
      <trkpt lat="42.523260" lon="-71.137690">
        <ele>26.251388</ele>
      </trkpt>
      <trkpt lat="42.523460" lon="-71.137770">
        <ele>27.272278</ele>
      </trkpt>
      <trkpt lat="42.523860" lon="-71.137940">
        <ele>29.324551</ele>
      </trkpt>
      <trkpt lat="42.524150" lon="-71.138060">
        <ele>30.614635</ele>
      </trkpt>
      <trkpt lat="42.524260" lon="-71.138110">
        <ele>30.809405</ele>
      </trkpt>
      <trkpt lat="42.524460" lon="-71.138200">
        <ele>31.163178</ele>
      </trkpt>
      <trkpt lat="42.524560" lon="-71.138240">
        <ele>31.338215</ele>
      </trkpt>
      <trkpt lat="42.524650" lon="-71.138280">
        <ele>31.497219</ele>
      </trkpt>
      <trkpt lat="42.524790" lon="-71.138380">
        <ele>31.762849</ele>
      </trkpt>
      <trkpt lat="42.524860" lon="-71.138440">
        <ele>31.901860</ele>
      </trkpt>
      <trkpt lat="42.524980" lon="-71.138550">
        <ele>32.144999</ele>
      </trkpt>
      <trkpt lat="42.525050" lon="-71.138630">
        <ele>32.298657</ele>
      </trkpt>
      <trkpt lat="42.525110" lon="-71.138720">
        <ele>32.448820</ele>
      </trkpt>
      <trkpt lat="42.525170" lon="-71.138810">
        <ele>32.598984</ele>
      </trkpt>
      <trkpt lat="42.525260" lon="-71.138980">
        <ele>32.857980</ele>
      </trkpt>
      <trkpt lat="42.525360" lon="-71.139230">
        <ele>33.209941</ele>
      </trkpt>
      <trkpt lat="42.525410" lon="-71.139410">
        <ele>33.447957</ele>
      </trkpt>
      <trkpt lat="42.525440" lon="-71.139530">
        <ele>33.432103</ele>
      </trkpt>
      <trkpt lat="42.525460" lon="-71.139690">
        <ele>33.149593</ele>
      </trkpt>
      <trkpt lat="42.525470" lon="-71.139810">
        <ele>32.939363</ele>
      </trkpt>
      <trkpt lat="42.525470" lon="-71.140070">
        <ele>32.486749</ele>
      </trkpt>
      <trkpt lat="42.525440" lon="-71.140310">
        <ele>32.062984</ele>
      </trkpt>
      <trkpt lat="42.525400" lon="-71.140550">
        <ele>31.634635</ele>
      </trkpt>
      <trkpt lat="42.525210" lon="-71.141350">
        <ele>30.171443</ele>
      </trkpt>
      <trkpt lat="42.525000" lon="-71.142270">
        <ele>28.765205</ele>
      </trkpt>
      <trkpt lat="42.524960" lon="-71.142470">
        <ele>28.527983</ele>
      </trkpt>
      <trkpt lat="42.524960" lon="-71.142710">
        <ele>28.253252</ele>
      </trkpt>
      <trkpt lat="42.524990" lon="-71.142940">
        <ele>27.985877</ele>
      </trkpt>
      <trkpt lat="42.525060" lon="-71.143150">
        <ele>27.722043</ele>
      </trkpt>
      <trkpt lat="42.525130" lon="-71.143310">
        <ele>27.509048</ele>
      </trkpt>
      <trkpt lat="42.525210" lon="-71.143440">
        <ele>27.315179</ele>
      </trkpt>
      <trkpt lat="42.525280" lon="-71.143570">
        <ele>27.130879</ele>
      </trkpt>
      <trkpt lat="42.525370" lon="-71.143720">
        <ele>26.909464</ele>
      </trkpt>
      <trkpt lat="42.525420" lon="-71.143810">
        <ele>26.780448</ele>
      </trkpt>
      <trkpt lat="42.525500" lon="-71.144000">
        <ele>26.529961</ele>
      </trkpt>
      <trkpt lat="42.525580" lon="-71.144180">
        <ele>26.309082</ele>
      </trkpt>
      <trkpt lat="42.525640" lon="-71.144330">
        <ele>26.132866</ele>
      </trkpt>
      <trkpt lat="42.525690" lon="-71.144480">
        <ele>25.962887</ele>
      </trkpt>
      <trkpt lat="42.525750" lon="-71.144710">
        <ele>25.710975</ele>
      </trkpt>
      <trkpt lat="42.525770" lon="-71.144900">
        <ele>25.512810</ele>
      </trkpt>
      <trkpt lat="42.525760" lon="-71.145150">
        <ele>25.254306</ele>
      </trkpt>
      <trkpt lat="42.525710" lon="-71.145340">
        <ele>25.046001</ele>
      </trkpt>
      <trkpt lat="42.525650" lon="-71.145500">
        <ele>24.860645</ele>
      </trkpt>
      <trkpt lat="42.525450" lon="-71.145990">
        <ele>24.282311</ele>
      </trkpt>
      <trkpt lat="42.525260" lon="-71.146420">
        <ele>23.952146</ele>
      </trkpt>
      <trkpt lat="42.525200" lon="-71.146570">
        <ele>23.936193</ele>
      </trkpt>
      <trkpt lat="42.524610" lon="-71.148020">
        <ele>23.781367</ele>
      </trkpt>
      <trkpt lat="42.524580" lon="-71.148140">
        <ele>23.769522</ele>
      </trkpt>
      <trkpt lat="42.524690" lon="-71.148170">
        <ele>23.755291</ele>
      </trkpt>
      <trkpt lat="42.524930" lon="-71.148230">
        <ele>23.797541</ele>
      </trkpt>
      <trkpt lat="42.525050" lon="-71.148260">
        <ele>23.843838</ele>
      </trkpt>
      <trkpt lat="42.525300" lon="-71.148320">
        <ele>23.940165</ele>
      </trkpt>
      <trkpt lat="42.525980" lon="-71.148480">
        <ele>24.202022</ele>
      </trkpt>
      <trkpt lat="42.526000" lon="-71.148150">
        <ele>24.294609</ele>
      </trkpt>
      <trkpt lat="42.526020" lon="-71.147960">
        <ele>24.348276</ele>
      </trkpt>
      <trkpt lat="42.526040" lon="-71.147680">
        <ele>24.428705</ele>
      </trkpt>
      <trkpt lat="42.526070" lon="-71.147460">
        <ele>24.552168</ele>
      </trkpt>
      <trkpt lat="42.526120" lon="-71.147210">
        <ele>24.695114</ele>
      </trkpt>
      <trkpt lat="42.526160" lon="-71.147030">
        <ele>24.798861</ele>
      </trkpt>
      <trkpt lat="42.526210" lon="-71.146830">
        <ele>24.915403</ele>
      </trkpt>
      <trkpt lat="42.526250" lon="-71.146700">
        <ele>24.993142</ele>
      </trkpt>
      <trkpt lat="42.526300" lon="-71.146540">
        <ele>25.089044</ele>
      </trkpt>
      <trkpt lat="42.526340" lon="-71.146420">
        <ele>25.161721</ele>
      </trkpt>
      <trkpt lat="42.526390" lon="-71.146300">
        <ele>25.237791</ele>
      </trkpt>
      <trkpt lat="42.526450" lon="-71.146200">
        <ele>25.308949</ele>
      </trkpt>
      <trkpt lat="42.526510" lon="-71.146100">
        <ele>25.380107</ele>
      </trkpt>
      <trkpt lat="42.526570" lon="-71.146010">
        <ele>25.447077</ele>
      </trkpt>
      <trkpt lat="42.526680" lon="-71.145870">
        <ele>25.560004</ele>
      </trkpt>
      <trkpt lat="42.526810" lon="-71.145750">
        <ele>25.677733</ele>
      </trkpt>
      <trkpt lat="42.526940" lon="-71.145610">
        <ele>25.849015</ele>
      </trkpt>
      <trkpt lat="42.527010" lon="-71.145550">
        <ele>26.007834</ele>
      </trkpt>
      <trkpt lat="42.527100" lon="-71.145430">
        <ele>26.249868</ele>
      </trkpt>
      <trkpt lat="42.527180" lon="-71.145260">
        <ele>26.535002</ele>
      </trkpt>
      <trkpt lat="42.527290" lon="-71.144970">
        <ele>26.996070</ele>
      </trkpt>
      <trkpt lat="42.527400" lon="-71.144660">
        <ele>27.482447</ele>
      </trkpt>
      <trkpt lat="42.527470" lon="-71.144480">
        <ele>27.770155</ele>
      </trkpt>
      <trkpt lat="42.527540" lon="-71.144340">
        <ele>28.009314</ele>
      </trkpt>
      <trkpt lat="42.527600" lon="-71.144190">
        <ele>28.250579</ele>
      </trkpt>
      <trkpt lat="42.527660" lon="-71.144100">
        <ele>28.422138</ele>
      </trkpt>
      <trkpt lat="42.527760" lon="-71.143960">
        <ele>28.697750</ele>
      </trkpt>
      <trkpt lat="42.527840" lon="-71.143840">
        <ele>28.926496</ele>
      </trkpt>
      <trkpt lat="42.528070" lon="-71.143550">
        <ele>29.475957</ele>
      </trkpt>
      <trkpt lat="42.528130" lon="-71.143470">
        <ele>29.609538</ele>
      </trkpt>
      <trkpt lat="42.528510" lon="-71.143020">
        <ele>30.410468</ele>
      </trkpt>
      <trkpt lat="42.528570" lon="-71.142940">
        <ele>30.544049</ele>
      </trkpt>
      <trkpt lat="42.528640" lon="-71.142860">
        <ele>30.689383</ele>
      </trkpt>
      <trkpt lat="42.528740" lon="-71.142740">
        <ele>30.901373</ele>
      </trkpt>
      <trkpt lat="42.529210" lon="-71.142170">
        <ele>31.902391</ele>
      </trkpt>
      <trkpt lat="42.529900" lon="-71.141340">
        <ele>32.306598</ele>
      </trkpt>
      <trkpt lat="42.530080" lon="-71.141110">
        <ele>32.376156</ele>
      </trkpt>
      <trkpt lat="42.530200" lon="-71.140920">
        <ele>32.428036</ele>
      </trkpt>
      <trkpt lat="42.530320" lon="-71.140720">
        <ele>32.481506</ele>
      </trkpt>
      <trkpt lat="42.530420" lon="-71.140520">
        <ele>32.531614</ele>
      </trkpt>
      <trkpt lat="42.530540" lon="-71.140240">
        <ele>32.524158</ele>
      </trkpt>
      <trkpt lat="42.530650" lon="-71.139950">
        <ele>32.240983</ele>
      </trkpt>
      <trkpt lat="42.530730" lon="-71.139740">
        <ele>32.035739</ele>
      </trkpt>
      <trkpt lat="42.530770" lon="-71.139610">
        <ele>31.913429</ele>
      </trkpt>
      <trkpt lat="42.530820" lon="-71.139470">
        <ele>31.778358</ele>
      </trkpt>
      <trkpt lat="42.530860" lon="-71.139330">
        <ele>31.647994</ele>
      </trkpt>
      <trkpt lat="42.530890" lon="-71.139200">
        <ele>31.529723</ele>
      </trkpt>
      <trkpt lat="42.530930" lon="-71.139000">
        <ele>31.349802</ele>
      </trkpt>
      <trkpt lat="42.530960" lon="-71.138810">
        <ele>31.181100</ele>
      </trkpt>
      <trkpt lat="42.530990" lon="-71.138590">
        <ele>30.986853</ele>
      </trkpt>
      <trkpt lat="42.531010" lon="-71.138450">
        <ele>30.863042</ele>
      </trkpt>
      <trkpt lat="42.531060" lon="-71.138120">
        <ele>30.570544</ele>
      </trkpt>
      <trkpt lat="42.531080" lon="-71.137970">
        <ele>30.447073</ele>
      </trkpt>
      <trkpt lat="42.531110" lon="-71.137740">
        <ele>30.310688</ele>
      </trkpt>
      <trkpt lat="42.531160" lon="-71.137400">
        <ele>30.108247</ele>
      </trkpt>
      <trkpt lat="42.531180" lon="-71.137230">
        <ele>30.007726</ele>
      </trkpt>
      <trkpt lat="42.531230" lon="-71.137020">
        <ele>29.878865</ele>
      </trkpt>
      <trkpt lat="42.531310" lon="-71.136840">
        <ele>29.756127</ele>
      </trkpt>
      <trkpt lat="42.531410" lon="-71.136690">
        <ele>29.638019</ele>
      </trkpt>
      <trkpt lat="42.531530" lon="-71.136570">
        <ele>29.519907</ele>
      </trkpt>
      <trkpt lat="42.531670" lon="-71.136480">
        <ele>29.397157</ele>
      </trkpt>
      <trkpt lat="42.531790" lon="-71.136450">
        <ele>29.300473</ele>
      </trkpt>
      <trkpt lat="42.531930" lon="-71.136420">
        <ele>29.188168</ele>
      </trkpt>
      <trkpt lat="42.532070" lon="-71.136400">
        <ele>29.076623</ele>
      </trkpt>
      <trkpt lat="42.532280" lon="-71.136370">
        <ele>29.101436</ele>
      </trkpt>
      <trkpt lat="42.532490" lon="-71.136350">
        <ele>29.179633</ele>
      </trkpt>
      <trkpt lat="42.532830" lon="-71.136320">
        <ele>29.306194</ele>
      </trkpt>
      <trkpt lat="42.532930" lon="-71.136310">
        <ele>29.343440</ele>
      </trkpt>
      <trkpt lat="42.533030" lon="-71.136310">
        <ele>29.380585</ele>
      </trkpt>
      <trkpt lat="42.533170" lon="-71.136330">
        <ele>29.432876</ele>
      </trkpt>
      <trkpt lat="42.533300" lon="-71.136390">
        <ele>29.483881</ele>
      </trkpt>
      <trkpt lat="42.533390" lon="-71.136450">
        <ele>29.521128</ele>
      </trkpt>
      <trkpt lat="42.533460" lon="-71.136530">
        <ele>29.555122</ele>
      </trkpt>
      <trkpt lat="42.533520" lon="-71.136600">
        <ele>29.584513</ele>
      </trkpt>
      <trkpt lat="42.533590" lon="-71.136680">
        <ele>29.618507</ele>
      </trkpt>
      <trkpt lat="42.533650" lon="-71.136760">
        <ele>29.649751</ele>
      </trkpt>
      <trkpt lat="42.533710" lon="-71.136850">
        <ele>29.682971</ele>
      </trkpt>
      <trkpt lat="42.533950" lon="-71.137200">
        <ele>29.659378</ele>
      </trkpt>
      <trkpt lat="42.534060" lon="-71.137380">
        <ele>29.629772</ele>
      </trkpt>
      <trkpt lat="42.534130" lon="-71.137450">
        <ele>29.614833</ele>
      </trkpt>
      <trkpt lat="42.534260" lon="-71.137510">
        <ele>29.591241</ele>
      </trkpt>
      <trkpt lat="42.534400" lon="-71.137480">
        <ele>29.566889</ele>
      </trkpt>
      <trkpt lat="42.533560" lon="-71.136120">
        <ele>29.257270</ele>
      </trkpt>
      <trkpt lat="42.532930" lon="-71.135130">
        <ele>28.844736</ele>
      </trkpt>
      <trkpt lat="42.531610" lon="-71.133040">
        <ele>26.921943</ele>
      </trkpt>
      <trkpt lat="42.531470" lon="-71.132810">
        <ele>26.675850</ele>
      </trkpt>
      <trkpt lat="42.531370" lon="-71.132660">
        <ele>26.686833</ele>
      </trkpt>
      <trkpt lat="42.531290" lon="-71.132520">
        <ele>26.783798</ele>
      </trkpt>
      <trkpt lat="42.531200" lon="-71.132390">
        <ele>26.881426</ele>
      </trkpt>
      <trkpt lat="42.531140" lon="-71.132290">
        <ele>26.952007</ele>
      </trkpt>
      <trkpt lat="42.531060" lon="-71.132160">
        <ele>27.044708</ele>
      </trkpt>
      <trkpt lat="42.530980" lon="-71.132040">
        <ele>27.133277</ele>
      </trkpt>
      <trkpt lat="42.530910" lon="-71.131960">
        <ele>27.201251</ele>
      </trkpt>
      <trkpt lat="42.530830" lon="-71.131840">
        <ele>27.289820</ele>
      </trkpt>
      <trkpt lat="42.530740" lon="-71.131740">
        <ele>27.376216</ele>
      </trkpt>
      <trkpt lat="42.530660" lon="-71.131650">
        <ele>27.453399</ele>
      </trkpt>
      <trkpt lat="42.530560" lon="-71.131570">
        <ele>27.539619</ele>
      </trkpt>
      <trkpt lat="42.530460" lon="-71.131490">
        <ele>27.625839</ele>
      </trkpt>
      <trkpt lat="42.530290" lon="-71.131360">
        <ele>27.770773</ele>
      </trkpt>
      <trkpt lat="42.530180" lon="-71.131290">
        <ele>27.861012</ele>
      </trkpt>
      <trkpt lat="42.530060" lon="-71.131220">
        <ele>27.958257</ele>
      </trkpt>
      <trkpt lat="42.529920" lon="-71.131120">
        <ele>28.080122</ele>
      </trkpt>
      <trkpt lat="42.529400" lon="-71.130800">
        <ele>28.519929</ele>
      </trkpt>
      <trkpt lat="42.529260" lon="-71.130710">
        <ele>28.639256</ele>
      </trkpt>
      <trkpt lat="42.529150" lon="-71.130620">
        <ele>28.738197</ele>
      </trkpt>
      <trkpt lat="42.529070" lon="-71.130540">
        <ele>28.814744</ele>
      </trkpt>
      <trkpt lat="42.528990" lon="-71.130440">
        <ele>28.898526</ele>
      </trkpt>
      <trkpt lat="42.528930" lon="-71.130350">
        <ele>28.967417</ele>
      </trkpt>
      <trkpt lat="42.528850" lon="-71.130240">
        <ele>29.055144</ele>
      </trkpt>
      <trkpt lat="42.528770" lon="-71.130120">
        <ele>29.146999</ele>
      </trkpt>
      <trkpt lat="42.528470" lon="-71.129630">
        <ele>29.754055</ele>
      </trkpt>
      <trkpt lat="42.528220" lon="-71.129220">
        <ele>30.488843</ele>
      </trkpt>
      <trkpt lat="42.528160" lon="-71.129120">
        <ele>30.666900</ele>
      </trkpt>
      <trkpt lat="42.528100" lon="-71.129010">
        <ele>30.855866</ele>
      </trkpt>
      <trkpt lat="42.528040" lon="-71.128900">
        <ele>31.044832</ele>
      </trkpt>
      <trkpt lat="42.527990" lon="-71.128780">
        <ele>31.235179</ele>
      </trkpt>
      <trkpt lat="42.527950" lon="-71.128670">
        <ele>31.404551</ele>
      </trkpt>
      <trkpt lat="42.527900" lon="-71.128550">
        <ele>31.594898</ele>
      </trkpt>
      <trkpt lat="42.527870" lon="-71.128420">
        <ele>31.782997</ele>
      </trkpt>
      <trkpt lat="42.527830" lon="-71.128290">
        <ele>31.977519</ele>
      </trkpt>
      <trkpt lat="42.527790" lon="-71.128150">
        <ele>32.184852</ele>
      </trkpt>
      <trkpt lat="42.527760" lon="-71.128010">
        <ele>32.386171</ele>
      </trkpt>
      <trkpt lat="42.527730" lon="-71.127860">
        <ele>32.600783</ele>
      </trkpt>
      <trkpt lat="42.527710" lon="-71.127720">
        <ele>32.617576</ele>
      </trkpt>
      <trkpt lat="42.527690" lon="-71.127580">
        <ele>32.421930</ele>
      </trkpt>
      <trkpt lat="42.527680" lon="-71.127430">
        <ele>32.215299</ele>
      </trkpt>
      <trkpt lat="42.527660" lon="-71.127260">
        <ele>31.979117</ele>
      </trkpt>
      <trkpt lat="42.527650" lon="-71.127040">
        <ele>31.676717</ele>
      </trkpt>
      <trkpt lat="42.527630" lon="-71.126800">
        <ele>31.345354</ele>
      </trkpt>
      <trkpt lat="42.527620" lon="-71.126690">
        <ele>31.193297</ele>
      </trkpt>
      <trkpt lat="42.527580" lon="-71.126480">
        <ele>30.895723</ele>
      </trkpt>
      <trkpt lat="42.527550" lon="-71.126390">
        <ele>30.760205</ele>
      </trkpt>
      <trkpt lat="42.527480" lon="-71.126210">
        <ele>30.480982</ele>
      </trkpt>
      <trkpt lat="42.527420" lon="-71.126120">
        <ele>30.314481</ele>
      </trkpt>
      <trkpt lat="42.527360" lon="-71.126030">
        <ele>30.147980</ele>
      </trkpt>
      <trkpt lat="42.527290" lon="-71.125960">
        <ele>29.986101</ele>
      </trkpt>
      <trkpt lat="42.527150" lon="-71.125840">
        <ele>29.677829</ele>
      </trkpt>
      <trkpt lat="42.526880" lon="-71.125650">
        <ele>29.700654</ele>
      </trkpt>
      <trkpt lat="42.526490" lon="-71.125350">
        <ele>30.853885</ele>
      </trkpt>
      <trkpt lat="42.526400" lon="-71.125280">
        <ele>31.120737</ele>
      </trkpt>
      <trkpt lat="42.526460" lon="-71.125080">
        <ele>31.530103</ele>
      </trkpt>
      <trkpt lat="42.526510" lon="-71.124960">
        <ele>31.791438</ele>
      </trkpt>
      <trkpt lat="42.526620" lon="-71.124900">
        <ele>32.096409</ele>
      </trkpt>
      <trkpt lat="42.526600" lon="-71.124730">
        <ele>32.422771</ele>
      </trkpt>
      <trkpt lat="42.526620" lon="-71.124570">
        <ele>32.730426</ele>
      </trkpt>
      <trkpt lat="42.526880" lon="-71.123740">
        <ele>34.295457</ele>
      </trkpt>
      <trkpt lat="42.526920" lon="-71.123590">
        <ele>34.501564</ele>
      </trkpt>
      <trkpt lat="42.526960" lon="-71.123470">
        <ele>34.671734</ele>
      </trkpt>
      <trkpt lat="42.526990" lon="-71.123350">
        <ele>34.835459</ele>
      </trkpt>
      <trkpt lat="42.527010" lon="-71.123240">
        <ele>34.981847</ele>
      </trkpt>
      <trkpt lat="42.527020" lon="-71.123090">
        <ele>35.176448</ele>
      </trkpt>
      <trkpt lat="42.527030" lon="-71.122950">
        <ele>35.358183</ele>
      </trkpt>
      <trkpt lat="42.527060" lon="-71.122090">
        <ele>36.470598</ele>
      </trkpt>
      <trkpt lat="42.527050" lon="-71.121850">
        <ele>36.781187</ele>
      </trkpt>
      <trkpt lat="42.527040" lon="-71.121740">
        <ele>36.924390</ele>
      </trkpt>
      <trkpt lat="42.527020" lon="-71.121630">
        <ele>37.070779</ele>
      </trkpt>
      <trkpt lat="42.526800" lon="-71.120810">
        <ele>37.754714</ele>
      </trkpt>
      <trkpt lat="42.526720" lon="-71.120590">
        <ele>37.938930</ele>
      </trkpt>
      <trkpt lat="42.526660" lon="-71.120510">
        <ele>38.024640</ele>
      </trkpt>
      <trkpt lat="42.526580" lon="-71.120440">
        <ele>38.121632</ele>
      </trkpt>
      <trkpt lat="42.526310" lon="-71.120250">
        <ele>38.431537</ele>
      </trkpt>
      <trkpt lat="42.526870" lon="-71.118850">
        <ele>38.332830</ele>
      </trkpt>
      <trkpt lat="42.525480" lon="-71.116770">
        <ele>36.589702</ele>
      </trkpt>
      <trkpt lat="42.525380" lon="-71.116690">
        <ele>36.513986</ele>
      </trkpt>
      <trkpt lat="42.525590" lon="-71.116150">
        <ele>36.220498</ele>
      </trkpt>
      <trkpt lat="42.525750" lon="-71.115760">
        <ele>36.034142</ele>
      </trkpt>
      <trkpt lat="42.525910" lon="-71.115380">
        <ele>36.680587</ele>
      </trkpt>
      <trkpt lat="42.525370" lon="-71.114820">
        <ele>38.042795</ele>
      </trkpt>
      <trkpt lat="42.525240" lon="-71.114650">
        <ele>38.404657</ele>
      </trkpt>
      <trkpt lat="42.525370" lon="-71.114370">
        <ele>38.893478</ele>
      </trkpt>
      <trkpt lat="42.525560" lon="-71.113880">
        <ele>39.821153</ele>
      </trkpt>
      <trkpt lat="42.525960" lon="-71.112840">
        <ele>43.589612</ele>
      </trkpt>
      <trkpt lat="42.526010" lon="-71.112650">
        <ele>44.237704</ele>
      </trkpt>
      <trkpt lat="42.526070" lon="-71.112420">
        <ele>45.021466</ele>
      </trkpt>
      <trkpt lat="42.526180" lon="-71.111940">
        <ele>46.636220</ele>
      </trkpt>
      <trkpt lat="42.526430" lon="-71.110880">
        <ele>46.512743</ele>
      </trkpt>
      <trkpt lat="42.526520" lon="-71.110180">
        <ele>45.729263</ele>
      </trkpt>
      <trkpt lat="42.526580" lon="-71.109780">
        <ele>45.279179</ele>
      </trkpt>
      <trkpt lat="42.526600" lon="-71.109590">
        <ele>45.067558</ele>
      </trkpt>
      <trkpt lat="42.526780" lon="-71.108220">
        <ele>44.003141</ele>
      </trkpt>
      <trkpt lat="42.526930" lon="-71.107290">
        <ele>43.353330</ele>
      </trkpt>
      <trkpt lat="42.527060" lon="-71.106450">
        <ele>43.749569</ele>
      </trkpt>
      <trkpt lat="42.527130" lon="-71.106260">
        <ele>44.031557</ele>
      </trkpt>
      <trkpt lat="42.527060" lon="-71.106100">
        <ele>44.278567</ele>
      </trkpt>
      <trkpt lat="42.526950" lon="-71.105880">
        <ele>44.631493</ele>
      </trkpt>
      <trkpt lat="42.526860" lon="-71.105690">
        <ele>44.931329</ele>
      </trkpt>
      <trkpt lat="42.526580" lon="-71.105120">
        <ele>45.840704</ele>
      </trkpt>
      <trkpt lat="42.526530" lon="-71.105020">
        <ele>46.001126</ele>
      </trkpt>
      <trkpt lat="42.526430" lon="-71.104840">
        <ele>46.300370</ele>
      </trkpt>
      <trkpt lat="42.526330" lon="-71.104640">
        <ele>45.789061</ele>
      </trkpt>
      <trkpt lat="42.526220" lon="-71.104420">
        <ele>45.094187</ele>
      </trkpt>
      <trkpt lat="42.525980" lon="-71.103920">
        <ele>43.534559</ele>
      </trkpt>
      <trkpt lat="42.525870" lon="-71.103700">
        <ele>42.839682</ele>
      </trkpt>
      <trkpt lat="42.525780" lon="-71.103490">
        <ele>42.204730</ele>
      </trkpt>
      <trkpt lat="42.525750" lon="-71.103330">
        <ele>41.773205</ele>
      </trkpt>
      <trkpt lat="42.525740" lon="-71.103190">
        <ele>41.405564</ele>
      </trkpt>
      <trkpt lat="42.525730" lon="-71.103060">
        <ele>41.063929</ele>
      </trkpt>
      <trkpt lat="42.525740" lon="-71.102830">
        <ele>40.461719</ele>
      </trkpt>
      <trkpt lat="42.525740" lon="-71.102510">
        <ele>39.838980</ele>
      </trkpt>
      <trkpt lat="42.525740" lon="-71.102370">
        <ele>39.705392</ele>
      </trkpt>
      <trkpt lat="42.525750" lon="-71.102190">
        <ele>39.533150</ele>
      </trkpt>
      <trkpt lat="42.525630" lon="-71.102230">
        <ele>39.373161</ele>
      </trkpt>
      <trkpt lat="42.525450" lon="-71.102300">
        <ele>39.130724</ele>
      </trkpt>
      <trkpt lat="42.525230" lon="-71.102370">
        <ele>38.838153</ele>
      </trkpt>
      <trkpt lat="42.525250" lon="-71.102250">
        <ele>38.720757</ele>
      </trkpt>
      <trkpt lat="42.525250" lon="-71.102250">
        <ele>38.720757</ele>
      </trkpt>
      <trkpt lat="42.525230" lon="-71.102370">
        <ele>38.603361</ele>
      </trkpt>
      <trkpt lat="42.525100" lon="-71.102420">
        <ele>38.428413</ele>
      </trkpt>
      <trkpt lat="42.524910" lon="-71.102480">
        <ele>38.175837</ele>
      </trkpt>
      <trkpt lat="42.524670" lon="-71.102560">
        <ele>37.855858</ele>
      </trkpt>
      <trkpt lat="42.524490" lon="-71.102630">
        <ele>37.588435</ele>
      </trkpt>
      <trkpt lat="42.524380" lon="-71.102670">
        <ele>37.253224</ele>
      </trkpt>
      <trkpt lat="42.524280" lon="-71.102710">
        <ele>36.946350</ele>
      </trkpt>
      <trkpt lat="42.523650" lon="-71.102950">
        <ele>35.020242</ele>
      </trkpt>
      <trkpt lat="42.523540" lon="-71.102980">
        <ele>34.689981</ele>
      </trkpt>
      <trkpt lat="42.523440" lon="-71.103000">
        <ele>34.392450</ele>
      </trkpt>
      <trkpt lat="42.523240" lon="-71.103040">
        <ele>33.797389</ele>
      </trkpt>
      <trkpt lat="42.523130" lon="-71.103050">
        <ele>33.472878</ele>
      </trkpt>
      <trkpt lat="42.522950" lon="-71.103070">
        <ele>32.941274</ele>
      </trkpt>
      <trkpt lat="42.522620" lon="-71.103100">
        <ele>32.191289</ele>
      </trkpt>
      <trkpt lat="42.522320" lon="-71.103120">
        <ele>31.839915</ele>
      </trkpt>
      <trkpt lat="42.522070" lon="-71.103140">
        <ele>31.546949</ele>
      </trkpt>
      <trkpt lat="42.521980" lon="-71.103150">
        <ele>31.441311</ele>
      </trkpt>
      <trkpt lat="42.521850" lon="-71.103160">
        <ele>31.288988</ele>
      </trkpt>
      <trkpt lat="42.521610" lon="-71.103180">
        <ele>31.007699</ele>
      </trkpt>
      <trkpt lat="42.521370" lon="-71.103200">
        <ele>30.726410</ele>
      </trkpt>
      <trkpt lat="42.521260" lon="-71.103200">
        <ele>30.597728</ele>
      </trkpt>
      <trkpt lat="42.521110" lon="-71.103210">
        <ele>30.422041</ele>
      </trkpt>
      <trkpt lat="42.520840" lon="-71.103240">
        <ele>30.177943</ele>
      </trkpt>
      <trkpt lat="42.520700" lon="-71.103250">
        <ele>30.106162</ele>
      </trkpt>
      <trkpt lat="42.520440" lon="-71.103270">
        <ele>29.972824</ele>
      </trkpt>
      <trkpt lat="42.520290" lon="-71.103290">
        <ele>29.895652</ele>
      </trkpt>
      <trkpt lat="42.520130" lon="-71.103300">
        <ele>29.813643</ele>
      </trkpt>
      <trkpt lat="42.520010" lon="-71.103310">
        <ele>29.752086</ele>
      </trkpt>
      <trkpt lat="42.519740" lon="-71.103330">
        <ele>29.613636</ele>
      </trkpt>
      <trkpt lat="42.519550" lon="-71.103350">
        <ele>29.516061</ele>
      </trkpt>
      <trkpt lat="42.519360" lon="-71.103360">
        <ele>29.418706</ele>
      </trkpt>
      <trkpt lat="42.519240" lon="-71.103370">
        <ele>29.357148</ele>
      </trkpt>
      <trkpt lat="42.518830" lon="-71.103410">
        <ele>29.281182</ele>
      </trkpt>
      <trkpt lat="42.518740" lon="-71.103410">
        <ele>29.272213</ele>
      </trkpt>
      <trkpt lat="42.518110" lon="-71.103470">
        <ele>29.209276</ele>
      </trkpt>
      <trkpt lat="42.517770" lon="-71.103500">
        <ele>29.175322</ele>
      </trkpt>
      <trkpt lat="42.517530" lon="-71.103520">
        <ele>29.151360</ele>
      </trkpt>
      <trkpt lat="42.517280" lon="-71.103540">
        <ele>29.118132</ele>
      </trkpt>
      <trkpt lat="42.517160" lon="-71.103550">
        <ele>29.093827</ele>
      </trkpt>
      <trkpt lat="42.517020" lon="-71.103560">
        <ele>29.065485</ele>
      </trkpt>
      <trkpt lat="42.516930" lon="-71.103570">
        <ele>29.047230</ele>
      </trkpt>
      <trkpt lat="42.516680" lon="-71.103590">
        <ele>28.996602</ele>
      </trkpt>
      <trkpt lat="42.516450" lon="-71.103610">
        <ele>28.950009</ele>
      </trkpt>
      <trkpt lat="42.516280" lon="-71.103620">
        <ele>28.915610</ele>
      </trkpt>
      <trkpt lat="42.516030" lon="-71.103640">
        <ele>28.864982</ele>
      </trkpt>
      <trkpt lat="42.515900" lon="-71.103650">
        <ele>28.838658</ele>
      </trkpt>
      <trkpt lat="42.515390" lon="-71.103690">
        <ele>28.872031</ele>
      </trkpt>
      <trkpt lat="42.515190" lon="-71.103710">
        <ele>28.987788</ele>
      </trkpt>
      <trkpt lat="42.514980" lon="-71.103720">
        <ele>29.109079</ele>
      </trkpt>
      <trkpt lat="42.514710" lon="-71.103740">
        <ele>29.265161</ele>
      </trkpt>
      <trkpt lat="42.513930" lon="-71.103800">
        <ele>29.716116</ele>
      </trkpt>
      <trkpt lat="42.513550" lon="-71.103830">
        <ele>30.122923</ele>
      </trkpt>
      <trkpt lat="42.513200" lon="-71.103860">
        <ele>30.624063</ele>
      </trkpt>
      <trkpt lat="42.513030" lon="-71.103870">
        <ele>30.867218</ele>
      </trkpt>
      <trkpt lat="42.512850" lon="-71.103890">
        <ele>31.125295</ele>
      </trkpt>
      <trkpt lat="42.512460" lon="-71.103910">
        <ele>31.682995</ele>
      </trkpt>
      <trkpt lat="42.512270" lon="-71.103930">
        <ele>31.955317</ele>
      </trkpt>
      <trkpt lat="42.512060" lon="-71.103940">
        <ele>32.255587</ele>
      </trkpt>
      <trkpt lat="42.511960" lon="-71.103950">
        <ele>32.435150</ele>
      </trkpt>
      <trkpt lat="42.511740" lon="-71.103970">
        <ele>33.333180</ele>
      </trkpt>
      <trkpt lat="42.510680" lon="-71.104040">
        <ele>37.655481</ele>
      </trkpt>
      <trkpt lat="42.510570" lon="-71.104060">
        <ele>38.107498</ele>
      </trkpt>
      <trkpt lat="42.510490" lon="-71.104060">
        <ele>38.433323</ele>
      </trkpt>
      <trkpt lat="42.510240" lon="-71.104080">
        <ele>39.453297</ele>
      </trkpt>
      <trkpt lat="42.510130" lon="-71.104090">
        <ele>39.948309</ele>
      </trkpt>
      <trkpt lat="42.509970" lon="-71.104100">
        <ele>40.752582</ele>
      </trkpt>
      <trkpt lat="42.509860" lon="-71.104110">
        <ele>41.306173</ele>
      </trkpt>
      <trkpt lat="42.509550" lon="-71.104130">
        <ele>42.864561</ele>
      </trkpt>
      <trkpt lat="42.509210" lon="-71.104160">
        <ele>44.575438</ele>
      </trkpt>
      <trkpt lat="42.508980" lon="-71.104180">
        <ele>45.732726</ele>
      </trkpt>
      <trkpt lat="42.508750" lon="-71.104200">
        <ele>46.890014</ele>
      </trkpt>
      <trkpt lat="42.508630" lon="-71.104210">
        <ele>47.493715</ele>
      </trkpt>
      <trkpt lat="42.508420" lon="-71.104220">
        <ele>48.548855</ele>
      </trkpt>
      <trkpt lat="42.508330" lon="-71.104220">
        <ele>48.869506</ele>
      </trkpt>
      <trkpt lat="42.508230" lon="-71.104220">
        <ele>49.122231</ele>
      </trkpt>
      <trkpt lat="42.508100" lon="-71.104210">
        <ele>49.451302</ele>
      </trkpt>
      <trkpt lat="42.507980" lon="-71.104190">
        <ele>49.756853</ele>
      </trkpt>
      <trkpt lat="42.507840" lon="-71.104160">
        <ele>50.115056</ele>
      </trkpt>
      <trkpt lat="42.507650" lon="-71.104110">
        <ele>50.604186</ele>
      </trkpt>
      <trkpt lat="42.507510" lon="-71.104060">
        <ele>50.970059</ele>
      </trkpt>
      <trkpt lat="42.507410" lon="-71.104030">
        <ele>51.228891</ele>
      </trkpt>
      <trkpt lat="42.507330" lon="-71.104000">
        <ele>51.438655</ele>
      </trkpt>
      <trkpt lat="42.507250" lon="-71.103960">
        <ele>51.654132</ele>
      </trkpt>
      <trkpt lat="42.506990" lon="-71.103860">
        <ele>52.337120</ele>
      </trkpt>
      <trkpt lat="42.506870" lon="-71.103820">
        <ele>52.649413</ele>
      </trkpt>
      <trkpt lat="42.506700" lon="-71.103750">
        <ele>53.098404</ele>
      </trkpt>
      <trkpt lat="42.506550" lon="-71.103690">
        <ele>53.278995</ele>
      </trkpt>
      <trkpt lat="42.506390" lon="-71.103630">
        <ele>53.272804</ele>
      </trkpt>
      <trkpt lat="42.506220" lon="-71.103570">
        <ele>53.266252</ele>
      </trkpt>
      <trkpt lat="42.505820" lon="-71.103430">
        <ele>53.250844</ele>
      </trkpt>
      <trkpt lat="42.505680" lon="-71.103370">
        <ele>53.245367</ele>
      </trkpt>
      <trkpt lat="42.505600" lon="-71.103350">
        <ele>53.242333</ele>
      </trkpt>
      <trkpt lat="42.505430" lon="-71.103350">
        <ele>53.235992</ele>
      </trkpt>
      <trkpt lat="42.504760" lon="-71.103100">
        <ele>52.766086</ele>
      </trkpt>
      <trkpt lat="42.504100" lon="-71.102850">
        <ele>50.450705</ele>
      </trkpt>
      <trkpt lat="42.503780" lon="-71.102730">
        <ele>49.328903</ele>
      </trkpt>
      <trkpt lat="42.503360" lon="-71.102560">
        <ele>47.847937</ele>
      </trkpt>
      <trkpt lat="42.503100" lon="-71.102420">
        <ele>46.989455</ele>
      </trkpt>
      <trkpt lat="42.502900" lon="-71.102330">
        <ele>46.540315</ele>
      </trkpt>
      <trkpt lat="42.502120" lon="-71.101910">
        <ele>44.751560</ele>
      </trkpt>
      <trkpt lat="42.501370" lon="-71.101490">
        <ele>42.906774</ele>
      </trkpt>
      <trkpt lat="42.501150" lon="-71.101360">
        <ele>42.186013</ele>
      </trkpt>
      <trkpt lat="42.500880" lon="-71.101240">
        <ele>41.332632</ele>
      </trkpt>
      <trkpt lat="42.500600" lon="-71.101130">
        <ele>40.457076</ele>
      </trkpt>
      <trkpt lat="42.500440" lon="-71.101070">
        <ele>39.958482</ele>
      </trkpt>
      <trkpt lat="42.500130" lon="-71.100990">
        <ele>39.010682</ele>
      </trkpt>
      <trkpt lat="42.499760" lon="-71.100920">
        <ele>37.894079</ele>
      </trkpt>
      <trkpt lat="42.499620" lon="-71.100910">
        <ele>37.650221</ele>
      </trkpt>
      <trkpt lat="42.499410" lon="-71.100890">
        <ele>37.284041</ele>
      </trkpt>
      <trkpt lat="42.498100" lon="-71.100810">
        <ele>35.003076</ele>
      </trkpt>
      <trkpt lat="42.497380" lon="-71.100780">
        <ele>33.922139</ele>
      </trkpt>
      <trkpt lat="42.497260" lon="-71.100770">
        <ele>33.748188</ele>
      </trkpt>
      <trkpt lat="42.496940" lon="-71.100760">
        <ele>33.285068</ele>
      </trkpt>
      <trkpt lat="42.496570" lon="-71.100750">
        <ele>32.749621</ele>
      </trkpt>
      <trkpt lat="42.496230" lon="-71.100740">
        <ele>32.257571</ele>
      </trkpt>
      <trkpt lat="42.495930" lon="-71.100720">
        <ele>32.296226</ele>
      </trkpt>
      <trkpt lat="42.495590" lon="-71.100710">
        <ele>32.474085</ele>
      </trkpt>
      <trkpt lat="42.495320" lon="-71.100690">
        <ele>32.615503</ele>
      </trkpt>
      <trkpt lat="42.495200" lon="-71.100690">
        <ele>32.678262</ele>
      </trkpt>
      <trkpt lat="42.495040" lon="-71.100680">
        <ele>32.762030</ele>
      </trkpt>
      <trkpt lat="42.494280" lon="-71.100640">
        <ele>32.932032</ele>
      </trkpt>
      <trkpt lat="42.493590" lon="-71.100590">
        <ele>31.597818</ele>
      </trkpt>
      <trkpt lat="42.493370" lon="-71.100580">
        <ele>31.172785</ele>
      </trkpt>
      <trkpt lat="42.493240" lon="-71.100570">
        <ele>30.921366</ele>
      </trkpt>
      <trkpt lat="42.493050" lon="-71.100560">
        <ele>30.554221</ele>
      </trkpt>
      <trkpt lat="42.492930" lon="-71.100550">
        <ele>30.322077</ele>
      </trkpt>
      <trkpt lat="42.492760" lon="-71.100540">
        <ele>29.993518</ele>
      </trkpt>
      <trkpt lat="42.492510" lon="-71.100520">
        <ele>29.583492</ele>
      </trkpt>
      <trkpt lat="42.492360" lon="-71.100510">
        <ele>29.459684</ele>
      </trkpt>
      <trkpt lat="42.491940" lon="-71.100480">
        <ele>29.112959</ele>
      </trkpt>
      <trkpt lat="42.491730" lon="-71.100470">
        <ele>28.939730</ele>
      </trkpt>
      <trkpt lat="42.491610" lon="-71.100460">
        <ele>28.840617</ele>
      </trkpt>
      <trkpt lat="42.491490" lon="-71.100450">
        <ele>28.741503</ele>
      </trkpt>
      <trkpt lat="42.491320" lon="-71.100440">
        <ele>28.601225</ele>
      </trkpt>
      <trkpt lat="42.491110" lon="-71.100410">
        <ele>28.427144</ele>
      </trkpt>
      <trkpt lat="42.490970" lon="-71.100400">
        <ele>28.311569</ele>
      </trkpt>
      <trkpt lat="42.490850" lon="-71.100390">
        <ele>28.212456</ele>
      </trkpt>
      <trkpt lat="42.490660" lon="-71.100370">
        <ele>28.225355</ele>
      </trkpt>
      <trkpt lat="42.490350" lon="-71.100350">
        <ele>28.403845</ele>
      </trkpt>
      <trkpt lat="42.490210" lon="-71.100330">
        <ele>28.484808</ele>
      </trkpt>
      <trkpt lat="42.490020" lon="-71.100310">
        <ele>28.594411</ele>
      </trkpt>
      <trkpt lat="42.489750" lon="-71.100240">
        <ele>28.752506</ele>
      </trkpt>
      <trkpt lat="42.489600" lon="-71.100230">
        <ele>28.838879</ele>
      </trkpt>
      <trkpt lat="42.489490" lon="-71.100230">
        <ele>28.902143</ele>
      </trkpt>
      <trkpt lat="42.489360" lon="-71.100220">
        <ele>28.977029</ele>
      </trkpt>
      <trkpt lat="42.489150" lon="-71.100210">
        <ele>29.097880</ele>
      </trkpt>
      <trkpt lat="42.488960" lon="-71.100190">
        <ele>29.258064</ele>
      </trkpt>
      <trkpt lat="42.488870" lon="-71.100190">
        <ele>29.459043</ele>
      </trkpt>
      <trkpt lat="42.488740" lon="-71.100180">
        <ele>29.749813</ele>
      </trkpt>
      <trkpt lat="42.488380" lon="-71.100160">
        <ele>30.554402</ele>
      </trkpt>
      <trkpt lat="42.488040" lon="-71.100140">
        <ele>31.314370</ele>
      </trkpt>
      <trkpt lat="42.487710" lon="-71.100120">
        <ele>32.052028</ele>
      </trkpt>
      <trkpt lat="42.487460" lon="-71.100110">
        <ele>32.610545</ele>
      </trkpt>
      <trkpt lat="42.487150" lon="-71.100090">
        <ele>33.284386</ele>
      </trkpt>
      <trkpt lat="42.486870" lon="-71.100090">
        <ele>33.786009</ele>
      </trkpt>
      <trkpt lat="42.486710" lon="-71.100100">
        <ele>34.072955</ele>
      </trkpt>
      <trkpt lat="42.486430" lon="-71.100110">
        <ele>34.574751</ele>
      </trkpt>
      <trkpt lat="42.486150" lon="-71.100120">
        <ele>35.076548</ele>
      </trkpt>
      <trkpt lat="42.485980" lon="-71.100130">
        <ele>35.381391</ele>
      </trkpt>
      <trkpt lat="42.485780" lon="-71.100140">
        <ele>35.739937</ele>
      </trkpt>
      <trkpt lat="42.485540" lon="-71.100150">
        <ele>36.170102</ele>
      </trkpt>
      <trkpt lat="42.485460" lon="-71.100150">
        <ele>36.313423</ele>
      </trkpt>
      <trkpt lat="42.485320" lon="-71.100150">
        <ele>36.622560</ele>
      </trkpt>
      <trkpt lat="42.485050" lon="-71.100160">
        <ele>37.314793</ele>
      </trkpt>
      <trkpt lat="42.484890" lon="-71.100160">
        <ele>37.724852</ele>
      </trkpt>
      <trkpt lat="42.484720" lon="-71.100170">
        <ele>38.160949</ele>
      </trkpt>
      <trkpt lat="42.484320" lon="-71.100170">
        <ele>39.186097</ele>
      </trkpt>
      <trkpt lat="42.484190" lon="-71.100170">
        <ele>39.519269</ele>
      </trkpt>
      <trkpt lat="42.483760" lon="-71.100180">
        <ele>40.621465</ele>
      </trkpt>
      <trkpt lat="42.483160" lon="-71.100200">
        <ele>42.021885</ele>
      </trkpt>
      <trkpt lat="42.482900" lon="-71.100200">
        <ele>42.606354</ele>
      </trkpt>
      <trkpt lat="42.482780" lon="-71.100190">
        <ele>42.876618</ele>
      </trkpt>
      <trkpt lat="42.482650" lon="-71.100200">
        <ele>43.169323</ele>
      </trkpt>
      <trkpt lat="42.482550" lon="-71.100200">
        <ele>43.394119</ele>
      </trkpt>
      <trkpt lat="42.482440" lon="-71.100200">
        <ele>43.641394</ele>
      </trkpt>
      <trkpt lat="42.482140" lon="-71.100190">
        <ele>44.315986</ele>
      </trkpt>
      <trkpt lat="42.481650" lon="-71.100180">
        <ele>45.282369</ele>
      </trkpt>
      <trkpt lat="42.481420" lon="-71.100190">
        <ele>45.591376</ele>
      </trkpt>
      <trkpt lat="42.481280" lon="-71.100190">
        <ele>45.779370</ele>
      </trkpt>
      <trkpt lat="42.481130" lon="-71.100190">
        <ele>45.980792</ele>
      </trkpt>
      <trkpt lat="42.480910" lon="-71.100190">
        <ele>46.276212</ele>
      </trkpt>
      <trkpt lat="42.480680" lon="-71.100200">
        <ele>46.585219</ele>
      </trkpt>
      <trkpt lat="42.480390" lon="-71.100210">
        <ele>46.974762</ele>
      </trkpt>
      <trkpt lat="42.480130" lon="-71.100220">
        <ele>47.324035</ele>
      </trkpt>
      <trkpt lat="42.480000" lon="-71.100230">
        <ele>47.496409</ele>
      </trkpt>
      <trkpt lat="42.479620" lon="-71.100220">
        <ele>47.342806</ele>
      </trkpt>
      <trkpt lat="42.479420" lon="-71.100220">
        <ele>47.261978</ele>
      </trkpt>
      <trkpt lat="42.479230" lon="-71.100210">
        <ele>47.185133</ele>
      </trkpt>
      <trkpt lat="42.479070" lon="-71.100210">
        <ele>47.120470</ele>
      </trkpt>
      <trkpt lat="42.478960" lon="-71.100210">
        <ele>47.076015</ele>
      </trkpt>
      <trkpt lat="42.478860" lon="-71.100220">
        <ele>47.035491</ele>
      </trkpt>
      <trkpt lat="42.478230" lon="-71.100310">
        <ele>46.779472</ele>
      </trkpt>
      <trkpt lat="42.477980" lon="-71.100330">
        <ele>46.841869</ele>
      </trkpt>
      <trkpt lat="42.477710" lon="-71.100370">
        <ele>46.927704</ele>
      </trkpt>
      <trkpt lat="42.477540" lon="-71.100390">
        <ele>46.981631</ele>
      </trkpt>
      <trkpt lat="42.477370" lon="-71.100410">
        <ele>47.035557</ele>
      </trkpt>
      <trkpt lat="42.477260" lon="-71.100430">
        <ele>47.070631</ele>
      </trkpt>
      <trkpt lat="42.477160" lon="-71.100440">
        <ele>47.102320</ele>
      </trkpt>
      <trkpt lat="42.476910" lon="-71.100470">
        <ele>47.181635</ele>
      </trkpt>
      <trkpt lat="42.476760" lon="-71.100490">
        <ele>47.229268</ele>
      </trkpt>
      <trkpt lat="42.476450" lon="-71.100530">
        <ele>47.327679</ele>
      </trkpt>
      <trkpt lat="42.475860" lon="-71.100590">
        <ele>47.982864</ele>
      </trkpt>
      <trkpt lat="42.475550" lon="-71.100630">
        <ele>48.342829</ele>
      </trkpt>
      <trkpt lat="42.475360" lon="-71.100650">
        <ele>48.563121</ele>
      </trkpt>
      <trkpt lat="42.475030" lon="-71.100690">
        <ele>48.946107</ele>
      </trkpt>
      <trkpt lat="42.474690" lon="-71.100730">
        <ele>49.340608</ele>
      </trkpt>
      <trkpt lat="42.474450" lon="-71.100750">
        <ele>49.370068</ele>
      </trkpt>
      <trkpt lat="42.474230" lon="-71.100770">
        <ele>49.309719</ele>
      </trkpt>
      <trkpt lat="42.474110" lon="-71.101010">
        <ele>49.251186</ele>
      </trkpt>
      <trkpt lat="42.473850" lon="-71.101610">
        <ele>49.110703</ele>
      </trkpt>
      <trkpt lat="42.473740" lon="-71.101870">
        <ele>49.050194</ele>
      </trkpt>
      <trkpt lat="42.473690" lon="-71.101970">
        <ele>49.025805</ele>
      </trkpt>
      <trkpt lat="42.473600" lon="-71.102220">
        <ele>48.969645</ele>
      </trkpt>
      <trkpt lat="42.473560" lon="-71.102380">
        <ele>48.935540</ele>
      </trkpt>
      <trkpt lat="42.473540" lon="-71.102530">
        <ele>48.906435</ele>
      </trkpt>
      <trkpt lat="42.473420" lon="-71.103230">
        <ele>48.773108</ele>
      </trkpt>
      <trkpt lat="42.473400" lon="-71.103390">
        <ele>48.743002</ele>
      </trkpt>
      <trkpt lat="42.473380" lon="-71.103540">
        <ele>48.714722</ele>
      </trkpt>
      <trkpt lat="42.473360" lon="-71.103680">
        <ele>48.688266</ele>
      </trkpt>
      <trkpt lat="42.473340" lon="-71.103970">
        <ele>48.634230</ele>
      </trkpt>
      <trkpt lat="42.473310" lon="-71.104490">
        <ele>48.537464</ele>
      </trkpt>
      <trkpt lat="42.473290" lon="-71.105230">
        <ele>48.534752</ele>
      </trkpt>
      <trkpt lat="42.473280" lon="-71.105570">
        <ele>48.588293</ele>
      </trkpt>
      <trkpt lat="42.473270" lon="-71.105870">
        <ele>48.635547</ele>
      </trkpt>
      <trkpt lat="42.473270" lon="-71.106460">
        <ele>48.728384</ele>
      </trkpt>
      <trkpt lat="42.473270" lon="-71.106670">
        <ele>48.761427</ele>
      </trkpt>
      <trkpt lat="42.473280" lon="-71.106810">
        <ele>48.783559</ele>
      </trkpt>
      <trkpt lat="42.473300" lon="-71.106960">
        <ele>48.807544</ele>
      </trkpt>
      <trkpt lat="42.473340" lon="-71.107310">
        <ele>48.838163</ele>
      </trkpt>
      <trkpt lat="42.473400" lon="-71.107690">
        <ele>48.667322</ele>
      </trkpt>
      <trkpt lat="42.473420" lon="-71.107850">
        <ele>48.595980</ele>
      </trkpt>
      <trkpt lat="42.473430" lon="-71.108010">
        <ele>48.525388</ele>
      </trkpt>
      <trkpt lat="42.473430" lon="-71.108170">
        <ele>48.455049</ele>
      </trkpt>
      <trkpt lat="42.473420" lon="-71.108330">
        <ele>48.384458</ele>
      </trkpt>
      <trkpt lat="42.473410" lon="-71.108510">
        <ele>48.305102</ele>
      </trkpt>
      <trkpt lat="42.473400" lon="-71.108680">
        <ele>48.230129</ele>
      </trkpt>
      <trkpt lat="42.473360" lon="-71.109350">
        <ele>47.934620</ele>
      </trkpt>
      <trkpt lat="42.473320" lon="-71.109860">
        <ele>47.742306</ele>
      </trkpt>
      <trkpt lat="42.473280" lon="-71.110530">
        <ele>47.576615</ele>
      </trkpt>
      <trkpt lat="42.473250" lon="-71.111000">
        <ele>47.460330</ele>
      </trkpt>
      <trkpt lat="42.473210" lon="-71.111690">
        <ele>47.289725</ele>
      </trkpt>
      <trkpt lat="42.473200" lon="-71.111900">
        <ele>47.237854</ele>
      </trkpt>
      <trkpt lat="42.473170" lon="-71.112310">
        <ele>46.634104</ele>
      </trkpt>
      <trkpt lat="42.473160" lon="-71.112490">
        <ele>46.116668</ele>
      </trkpt>
      <trkpt lat="42.473130" lon="-71.112680">
        <ele>45.559689</ele>
      </trkpt>
      <trkpt lat="42.473110" lon="-71.112850">
        <ele>45.066220</ele>
      </trkpt>
      <trkpt lat="42.473070" lon="-71.113030">
        <ele>44.527336</ele>
      </trkpt>
      <trkpt lat="42.473020" lon="-71.113270">
        <ele>43.812453</ele>
      </trkpt>
      <trkpt lat="42.472940" lon="-71.113640">
        <ele>42.707207</ele>
      </trkpt>
      <trkpt lat="42.472910" lon="-71.113760">
        <ele>42.344001</ele>
      </trkpt>
      <trkpt lat="42.472880" lon="-71.113870">
        <ele>42.007818</ele>
      </trkpt>
      <trkpt lat="42.472840" lon="-71.114000">
        <ele>41.604044</ele>
      </trkpt>
      <trkpt lat="42.472780" lon="-71.114130">
        <ele>41.164452</ele>
      </trkpt>
      <trkpt lat="42.472690" lon="-71.114290">
        <ele>40.587655</ele>
      </trkpt>
      <trkpt lat="42.472580" lon="-71.114440">
        <ele>40.034065</ele>
      </trkpt>
      <trkpt lat="42.472480" lon="-71.114370">
        <ele>39.705435</ele>
      </trkpt>
      <trkpt lat="42.472350" lon="-71.114350">
        <ele>39.323394</ele>
      </trkpt>
      <trkpt lat="42.472080" lon="-71.114460">
        <ele>38.500155</ele>
      </trkpt>
      <trkpt lat="42.471760" lon="-71.114610">
        <ele>37.511466</ele>
      </trkpt>
      <trkpt lat="42.471430" lon="-71.114790">
        <ele>36.472785</ele>
      </trkpt>
      <trkpt lat="42.471300" lon="-71.114860">
        <ele>36.064335</ele>
      </trkpt>
      <trkpt lat="42.471180" lon="-71.114960">
        <ele>35.653026</ele>
      </trkpt>
      <trkpt lat="42.471110" lon="-71.115030">
        <ele>35.399033</ele>
      </trkpt>
      <trkpt lat="42.471020" lon="-71.115150">
        <ele>35.030428</ele>
      </trkpt>
      <trkpt lat="42.470970" lon="-71.115310">
        <ele>34.736564</ele>
      </trkpt>
      <trkpt lat="42.470950" lon="-71.115410">
        <ele>34.576322</ele>
      </trkpt>
      <trkpt lat="42.470920" lon="-71.115590">
        <ele>34.290921</ele>
      </trkpt>
      <trkpt lat="42.470860" lon="-71.116080">
        <ele>33.522729</ele>
      </trkpt>
      <trkpt lat="42.470850" lon="-71.116250">
        <ele>33.258976</ele>
      </trkpt>
      <trkpt lat="42.470900" lon="-71.116410">
        <ele>32.990233</ele>
      </trkpt>
      <trkpt lat="42.470850" lon="-71.116640">
        <ele>32.619393</ele>
      </trkpt>
      <trkpt lat="42.470810" lon="-71.116910">
        <ele>32.193479</ele>
      </trkpt>
      <trkpt lat="42.470760" lon="-71.117150">
        <ele>31.807779</ele>
      </trkpt>
      <trkpt lat="42.470660" lon="-71.117450">
        <ele>31.298629</ele>
      </trkpt>
      <trkpt lat="42.470510" lon="-71.117890">
        <ele>30.363802</ele>
      </trkpt>
      <trkpt lat="42.470420" lon="-71.118160">
        <ele>29.768960</ele>
      </trkpt>
      <trkpt lat="42.470330" lon="-71.118420">
        <ele>29.192353</ele>
      </trkpt>
      <trkpt lat="42.470240" lon="-71.118660">
        <ele>28.651826</ele>
      </trkpt>
      <trkpt lat="42.470160" lon="-71.118840">
        <ele>28.229920</ele>
      </trkpt>
      <trkpt lat="42.470070" lon="-71.118970">
        <ele>27.871977</ele>
      </trkpt>
      <trkpt lat="42.470000" lon="-71.119070">
        <ele>27.595199</ele>
      </trkpt>
      <trkpt lat="42.469770" lon="-71.119310">
        <ele>26.805230</ele>
      </trkpt>
      <trkpt lat="42.469530" lon="-71.119550">
        <ele>26.167402</ele>
      </trkpt>
      <trkpt lat="42.469310" lon="-71.119780">
        <ele>25.878979</ele>
      </trkpt>
      <trkpt lat="42.468930" lon="-71.120150">
        <ele>25.393265</ele>
      </trkpt>
      <trkpt lat="42.468740" lon="-71.120360">
        <ele>25.138763</ele>
      </trkpt>
      <trkpt lat="42.468600" lon="-71.120530">
        <ele>24.943640</ele>
      </trkpt>
      <trkpt lat="42.468400" lon="-71.120890">
        <ele>24.598507</ele>
      </trkpt>
      <trkpt lat="42.468300" lon="-71.121200">
        <ele>24.422570</ele>
      </trkpt>
      <trkpt lat="42.468230" lon="-71.121560">
        <ele>24.486554</ele>
      </trkpt>
      <trkpt lat="42.468200" lon="-71.121750">
        <ele>24.519947</ele>
      </trkpt>
      <trkpt lat="42.468160" lon="-71.121990">
        <ele>24.562234</ele>
      </trkpt>
      <trkpt lat="42.468070" lon="-71.122470">
        <ele>24.647351</ele>
      </trkpt>
      <trkpt lat="42.468040" lon="-71.122600">
        <ele>24.670761</ele>
      </trkpt>
      <trkpt lat="42.467990" lon="-71.122790">
        <ele>24.705430</ele>
      </trkpt>
      <trkpt lat="42.467900" lon="-71.123110">
        <ele>24.764288</ele>
      </trkpt>
      <trkpt lat="42.467790" lon="-71.123450">
        <ele>24.780455</ele>
      </trkpt>
      <trkpt lat="42.467660" lon="-71.123820">
        <ele>22.890711</ele>
      </trkpt>
      <trkpt lat="42.467560" lon="-71.124190">
        <ele>21.073701</ele>
      </trkpt>
      <trkpt lat="42.467540" lon="-71.124300">
        <ele>20.551301</ele>
      </trkpt>
      <trkpt lat="42.467510" lon="-71.124510">
        <ele>19.564980</ele>
      </trkpt>
      <trkpt lat="42.467490" lon="-71.124710">
        <ele>18.634326</ele>
      </trkpt>
      <trkpt lat="42.467470" lon="-71.124870">
        <ele>17.886033</ele>
      </trkpt>
      <trkpt lat="42.467460" lon="-71.125390">
        <ele>15.487449</ele>
      </trkpt>
      <trkpt lat="42.467600" lon="-71.125350">
        <ele>14.593088</ele>
      </trkpt>
      <trkpt lat="42.467750" lon="-71.125300">
        <ele>13.627513</ele>
      </trkpt>
      <trkpt lat="42.468070" lon="-71.125210">
        <ele>12.678600</ele>
      </trkpt>
      <trkpt lat="42.468480" lon="-71.125090">
        <ele>11.491915</ele>
      </trkpt>
      <trkpt lat="42.468630" lon="-71.125060">
        <ele>11.062946</ele>
      </trkpt>
      <trkpt lat="42.468710" lon="-71.125050">
        <ele>10.835653</ele>
      </trkpt>
      <trkpt lat="42.468810" lon="-71.125030">
        <ele>10.549674</ele>
      </trkpt>
      <trkpt lat="42.468900" lon="-71.125030">
        <ele>10.295049</ele>
      </trkpt>
      <trkpt lat="42.468990" lon="-71.125030">
        <ele>10.040423</ele>
      </trkpt>
      <trkpt lat="42.469180" lon="-71.125030">
        <ele>9.502882</ele>
      </trkpt>
      <trkpt lat="42.469430" lon="-71.125040">
        <ele>8.795282</ele>
      </trkpt>
      <trkpt lat="42.469570" lon="-71.125050">
        <ele>8.505705</ele>
      </trkpt>
      <trkpt lat="42.469730" lon="-71.125040">
        <ele>8.558913</ele>
      </trkpt>
      <trkpt lat="42.469870" lon="-71.125040">
        <ele>8.605421</ele>
      </trkpt>
      <trkpt lat="42.470010" lon="-71.125030">
        <ele>8.651993</ele>
      </trkpt>
      <trkpt lat="42.470220" lon="-71.125020">
        <ele>8.721798</ele>
      </trkpt>
      <trkpt lat="42.470230" lon="-71.125090">
        <ele>8.739269</ele>
      </trkpt>
      <trkpt lat="42.470450" lon="-71.125050">
        <ele>8.813007</ele>
      </trkpt>
      <trkpt lat="42.470710" lon="-71.124950">
        <ele>8.902787</ele>
      </trkpt>
      <trkpt lat="42.470900" lon="-71.124860">
        <ele>8.969647</ele>
      </trkpt>
      <trkpt lat="42.471190" lon="-71.124700">
        <ele>9.073656</ele>
      </trkpt>
      <trkpt lat="42.471440" lon="-71.124560">
        <ele>9.465183</ele>
      </trkpt>
      <trkpt lat="42.471760" lon="-71.124450">
        <ele>10.037227</ele>
      </trkpt>
      <trkpt lat="42.472460" lon="-71.124220">
        <ele>11.285307</ele>
      </trkpt>
      <trkpt lat="42.473160" lon="-71.123960">
        <ele>12.609669</ele>
      </trkpt>
      <trkpt lat="42.473140" lon="-71.123890">
        <ele>12.724758</ele>
      </trkpt>
      <trkpt lat="42.473390" lon="-71.123780">
        <ele>13.271073</ele>
      </trkpt>
      <trkpt lat="42.473550" lon="-71.123710">
        <ele>13.620526</ele>
      </trkpt>
      <trkpt lat="42.473720" lon="-71.123630">
        <ele>13.994558</ele>
      </trkpt>
      <trkpt lat="42.474010" lon="-71.123500">
        <ele>14.629429</ele>
      </trkpt>
      <trkpt lat="42.474230" lon="-71.123390">
        <ele>15.116813</ele>
      </trkpt>
      <trkpt lat="42.474410" lon="-71.123310">
        <ele>15.510539</ele>
      </trkpt>
      <trkpt lat="42.474650" lon="-71.123220">
        <ele>15.934937</ele>
      </trkpt>
      <trkpt lat="42.475240" lon="-71.122980">
        <ele>15.740697</ele>
      </trkpt>
      <trkpt lat="42.475680" lon="-71.122820">
        <ele>15.597046</ele>
      </trkpt>
      <trkpt lat="42.475780" lon="-71.122780">
        <ele>15.564169</ele>
      </trkpt>
      <trkpt lat="42.476310" lon="-71.122560">
        <ele>15.389385</ele>
      </trkpt>
      <trkpt lat="42.477290" lon="-71.122170">
        <ele>16.338895</ele>
      </trkpt>
      <trkpt lat="42.477410" lon="-71.122120">
        <ele>16.460275</ele>
      </trkpt>
      <trkpt lat="42.478200" lon="-71.121810">
        <ele>17.168213</ele>
      </trkpt>
      <trkpt lat="42.478460" lon="-71.121710">
        <ele>17.262317</ele>
      </trkpt>
      <trkpt lat="42.479000" lon="-71.121490">
        <ele>17.458649</ele>
      </trkpt>
      <trkpt lat="42.479250" lon="-71.121390">
        <ele>17.549408</ele>
      </trkpt>
      <trkpt lat="42.479400" lon="-71.121340">
        <ele>17.603194</ele>
      </trkpt>
      <trkpt lat="42.479500" lon="-71.121300">
        <ele>17.639497</ele>
      </trkpt>
      <trkpt lat="42.479640" lon="-71.121240">
        <ele>17.690622</ele>
      </trkpt>
      <trkpt lat="42.479810" lon="-71.121210">
        <ele>17.747396</ele>
      </trkpt>
      <trkpt lat="42.480080" lon="-71.121170">
        <ele>17.785810</ele>
      </trkpt>
      <trkpt lat="42.480170" lon="-71.121150">
        <ele>17.798709</ele>
      </trkpt>
      <trkpt lat="42.480310" lon="-71.121140">
        <ele>17.818537</ele>
      </trkpt>
      <trkpt lat="42.480440" lon="-71.121120">
        <ele>17.837041</ele>
      </trkpt>
      <trkpt lat="42.480590" lon="-71.121100">
        <ele>17.858358</ele>
      </trkpt>
      <trkpt lat="42.480810" lon="-71.121070">
        <ele>17.889630</ele>
      </trkpt>
      <trkpt lat="42.481210" lon="-71.121020">
        <ele>17.946443</ele>
      </trkpt>
      <trkpt lat="42.481570" lon="-71.120970">
        <ele>17.997626</ele>
      </trkpt>
      <trkpt lat="42.481880" lon="-71.120930">
        <ele>17.821329</ele>
      </trkpt>
      <trkpt lat="42.482590" lon="-71.120820">
        <ele>17.390674</ele>
      </trkpt>
      <trkpt lat="42.482860" lon="-71.120780">
        <ele>17.226995</ele>
      </trkpt>
      <trkpt lat="42.483280" lon="-71.120710">
        <ele>16.971984</ele>
      </trkpt>
      <trkpt lat="42.483660" lon="-71.120670">
        <ele>16.190113</ele>
      </trkpt>
      <trkpt lat="42.483950" lon="-71.120630">
        <ele>15.455592</ele>
      </trkpt>
      <trkpt lat="42.484140" lon="-71.120600">
        <ele>14.973590</ele>
      </trkpt>
      <trkpt lat="42.484440" lon="-71.120570">
        <ele>14.215589</ele>
      </trkpt>
      <trkpt lat="42.484730" lon="-71.120520">
        <ele>13.478956</ele>
      </trkpt>
      <trkpt lat="42.485260" lon="-71.120460">
        <ele>12.418571</ele>
      </trkpt>
      <trkpt lat="42.485420" lon="-71.120440">
        <ele>12.476427</ele>
      </trkpt>
      <trkpt lat="42.485600" lon="-71.120410">
        <ele>12.541729</ele>
      </trkpt>
      <trkpt lat="42.485930" lon="-71.120370">
        <ele>12.661029</ele>
      </trkpt>
      <trkpt lat="42.486200" lon="-71.120350">
        <ele>12.758395</ele>
      </trkpt>
      <trkpt lat="42.486360" lon="-71.120350">
        <ele>12.816008</ele>
      </trkpt>
      <trkpt lat="42.486440" lon="-71.120350">
        <ele>12.844814</ele>
      </trkpt>
      <trkpt lat="42.486530" lon="-71.120360">
        <ele>12.877330</ele>
      </trkpt>
      <trkpt lat="42.486650" lon="-71.120380">
        <ele>12.920865</ele>
      </trkpt>
      <trkpt lat="42.486800" lon="-71.120410">
        <ele>12.975461</ele>
      </trkpt>
      <trkpt lat="42.486890" lon="-71.120440">
        <ele>13.008833</ele>
      </trkpt>
      <trkpt lat="42.487040" lon="-71.120490">
        <ele>13.156999</ele>
      </trkpt>
      <trkpt lat="42.487310" lon="-71.120620">
        <ele>13.547680</ele>
      </trkpt>
      <trkpt lat="42.487750" lon="-71.120860">
        <ele>14.194365</ele>
      </trkpt>
      <trkpt lat="42.488110" lon="-71.121050">
        <ele>14.721117</ele>
      </trkpt>
      <trkpt lat="42.488470" lon="-71.121230">
        <ele>15.244305</ele>
      </trkpt>
      <trkpt lat="42.488650" lon="-71.121330">
        <ele>15.512596</ele>
      </trkpt>
      <trkpt lat="42.488940" lon="-71.121480">
        <ele>15.985999</ele>
      </trkpt>
      <trkpt lat="42.489680" lon="-71.121860">
        <ele>17.192889</ele>
      </trkpt>
      <trkpt lat="42.490320" lon="-71.122210">
        <ele>18.253896</ele>
      </trkpt>
      <trkpt lat="42.490450" lon="-71.122280">
        <ele>18.566256</ele>
      </trkpt>
      <trkpt lat="42.491090" lon="-71.122620">
        <ele>20.101238</ele>
      </trkpt>
      <trkpt lat="42.491380" lon="-71.122780">
        <ele>20.800401</ele>
      </trkpt>
      <trkpt lat="42.491960" lon="-71.123090">
        <ele>22.192605</ele>
      </trkpt>
      <trkpt lat="42.493020" lon="-71.123670">
        <ele>22.765090</ele>
      </trkpt>
      <trkpt lat="42.493260" lon="-71.123780">
        <ele>22.882979</ele>
      </trkpt>
      <trkpt lat="42.493410" lon="-71.123830">
        <ele>22.954859</ele>
      </trkpt>
      <trkpt lat="42.493650" lon="-71.123910">
        <ele>23.069866</ele>
      </trkpt>
      <trkpt lat="42.493960" lon="-71.124010">
        <ele>23.234676</ele>
      </trkpt>
      <trkpt lat="42.494110" lon="-71.124060">
        <ele>23.315209</ele>
      </trkpt>
      <trkpt lat="42.494270" lon="-71.124120">
        <ele>23.401759</ele>
      </trkpt>
      <trkpt lat="42.494440" lon="-71.124190">
        <ele>23.494387</ele>
      </trkpt>
      <trkpt lat="42.494610" lon="-71.124260">
        <ele>23.587015</ele>
      </trkpt>
      <trkpt lat="42.494870" lon="-71.124350">
        <ele>23.726917</ele>
      </trkpt>
      <trkpt lat="42.495140" lon="-71.124450">
        <ele>23.872842</ele>
      </trkpt>
      <trkpt lat="42.495290" lon="-71.124510">
        <ele>23.954378</ele>
      </trkpt>
      <trkpt lat="42.495420" lon="-71.124560">
        <ele>24.023000</ele>
      </trkpt>
      <trkpt lat="42.495490" lon="-71.124590">
        <ele>24.049994</ele>
      </trkpt>
      <trkpt lat="42.495600" lon="-71.124620">
        <ele>24.091253</ele>
      </trkpt>
      <trkpt lat="42.495720" lon="-71.124650">
        <ele>24.136123</ele>
      </trkpt>
      <trkpt lat="42.495940" lon="-71.124690">
        <ele>24.217745</ele>
      </trkpt>
      <trkpt lat="42.496020" lon="-71.124700">
        <ele>24.247287</ele>
      </trkpt>
      <trkpt lat="42.496240" lon="-71.124740">
        <ele>24.328909</ele>
      </trkpt>
      <trkpt lat="42.496350" lon="-71.124760">
        <ele>24.369720</ele>
      </trkpt>
      <trkpt lat="42.496450" lon="-71.124790">
        <ele>24.407380</ele>
      </trkpt>
      <trkpt lat="42.496610" lon="-71.124830">
        <ele>24.467206</ele>
      </trkpt>
      <trkpt lat="42.496760" lon="-71.124890">
        <ele>24.524713</ele>
      </trkpt>
      <trkpt lat="42.497160" lon="-71.125020">
        <ele>24.675965</ele>
      </trkpt>
      <trkpt lat="42.497380" lon="-71.125100">
        <ele>24.843506</ele>
      </trkpt>
      <trkpt lat="42.497470" lon="-71.125130">
        <ele>24.913411</ele>
      </trkpt>
      <trkpt lat="42.497670" lon="-71.125190">
        <ele>25.067912</ele>
      </trkpt>
      <trkpt lat="42.497870" lon="-71.125240">
        <ele>25.221309</ele>
      </trkpt>
      <trkpt lat="42.498050" lon="-71.125290">
        <ele>25.359897</ele>
      </trkpt>
      <trkpt lat="42.498500" lon="-71.125400">
        <ele>25.704789</ele>
      </trkpt>
      <trkpt lat="42.498920" lon="-71.125510">
        <ele>26.027437</ele>
      </trkpt>
      <trkpt lat="42.499190" lon="-71.125580">
        <ele>26.428948</ele>
      </trkpt>
      <trkpt lat="42.499270" lon="-71.125600">
        <ele>26.550451</ele>
      </trkpt>
      <trkpt lat="42.499440" lon="-71.125650">
        <ele>26.810268</ele>
      </trkpt>
      <trkpt lat="42.499610" lon="-71.125700">
        <ele>27.070086</ele>
      </trkpt>
      <trkpt lat="42.500280" lon="-71.125890">
        <ele>28.092454</ele>
      </trkpt>
      <trkpt lat="42.500400" lon="-71.125930">
        <ele>28.277023</ele>
      </trkpt>
      <trkpt lat="42.500730" lon="-71.126030">
        <ele>28.810249</ele>
      </trkpt>
      <trkpt lat="42.500870" lon="-71.126080">
        <ele>29.129965</ele>
      </trkpt>
      <trkpt lat="42.501230" lon="-71.126180">
        <ele>29.941496</ele>
      </trkpt>
      <trkpt lat="42.501740" lon="-71.126330">
        <ele>31.093962</ele>
      </trkpt>
      <trkpt lat="42.501860" lon="-71.126350">
        <ele>31.360965</ele>
      </trkpt>
      <trkpt lat="42.502050" lon="-71.126390">
        <ele>31.785588</ele>
      </trkpt>
      <trkpt lat="42.502250" lon="-71.126410">
        <ele>32.228470</ele>
      </trkpt>
      <trkpt lat="42.502510" lon="-71.126430">
        <ele>32.691252</ele>
      </trkpt>
      <trkpt lat="42.503310" lon="-71.126490">
        <ele>32.624404</ele>
      </trkpt>
      <trkpt lat="42.503590" lon="-71.126530">
        <ele>32.600914</ele>
      </trkpt>
      <trkpt lat="42.504030" lon="-71.126570">
        <ele>32.564121</ele>
      </trkpt>
      <trkpt lat="42.504160" lon="-71.126570">
        <ele>32.553275</ele>
      </trkpt>
      <trkpt lat="42.504370" lon="-71.126560">
        <ele>32.279146</ele>
      </trkpt>
      <trkpt lat="42.504720" lon="-71.126550">
        <ele>31.463731</ele>
      </trkpt>
      <trkpt lat="42.504740" lon="-71.126910">
        <ele>30.843798</ele>
      </trkpt>
      <trkpt lat="42.504740" lon="-71.127160">
        <ele>30.414507</ele>
      </trkpt>
      <trkpt lat="42.504720" lon="-71.127340">
        <ele>30.101926</ele>
      </trkpt>
      <trkpt lat="42.504700" lon="-71.127470">
        <ele>29.873886</ele>
      </trkpt>
      <trkpt lat="42.504660" lon="-71.127650">
        <ele>29.551059</ele>
      </trkpt>
      <trkpt lat="42.504640" lon="-71.127780">
        <ele>29.323018</ele>
      </trkpt>
      <trkpt lat="42.504410" lon="-71.129080">
        <ele>25.578861</ele>
      </trkpt>
      <trkpt lat="42.504350" lon="-71.129400">
        <ele>24.393685</ele>
      </trkpt>
      <trkpt lat="42.504320" lon="-71.130180">
        <ele>21.590139</ele>
      </trkpt>
      <trkpt lat="42.504400" lon="-71.130390">
        <ele>20.741675</ele>
      </trkpt>
      <trkpt lat="42.504510" lon="-71.130540">
        <ele>19.982255</ele>
      </trkpt>
      <trkpt lat="42.504610" lon="-71.130570">
        <ele>19.590572</ele>
      </trkpt>
      <trkpt lat="42.504820" lon="-71.130620">
        <ele>19.518366</ele>
      </trkpt>
      <trkpt lat="42.505000" lon="-71.130680">
        <ele>19.455594</ele>
      </trkpt>
      <trkpt lat="42.505440" lon="-71.130810">
        <ele>19.303092</ele>
      </trkpt>
      <trkpt lat="42.505740" lon="-71.130880">
        <ele>19.200002</ele>
      </trkpt>
      <trkpt lat="42.505850" lon="-71.130910">
        <ele>19.162005</ele>
      </trkpt>
      <trkpt lat="42.506460" lon="-71.131030">
        <ele>18.971747</ele>
      </trkpt>
      <trkpt lat="42.506820" lon="-71.131110">
        <ele>18.911318</ele>
      </trkpt>
      <trkpt lat="42.507320" lon="-71.131230">
        <ele>18.827206</ele>
      </trkpt>
      <trkpt lat="42.507950" lon="-71.131390">
        <ele>18.721034</ele>
      </trkpt>
      <trkpt lat="42.508090" lon="-71.131440">
        <ele>18.697052</ele>
      </trkpt>
      <trkpt lat="42.508270" lon="-71.131500">
        <ele>18.701208</ele>
      </trkpt>
      <trkpt lat="42.508480" lon="-71.131580">
        <ele>18.715156</ele>
      </trkpt>
      <trkpt lat="42.508670" lon="-71.131660">
        <ele>18.727877</ele>
      </trkpt>
      <trkpt lat="42.508760" lon="-71.131710">
        <ele>18.734096</ele>
      </trkpt>
      <trkpt lat="42.508910" lon="-71.131800">
        <ele>18.744584</ele>
      </trkpt>
      <trkpt lat="42.509020" lon="-71.131860">
        <ele>18.752166</ele>
      </trkpt>
      <trkpt lat="42.509160" lon="-71.131950">
        <ele>18.762072</ele>
      </trkpt>
      <trkpt lat="42.509280" lon="-71.132040">
        <ele>18.770840</ele>
      </trkpt>
      <trkpt lat="42.509370" lon="-71.132100">
        <ele>18.777253</ele>
      </trkpt>
      <trkpt lat="42.509580" lon="-71.132240">
        <ele>18.792215</ele>
      </trkpt>
      <trkpt lat="42.509730" lon="-71.132350">
        <ele>18.803119</ele>
      </trkpt>
      <trkpt lat="42.509920" lon="-71.132500">
        <ele>18.719270</ele>
      </trkpt>
      <trkpt lat="42.510310" lon="-71.132760">
        <ele>18.491911</ele>
      </trkpt>
      <trkpt lat="42.510790" lon="-71.133090">
        <ele>18.210364</ele>
      </trkpt>
      <trkpt lat="42.511800" lon="-71.133770">
        <ele>18.091702</ele>
      </trkpt>
      <trkpt lat="42.512520" lon="-71.134230">
        <ele>18.476173</ele>
      </trkpt>
      <trkpt lat="42.512780" lon="-71.134400">
        <ele>18.615605</ele>
      </trkpt>
      <trkpt lat="42.512970" lon="-71.134520">
        <ele>18.716852</ele>
      </trkpt>
      <trkpt lat="42.513060" lon="-71.134590">
        <ele>18.770949</ele>
      </trkpt>
      <trkpt lat="42.513910" lon="-71.135090">
        <ele>19.273162</ele>
      </trkpt>
      <trkpt lat="42.514170" lon="-71.135250">
        <ele>19.427923</ele>
      </trkpt>
      <trkpt lat="42.514360" lon="-71.135360">
        <ele>19.539904</ele>
      </trkpt>
      <trkpt lat="42.514470" lon="-71.135420">
        <ele>19.604171</ele>
      </trkpt>
      <trkpt lat="42.514610" lon="-71.135510">
        <ele>19.688150</ele>
      </trkpt>
      <trkpt lat="42.514740" lon="-71.135590">
        <ele>19.719624</ele>
      </trkpt>
      <trkpt lat="42.514880" lon="-71.135690">
        <ele>19.735282</ele>
      </trkpt>
      <trkpt lat="42.514980" lon="-71.135770">
        <ele>19.746771</ele>
      </trkpt>
      <trkpt lat="42.515070" lon="-71.135850">
        <ele>19.757420</ele>
      </trkpt>
      <trkpt lat="42.515260" lon="-71.136010">
        <ele>19.779551</ele>
      </trkpt>
      <trkpt lat="42.515430" lon="-71.136160">
        <ele>19.799621</ele>
      </trkpt>
      <trkpt lat="42.515600" lon="-71.136330">
        <ele>19.820522</ele>
      </trkpt>
      <trkpt lat="42.515780" lon="-71.136500">
        <ele>19.842227</ele>
      </trkpt>
      <trkpt lat="42.516020" lon="-71.136730">
        <ele>19.871307</ele>
      </trkpt>
      <trkpt lat="42.516300" lon="-71.137010">
        <ele>19.896762</ele>
      </trkpt>
      <trkpt lat="42.516510" lon="-71.137220">
        <ele>19.909963</ele>
      </trkpt>
      <trkpt lat="42.516640" lon="-71.137330">
        <ele>19.917716</ele>
      </trkpt>
      <trkpt lat="42.516760" lon="-71.137450">
        <ele>19.925260</ele>
      </trkpt>
      <trkpt lat="42.516900" lon="-71.137570">
        <ele>19.933640</ele>
      </trkpt>
      <trkpt lat="42.517010" lon="-71.137680">
        <ele>19.940555</ele>
      </trkpt>
      <trkpt lat="42.517140" lon="-71.137790">
        <ele>19.948308</ele>
      </trkpt>
      <trkpt lat="42.517300" lon="-71.137950">
        <ele>19.958366</ele>
      </trkpt>
      <trkpt lat="42.517440" lon="-71.138060">
        <ele>19.966553</ele>
      </trkpt>
      <trkpt lat="42.517650" lon="-71.138200">
        <ele>19.978393</ele>
      </trkpt>
      <trkpt lat="42.518010" lon="-71.138410">
        <ele>20.209812</ele>
      </trkpt>
      <trkpt lat="42.518100" lon="-71.138470">
        <ele>20.269032</ele>
      </trkpt>
      <trkpt lat="42.518260" lon="-71.138550">
        <ele>20.369734</ele>
      </trkpt>
      <trkpt lat="42.518680" lon="-71.138720">
        <ele>20.628572</ele>
      </trkpt>
      <trkpt lat="42.518800" lon="-71.138760">
        <ele>20.701547</ele>
      </trkpt>
      <trkpt lat="42.519300" lon="-71.138960">
        <ele>21.009393</ele>
      </trkpt>
      <trkpt lat="42.519630" lon="-71.139080">
        <ele>21.040602</ele>
      </trkpt>
      <trkpt lat="42.519840" lon="-71.139160">
        <ele>21.040602</ele>
      </trkpt>
      <trkpt lat="42.519940" lon="-71.139190">
        <ele>21.040602</ele>
      </trkpt>
      <trkpt lat="42.520050" lon="-71.139220">
        <ele>21.040602</ele>
      </trkpt>
      <trkpt lat="42.520260" lon="-71.139200">
        <ele>21.040602</ele>
      </trkpt>
      <trkpt lat="42.520440" lon="-71.139120">
        <ele>21.040602</ele>
      </trkpt>
      <trkpt lat="42.520940" lon="-71.138760">
        <ele>21.040602</ele>
      </trkpt>
      <trkpt lat="42.521180" lon="-71.138610">
        <ele>21.040602</ele>
      </trkpt>
    </trkseg>
  </trk>
</gpx>