<?xml version="1.0"?><gpx version="1.0" creator="cycle.travel"  xmlns:xsi="http://www.w3.org/2001/XMLSchema-instance"  xmlns="http://www.topografix.com/GPX/1/0"  xsi:schemaLocation="http://www.topografix.com/GPX/1/0 http://www.topografix.com/GPX/1/0/gpx.xsd">  <trk>    <name>WinchesterMain</name>    <trkseg>      <trkpt lat="42.52173" lon="-71.13665"><ele>20</ele></trkpt>      <trkpt lat="42.52182" lon="-71.13678"><ele>20</ele></trkpt>      <trkpt lat="42.52192" lon="-71.13691"><ele>20</ele></trkpt>      <trkpt lat="42.52171" lon="-71.13717"><ele>20</ele></trkpt>      <trkpt lat="42.52162" lon="-71.13726"><ele>20</ele></trkpt>      <trkpt lat="42.52154" lon="-71.13732"><ele>19</ele></trkpt>      <trkpt lat="42.52137" lon="-71.13743"><ele>19</ele></trkpt>      <trkpt lat="42.52105" lon="-71.13750"><ele>18</ele></trkpt>      <trkpt lat="42.52107" lon="-71.13764"><ele>18</ele></trkpt>      <trkpt lat="42.52109" lon="-71.13778"><ele>18</ele></trkpt>      <trkpt lat="42.52113" lon="-71.13797"><ele>18</ele></trkpt>      <trkpt lat="42.52121" lon="-71.13819"><ele>19</ele></trkpt>      <trkpt lat="42.52135" lon="-71.13850"><ele>20</ele></trkpt>      <trkpt lat="42.52097" lon="-71.13887"><ele>22</ele></trkpt>      <trkpt lat="42.52068" lon="-71.13911"><ele>23</ele></trkpt>      <trkpt lat="42.52053" lon="-71.13923"><ele>23</ele></trkpt>      <trkpt lat="42.52045" lon="-71.13929"><ele>22</ele></trkpt>      <trkpt lat="42.52036" lon="-71.13934"><ele>22</ele></trkpt>      <trkpt lat="42.52026" lon="-71.13937"><ele>21</ele></trkpt>      <trkpt lat="42.52018" lon="-71.13939"><ele>21</ele></trkpt>      <trkpt lat="42.52004" lon="-71.13939"><ele>20</ele></trkpt>      <trkpt lat="42.51995" lon="-71.13937"><ele>20</ele></trkpt>      <trkpt lat="42.51981" lon="-71.13933"><ele>20</ele></trkpt>      <trkpt lat="42.51932" lon="-71.13913"><ele>20</ele></trkpt>      <trkpt lat="42.51890" lon="-71.13898"><ele>20</ele></trkpt>      <trkpt lat="42.51871" lon="-71.13890"><ele>20</ele></trkpt>      <trkpt lat="42.51855" lon="-71.13885"><ele>20</ele></trkpt>      <trkpt lat="42.51833" lon="-71.13875"><ele>20</ele></trkpt>      <trkpt lat="42.51814" lon="-71.13866"><ele>20</ele></trkpt>      <trkpt lat="42.51805" lon="-71.13861"><ele>20</ele></trkpt>      <trkpt lat="42.51794" lon="-71.13857"><ele>20</ele></trkpt>      <trkpt lat="42.51779" lon="-71.13848"><ele>20</ele></trkpt>      <trkpt lat="42.51761" lon="-71.13837"><ele>20</ele></trkpt>      <trkpt lat="42.51741" lon="-71.13823"><ele>20</ele></trkpt>      <trkpt lat="42.51710" lon="-71.13801"><ele>19</ele></trkpt>      <trkpt lat="42.51686" lon="-71.13781"><ele>19</ele></trkpt>      <trkpt lat="42.51665" lon="-71.13762"><ele>19</ele></trkpt>      <trkpt lat="42.51654" lon="-71.13752"><ele>19</ele></trkpt>      <trkpt lat="42.51642" lon="-71.13740"><ele>19</ele></trkpt>      <trkpt lat="42.51622" lon="-71.13721"><ele>19</ele></trkpt>      <trkpt lat="42.51591" lon="-71.13692"><ele>18</ele></trkpt>      <trkpt lat="42.51571" lon="-71.13673"><ele>18</ele></trkpt>      <trkpt lat="42.51547" lon="-71.13650"><ele>18</ele></trkpt>      <trkpt lat="42.51527" lon="-71.13631"><ele>18</ele></trkpt>      <trkpt lat="42.51518" lon="-71.13623"><ele>18</ele></trkpt>      <trkpt lat="42.51503" lon="-71.13609"><ele>18</ele></trkpt>      <trkpt lat="42.51494" lon="-71.13602"><ele>18</ele></trkpt>      <trkpt lat="42.51483" lon="-71.13593"><ele>18</ele></trkpt>      <trkpt lat="42.51473" lon="-71.13586"><ele>18</ele></trkpt>      <trkpt lat="42.51461" lon="-71.13578"><ele>18</ele></trkpt>      <trkpt lat="42.51449" lon="-71.13570"><ele>18</ele></trkpt>      <trkpt lat="42.51434" lon="-71.13561"><ele>17</ele></trkpt>      <trkpt lat="42.51420" lon="-71.13553"><ele>17</ele></trkpt>      <trkpt lat="42.51361" lon="-71.13517"><ele>17</ele></trkpt>      <trkpt lat="42.51307" lon="-71.13484"><ele>17</ele></trkpt>      <trkpt lat="42.51244" lon="-71.13445"><ele>17</ele></trkpt>      <trkpt lat="42.51023" lon="-71.13297"><ele>16</ele></trkpt>      <trkpt lat="42.50984" lon="-71.13270"><ele>16</ele></trkpt>      <trkpt lat="42.50934" lon="-71.13235"><ele>16</ele></trkpt>      <trkpt lat="42.50920" lon="-71.13225"><ele>16</ele></trkpt>      <trkpt lat="42.50912" lon="-71.13219"><ele>16</ele></trkpt>      <trkpt lat="42.50897" lon="-71.13208"><ele>16</ele></trkpt>      <trkpt lat="42.50889" lon="-71.13203"><ele>16</ele></trkpt>      <trkpt lat="42.50879" lon="-71.13198"><ele>16</ele></trkpt>      <trkpt lat="42.50861" lon="-71.13189"><ele>16</ele></trkpt>      <trkpt lat="42.50851" lon="-71.13185"><ele>16</ele></trkpt>      <trkpt lat="42.50841" lon="-71.13180"><ele>16</ele></trkpt>      <trkpt lat="42.50831" lon="-71.13176"><ele>16</ele></trkpt>      <trkpt lat="42.50813" lon="-71.13169"><ele>16</ele></trkpt>      <trkpt lat="42.50800" lon="-71.13165"><ele>16</ele></trkpt>      <trkpt lat="42.50787" lon="-71.13161"><ele>16</ele></trkpt>      <trkpt lat="42.50725" lon="-71.13146"><ele>16</ele></trkpt>      <trkpt lat="42.50679" lon="-71.13134"><ele>16</ele></trkpt>      <trkpt lat="42.50654" lon="-71.13127"><ele>16</ele></trkpt>      <trkpt lat="42.50621" lon="-71.13119"><ele>16</ele></trkpt>      <trkpt lat="42.50603" lon="-71.13114"><ele>16</ele></trkpt>      <trkpt lat="42.50585" lon="-71.13108"><ele>15</ele></trkpt>      <trkpt lat="42.50533" lon="-71.13094"><ele>15</ele></trkpt>      <trkpt lat="42.50460" lon="-71.13073"><ele>15</ele></trkpt>      <trkpt lat="42.50430" lon="-71.13077"><ele>15</ele></trkpt>      <trkpt lat="42.50420" lon="-71.13086"><ele>15</ele></trkpt>      <trkpt lat="42.50406" lon="-71.13104"><ele>15</ele></trkpt>      <trkpt lat="42.50397" lon="-71.13154"><ele>15</ele></trkpt>      <trkpt lat="42.50394" lon="-71.13175"><ele>15</ele></trkpt>      <trkpt lat="42.50389" lon="-71.13206"><ele>15</ele></trkpt>      <trkpt lat="42.50384" lon="-71.13239"><ele>15</ele></trkpt>      <trkpt lat="42.50374" lon="-71.13301"><ele>15</ele></trkpt>      <trkpt lat="42.50360" lon="-71.13393"><ele>15</ele></trkpt>      <trkpt lat="42.50357" lon="-71.13411"><ele>15</ele></trkpt>      <trkpt lat="42.50350" lon="-71.13453"><ele>15</ele></trkpt>      <trkpt lat="42.50347" lon="-71.13471"><ele>15</ele></trkpt>      <trkpt lat="42.50345" lon="-71.13490"><ele>15</ele></trkpt>      <trkpt lat="42.50340" lon="-71.13522"><ele>15</ele></trkpt>      <trkpt lat="42.50337" lon="-71.13545"><ele>15</ele></trkpt>      <trkpt lat="42.50335" lon="-71.13562"><ele>15</ele></trkpt>      <trkpt lat="42.50334" lon="-71.13586"><ele>15</ele></trkpt>      <trkpt lat="42.50334" lon="-71.13600"><ele>15</ele></trkpt>      <trkpt lat="42.50334" lon="-71.13615"><ele>15</ele></trkpt>      <trkpt lat="42.50335" lon="-71.13631"><ele>15</ele></trkpt>      <trkpt lat="42.50338" lon="-71.13657"><ele>15</ele></trkpt>      <trkpt lat="42.50341" lon="-71.13675"><ele>15</ele></trkpt>      <trkpt lat="42.50342" lon="-71.13685"><ele>15</ele></trkpt>      <trkpt lat="42.50345" lon="-71.13696"><ele>16</ele></trkpt>      <trkpt lat="42.50347" lon="-71.13708"><ele>16</ele></trkpt>      <trkpt lat="42.50350" lon="-71.13719"><ele>16</ele></trkpt>      <trkpt lat="42.50354" lon="-71.13732"><ele>17</ele></trkpt>      <trkpt lat="42.50359" lon="-71.13749"><ele>17</ele></trkpt>      <trkpt lat="42.50364" lon="-71.13762"><ele>17</ele></trkpt>      <trkpt lat="42.50378" lon="-71.13800"><ele>18</ele></trkpt>      <trkpt lat="42.50345" lon="-71.13826"><ele>18</ele></trkpt>      <trkpt lat="42.50333" lon="-71.13845"><ele>19</ele></trkpt>      <trkpt lat="42.50325" lon="-71.13870"><ele>19</ele></trkpt>      <trkpt lat="42.50322" lon="-71.13881"><ele>19</ele></trkpt>      <trkpt lat="42.50303" lon="-71.13943"><ele>20</ele></trkpt>      <trkpt lat="42.50298" lon="-71.13961"><ele>20</ele></trkpt>      <trkpt lat="42.50285" lon="-71.14001"><ele>21</ele></trkpt>      <trkpt lat="42.50278" lon="-71.14023"><ele>21</ele></trkpt>      <trkpt lat="42.50269" lon="-71.14056"><ele>21</ele></trkpt>      <trkpt lat="42.50266" lon="-71.14079"><ele>22</ele></trkpt>      <trkpt lat="42.50265" lon="-71.14098"><ele>22</ele></trkpt>      <trkpt lat="42.50265" lon="-71.14108"><ele>22</ele></trkpt>      <trkpt lat="42.50266" lon="-71.14132"><ele>22</ele></trkpt>      <trkpt lat="42.50271" lon="-71.14154"><ele>22</ele></trkpt>      <trkpt lat="42.50261" lon="-71.14161"><ele>22</ele></trkpt>      <trkpt lat="42.50251" lon="-71.14167"><ele>22</ele></trkpt>      <trkpt lat="42.50239" lon="-71.14174"><ele>22</ele></trkpt>      <trkpt lat="42.50209" lon="-71.14187"><ele>22</ele></trkpt>      <trkpt lat="42.50170" lon="-71.14203"><ele>22</ele></trkpt>      <trkpt lat="42.50108" lon="-71.14231"><ele>22</ele></trkpt>      <trkpt lat="42.50085" lon="-71.14241"><ele>22</ele></trkpt>      <trkpt lat="42.50068" lon="-71.14249"><ele>22</ele></trkpt>      <trkpt lat="42.50052" lon="-71.14259"><ele>22</ele></trkpt>      <trkpt lat="42.50038" lon="-71.14269"><ele>22</ele></trkpt>      <trkpt lat="42.50022" lon="-71.14283"><ele>22</ele></trkpt>      <trkpt lat="42.50002" lon="-71.14302"><ele>22</ele></trkpt>      <trkpt lat="42.49967" lon="-71.14335"><ele>22</ele></trkpt>      <trkpt lat="42.49948" lon="-71.14353"><ele>23</ele></trkpt>      <trkpt lat="42.49933" lon="-71.14365"><ele>24</ele></trkpt>      <trkpt lat="42.49920" lon="-71.14375"><ele>24</ele></trkpt>      <trkpt lat="42.49911" lon="-71.14381"><ele>25</ele></trkpt>      <trkpt lat="42.49877" lon="-71.14406"><ele>25</ele></trkpt>      <trkpt lat="42.49854" lon="-71.14423"><ele>26</ele></trkpt>      <trkpt lat="42.49843" lon="-71.14433"><ele>26</ele></trkpt>      <trkpt lat="42.49835" lon="-71.14443"><ele>26</ele></trkpt>      <trkpt lat="42.49736" lon="-71.14571"><ele>33</ele></trkpt>      <trkpt lat="42.49727" lon="-71.14582"><ele>34</ele></trkpt>      <trkpt lat="42.49694" lon="-71.14625"><ele>35</ele></trkpt>      <trkpt lat="42.49648" lon="-71.14685"><ele>36</ele></trkpt>      <trkpt lat="42.49627" lon="-71.14712"><ele>36</ele></trkpt>      <trkpt lat="42.49616" lon="-71.14726"><ele>36</ele></trkpt>      <trkpt lat="42.49586" lon="-71.14766"><ele>36</ele></trkpt>      <trkpt lat="42.49565" lon="-71.14792"><ele>37</ele></trkpt>      <trkpt lat="42.49548" lon="-71.14814"><ele>37</ele></trkpt>      <trkpt lat="42.49524" lon="-71.14845"><ele>38</ele></trkpt>      <trkpt lat="42.49511" lon="-71.14861"><ele>39</ele></trkpt>      <trkpt lat="42.49500" lon="-71.14873"><ele>39</ele></trkpt>      <trkpt lat="42.49488" lon="-71.14882"><ele>39</ele></trkpt>      <trkpt lat="42.49472" lon="-71.14890"><ele>40</ele></trkpt>      <trkpt lat="42.49436" lon="-71.14907"><ele>41</ele></trkpt>      <trkpt lat="42.49379" lon="-71.14934"><ele>42</ele></trkpt>      <trkpt lat="42.49359" lon="-71.14944"><ele>43</ele></trkpt>      <trkpt lat="42.49338" lon="-71.14954"><ele>43</ele></trkpt>      <trkpt lat="42.49319" lon="-71.14963"><ele>44</ele></trkpt>      <trkpt lat="42.49305" lon="-71.14967"><ele>46</ele></trkpt>      <trkpt lat="42.49296" lon="-71.14969"><ele>46</ele></trkpt>      <trkpt lat="42.49285" lon="-71.14971"><ele>47</ele></trkpt>      <trkpt lat="42.49266" lon="-71.14974"><ele>49</ele></trkpt>      <trkpt lat="42.49249" lon="-71.14976"><ele>50</ele></trkpt>      <trkpt lat="42.49228" lon="-71.14978"><ele>49</ele></trkpt>      <trkpt lat="42.49211" lon="-71.14980"><ele>47</ele></trkpt>      <trkpt lat="42.49201" lon="-71.14982"><ele>47</ele></trkpt>      <trkpt lat="42.49186" lon="-71.14986"><ele>46</ele></trkpt>      <trkpt lat="42.49175" lon="-71.14989"><ele>45</ele></trkpt>      <trkpt lat="42.49162" lon="-71.14994"><ele>45</ele></trkpt>      <trkpt lat="42.49148" lon="-71.15000"><ele>44</ele></trkpt>      <trkpt lat="42.49132" lon="-71.15007"><ele>43</ele></trkpt>      <trkpt lat="42.49119" lon="-71.15015"><ele>43</ele></trkpt>      <trkpt lat="42.49110" lon="-71.15021"><ele>42</ele></trkpt>      <trkpt lat="42.49100" lon="-71.15028"><ele>42</ele></trkpt>      <trkpt lat="42.49087" lon="-71.15039"><ele>41</ele></trkpt>      <trkpt lat="42.49079" lon="-71.15047"><ele>41</ele></trkpt>      <trkpt lat="42.49064" lon="-71.15057"><ele>40</ele></trkpt>      <trkpt lat="42.49052" lon="-71.15063"><ele>40</ele></trkpt>      <trkpt lat="42.49038" lon="-71.15069"><ele>40</ele></trkpt>      <trkpt lat="42.49024" lon="-71.15073"><ele>40</ele></trkpt>      <trkpt lat="42.49007" lon="-71.15075"><ele>40</ele></trkpt>      <trkpt lat="42.48999" lon="-71.15075"><ele>40</ele></trkpt>      <trkpt lat="42.48990" lon="-71.15075"><ele>40</ele></trkpt>      <trkpt lat="42.48978" lon="-71.15073"><ele>41</ele></trkpt>      <trkpt lat="42.48963" lon="-71.15071"><ele>41</ele></trkpt>      <trkpt lat="42.48949" lon="-71.15067"><ele>42</ele></trkpt>      <trkpt lat="42.48932" lon="-71.15065"><ele>42</ele></trkpt>      <trkpt lat="42.48918" lon="-71.15068"><ele>42</ele></trkpt>      <trkpt lat="42.48902" lon="-71.15078"><ele>42</ele></trkpt>      <trkpt lat="42.48888" lon="-71.15087"><ele>42</ele></trkpt>      <trkpt lat="42.48874" lon="-71.15098"><ele>42</ele></trkpt>      <trkpt lat="42.48867" lon="-71.15104"><ele>42</ele></trkpt>      <trkpt lat="42.48859" lon="-71.15110"><ele>41</ele></trkpt>      <trkpt lat="42.48849" lon="-71.15120"><ele>41</ele></trkpt>      <trkpt lat="42.48839" lon="-71.15136"><ele>40</ele></trkpt>      <trkpt lat="42.48828" lon="-71.15157"><ele>39</ele></trkpt>      <trkpt lat="42.48821" lon="-71.15172"><ele>39</ele></trkpt>      <trkpt lat="42.48812" lon="-71.15191"><ele>38</ele></trkpt>      <trkpt lat="42.48797" lon="-71.15223"><ele>38</ele></trkpt>      <trkpt lat="42.48778" lon="-71.15216"><ele>38</ele></trkpt>      <trkpt lat="42.48764" lon="-71.15212"><ele>37</ele></trkpt>      <trkpt lat="42.48752" lon="-71.15208"><ele>37</ele></trkpt>      <trkpt lat="42.48734" lon="-71.15201"><ele>37</ele></trkpt>      <trkpt lat="42.48721" lon="-71.15196"><ele>37</ele></trkpt>      <trkpt lat="42.48710" lon="-71.15192"><ele>36</ele></trkpt>      <trkpt lat="42.48698" lon="-71.15189"><ele>36</ele></trkpt>      <trkpt lat="42.48681" lon="-71.15187"><ele>36</ele></trkpt>      <trkpt lat="42.48673" lon="-71.15186"><ele>36</ele></trkpt>      <trkpt lat="42.48664" lon="-71.15186"><ele>35</ele></trkpt>      <trkpt lat="42.48654" lon="-71.15188"><ele>35</ele></trkpt>      <trkpt lat="42.48636" lon="-71.15191"><ele>33</ele></trkpt>      <trkpt lat="42.48606" lon="-71.15198"><ele>33</ele></trkpt>      <trkpt lat="42.48587" lon="-71.15202"><ele>33</ele></trkpt>      <trkpt lat="42.48570" lon="-71.15205"><ele>33</ele></trkpt>      <trkpt lat="42.48555" lon="-71.15207"><ele>32</ele></trkpt>      <trkpt lat="42.48541" lon="-71.15210"><ele>32</ele></trkpt>      <trkpt lat="42.48524" lon="-71.15210"><ele>32</ele></trkpt>      <trkpt lat="42.48506" lon="-71.15208"><ele>32</ele></trkpt>      <trkpt lat="42.48492" lon="-71.15203"><ele>32</ele></trkpt>      <trkpt lat="42.48484" lon="-71.15198"><ele>32</ele></trkpt>      <trkpt lat="42.48474" lon="-71.15192"><ele>32</ele></trkpt>      <trkpt lat="42.48462" lon="-71.15179"><ele>32</ele></trkpt>      <trkpt lat="42.48455" lon="-71.15172"><ele>32</ele></trkpt>      <trkpt lat="42.48444" lon="-71.15162"><ele>32</ele></trkpt>      <trkpt lat="42.48431" lon="-71.15151"><ele>32</ele></trkpt>      <trkpt lat="42.48414" lon="-71.15142"><ele>32</ele></trkpt>      <trkpt lat="42.48403" lon="-71.15138"><ele>32</ele></trkpt>      <trkpt lat="42.48395" lon="-71.15137"><ele>32</ele></trkpt>      <trkpt lat="42.48378" lon="-71.15134"><ele>32</ele></trkpt>      <trkpt lat="42.48360" lon="-71.15131"><ele>32</ele></trkpt>      <trkpt lat="42.48352" lon="-71.15130"><ele>32</ele></trkpt>      <trkpt lat="42.48342" lon="-71.15128"><ele>32</ele></trkpt>      <trkpt lat="42.48327" lon="-71.15124"><ele>32</ele></trkpt>      <trkpt lat="42.48312" lon="-71.15118"><ele>32</ele></trkpt>      <trkpt lat="42.48294" lon="-71.15108"><ele>32</ele></trkpt>      <trkpt lat="42.48277" lon="-71.15098"><ele>32</ele></trkpt>      <trkpt lat="42.48268" lon="-71.15092"><ele>32</ele></trkpt>      <trkpt lat="42.48260" lon="-71.15087"><ele>32</ele></trkpt>      <trkpt lat="42.48245" lon="-71.15079"><ele>32</ele></trkpt>      <trkpt lat="42.48235" lon="-71.15074"><ele>32</ele></trkpt>      <trkpt lat="42.48225" lon="-71.15069"><ele>32</ele></trkpt>      <trkpt lat="42.48216" lon="-71.15067"><ele>32</ele></trkpt>      <trkpt lat="42.48206" lon="-71.15065"><ele>31</ele></trkpt>      <trkpt lat="42.48185" lon="-71.15067"><ele>31</ele></trkpt>      <trkpt lat="42.48170" lon="-71.15072"><ele>31</ele></trkpt>      <trkpt lat="42.48150" lon="-71.15080"><ele>31</ele></trkpt>      <trkpt lat="42.48138" lon="-71.15086"><ele>31</ele></trkpt>      <trkpt lat="42.48116" lon="-71.15098"><ele>31</ele></trkpt>      <trkpt lat="42.48096" lon="-71.15108"><ele>31</ele></trkpt>      <trkpt lat="42.48067" lon="-71.15125"><ele>30</ele></trkpt>      <trkpt lat="42.48055" lon="-71.15131"><ele>30</ele></trkpt>      <trkpt lat="42.48043" lon="-71.15140"><ele>30</ele></trkpt>      <trkpt lat="42.48032" lon="-71.15150"><ele>30</ele></trkpt>      <trkpt lat="42.48025" lon="-71.15158"><ele>30</ele></trkpt>      <trkpt lat="42.48019" lon="-71.15167"><ele>30</ele></trkpt>      <trkpt lat="42.48011" lon="-71.15183"><ele>30</ele></trkpt>      <trkpt lat="42.48005" lon="-71.15198"><ele>30</ele></trkpt>      <trkpt lat="42.47995" lon="-71.15221"><ele>30</ele></trkpt>      <trkpt lat="42.47989" lon="-71.15232"><ele>29</ele></trkpt>      <trkpt lat="42.47960" lon="-71.15285"><ele>29</ele></trkpt>      <trkpt lat="42.47951" lon="-71.15302"><ele>29</ele></trkpt>      <trkpt lat="42.47946" lon="-71.15313"><ele>29</ele></trkpt>      <trkpt lat="42.47934" lon="-71.15336"><ele>29</ele></trkpt>      <trkpt lat="42.47927" lon="-71.15350"><ele>29</ele></trkpt>      <trkpt lat="42.47920" lon="-71.15356"><ele>29</ele></trkpt>      <trkpt lat="42.47906" lon="-71.15380"><ele>29</ele></trkpt>      <trkpt lat="42.47885" lon="-71.15419"><ele>29</ele></trkpt>      <trkpt lat="42.47876" lon="-71.15435"><ele>29</ele></trkpt>      <trkpt lat="42.47870" lon="-71.15446"><ele>29</ele></trkpt>      <trkpt lat="42.47844" lon="-71.15490"><ele>29</ele></trkpt>      <trkpt lat="42.47831" lon="-71.15512"><ele>29</ele></trkpt>      <trkpt lat="42.47803" lon="-71.15558"><ele>30</ele></trkpt>      <trkpt lat="42.47789" lon="-71.15577"><ele>30</ele></trkpt>      <trkpt lat="42.47771" lon="-71.15587"><ele>30</ele></trkpt>      <trkpt lat="42.47752" lon="-71.15593"><ele>30</ele></trkpt>      <trkpt lat="42.47724" lon="-71.15602"><ele>30</ele></trkpt>      <trkpt lat="42.47710" lon="-71.15606"><ele>30</ele></trkpt>      <trkpt lat="42.47692" lon="-71.15611"><ele>30</ele></trkpt>      <trkpt lat="42.47674" lon="-71.15613"><ele>30</ele></trkpt>      <trkpt lat="42.47664" lon="-71.15614"><ele>30</ele></trkpt>      <trkpt lat="42.47648" lon="-71.15614"><ele>30</ele></trkpt>      <trkpt lat="42.47639" lon="-71.15614"><ele>30</ele></trkpt>      <trkpt lat="42.47629" lon="-71.15613"><ele>30</ele></trkpt>      <trkpt lat="42.47616" lon="-71.15611"><ele>30</ele></trkpt>      <trkpt lat="42.47600" lon="-71.15608"><ele>30</ele></trkpt>      <trkpt lat="42.47563" lon="-71.15600"><ele>30</ele></trkpt>      <trkpt lat="42.47538" lon="-71.15594"><ele>30</ele></trkpt>      <trkpt lat="42.47468" lon="-71.15580"><ele>30</ele></trkpt>      <trkpt lat="42.47413" lon="-71.15569"><ele>29</ele></trkpt>      <trkpt lat="42.47401" lon="-71.15566"><ele>29</ele></trkpt>      <trkpt lat="42.47370" lon="-71.15559"><ele>28</ele></trkpt>      <trkpt lat="42.47335" lon="-71.15552"><ele>28</ele></trkpt>      <trkpt lat="42.47309" lon="-71.15546"><ele>28</ele></trkpt>      <trkpt lat="42.47292" lon="-71.15542"><ele>27</ele></trkpt>      <trkpt lat="42.47278" lon="-71.15537"><ele>27</ele></trkpt>      <trkpt lat="42.47261" lon="-71.15530"><ele>27</ele></trkpt>      <trkpt lat="42.47244" lon="-71.15521"><ele>27</ele></trkpt>      <trkpt lat="42.47214" lon="-71.15502"><ele>25</ele></trkpt>      <trkpt lat="42.47180" lon="-71.15481"><ele>24</ele></trkpt>      <trkpt lat="42.47154" lon="-71.15465"><ele>22</ele></trkpt>      <trkpt lat="42.47140" lon="-71.15457"><ele>22</ele></trkpt>      <trkpt lat="42.47124" lon="-71.15447"><ele>21</ele></trkpt>      <trkpt lat="42.47074" lon="-71.15415"><ele>19</ele></trkpt>      <trkpt lat="42.47038" lon="-71.15393"><ele>18</ele></trkpt>      <trkpt lat="42.47029" lon="-71.15387"><ele>18</ele></trkpt>      <trkpt lat="42.46991" lon="-71.15364"><ele>18</ele></trkpt>      <trkpt lat="42.46958" lon="-71.15344"><ele>18</ele></trkpt>      <trkpt lat="42.46872" lon="-71.15291"><ele>17</ele></trkpt>      <trkpt lat="42.46828" lon="-71.15264"><ele>17</ele></trkpt>      <trkpt lat="42.46784" lon="-71.15236"><ele>17</ele></trkpt>      <trkpt lat="42.46765" lon="-71.15225"><ele>17</ele></trkpt>      <trkpt lat="42.46755" lon="-71.15219"><ele>17</ele></trkpt>      <trkpt lat="42.46745" lon="-71.15211"><ele>17</ele></trkpt>      <trkpt lat="42.46734" lon="-71.15201"><ele>17</ele></trkpt>      <trkpt lat="42.46724" lon="-71.15191"><ele>17</ele></trkpt>      <trkpt lat="42.46686" lon="-71.15151"><ele>16</ele></trkpt>      <trkpt lat="42.46675" lon="-71.15140"><ele>16</ele></trkpt>      <trkpt lat="42.46659" lon="-71.15125"><ele>16</ele></trkpt>      <trkpt lat="42.46640" lon="-71.15112"><ele>16</ele></trkpt>      <trkpt lat="42.46629" lon="-71.15106"><ele>16</ele></trkpt>      <trkpt lat="42.46617" lon="-71.15100"><ele>16</ele></trkpt>      <trkpt lat="42.46603" lon="-71.15093"><ele>15</ele></trkpt>      <trkpt lat="42.46592" lon="-71.15097"><ele>15</ele></trkpt>      <trkpt lat="42.46581" lon="-71.15095"><ele>15</ele></trkpt>      <trkpt lat="42.46575" lon="-71.15083"><ele>15</ele></trkpt>      <trkpt lat="42.46563" lon="-71.15079"><ele>15</ele></trkpt>      <trkpt lat="42.46520" lon="-71.15043"><ele>14</ele></trkpt>      <trkpt lat="42.46493" lon="-71.15021"><ele>14</ele></trkpt>      <trkpt lat="42.46458" lon="-71.14993"><ele>13</ele></trkpt>      <trkpt lat="42.46445" lon="-71.14989"><ele>13</ele></trkpt>      <trkpt lat="42.46428" lon="-71.14990"><ele>13</ele></trkpt>      <trkpt lat="42.46417" lon="-71.14983"><ele>13</ele></trkpt>      <trkpt lat="42.46404" lon="-71.14971"><ele>13</ele></trkpt>      <trkpt lat="42.46391" lon="-71.14959"><ele>13</ele></trkpt>      <trkpt lat="42.46372" lon="-71.14942"><ele>13</ele></trkpt>      <trkpt lat="42.46361" lon="-71.14933"><ele>13</ele></trkpt>      <trkpt lat="42.46350" lon="-71.14929"><ele>13</ele></trkpt>      <trkpt lat="42.46331" lon="-71.14901"><ele>13</ele></trkpt>      <trkpt lat="42.46308" lon="-71.14867"><ele>12</ele></trkpt>      <trkpt lat="42.46298" lon="-71.14851"><ele>12</ele></trkpt>      <trkpt lat="42.46284" lon="-71.14839"><ele>12</ele></trkpt>      <trkpt lat="42.46256" lon="-71.14826"><ele>12</ele></trkpt>      <trkpt lat="42.46231" lon="-71.14812"><ele>12</ele></trkpt>      <trkpt lat="42.46211" lon="-71.14801"><ele>12</ele></trkpt>      <trkpt lat="42.46196" lon="-71.14792"><ele>12</ele></trkpt>      <trkpt lat="42.46114" lon="-71.14749"><ele>10</ele></trkpt>      <trkpt lat="42.46068" lon="-71.14725"><ele>9</ele></trkpt>      <trkpt lat="42.46056" lon="-71.14717"><ele>9</ele></trkpt>      <trkpt lat="42.46046" lon="-71.14709"><ele>9</ele></trkpt>      <trkpt lat="42.46024" lon="-71.14681"><ele>9</ele></trkpt>      <trkpt lat="42.45982" lon="-71.14634"><ele>9</ele></trkpt>      <trkpt lat="42.45972" lon="-71.14614"><ele>9</ele></trkpt>      <trkpt lat="42.45950" lon="-71.14518"><ele>8</ele></trkpt>      <trkpt lat="42.45939" lon="-71.14487"><ele>8</ele></trkpt>      <trkpt lat="42.45928" lon="-71.14456"><ele>8</ele></trkpt>      <trkpt lat="42.45919" lon="-71.14429"><ele>8</ele></trkpt>      <trkpt lat="42.45911" lon="-71.14411"><ele>8</ele></trkpt>      <trkpt lat="42.45901" lon="-71.14389"><ele>8</ele></trkpt>      <trkpt lat="42.45855" lon="-71.14252"><ele>8</ele></trkpt>      <trkpt lat="42.45837" lon="-71.14209"><ele>8</ele></trkpt>      <trkpt lat="42.45821" lon="-71.14175"><ele>8</ele></trkpt>      <trkpt lat="42.45802" lon="-71.14124"><ele>7</ele></trkpt>      <trkpt lat="42.45786" lon="-71.14085"><ele>7</ele></trkpt>      <trkpt lat="42.45761" lon="-71.14023"><ele>7</ele></trkpt>      <trkpt lat="42.45746" lon="-71.13986"><ele>7</ele></trkpt>      <trkpt lat="42.45735" lon="-71.13957"><ele>7</ele></trkpt>      <trkpt lat="42.45727" lon="-71.13939"><ele>7</ele></trkpt>      <trkpt lat="42.45720" lon="-71.13929"><ele>6</ele></trkpt>      <trkpt lat="42.45706" lon="-71.13915"><ele>6</ele></trkpt>      <trkpt lat="42.45685" lon="-71.13905"><ele>6</ele></trkpt>      <trkpt lat="42.45687" lon="-71.13893"><ele>6</ele></trkpt>      <trkpt lat="42.45691" lon="-71.13870"><ele>6</ele></trkpt>      <trkpt lat="42.45696" lon="-71.13838"><ele>6</ele></trkpt>      <trkpt lat="42.45697" lon="-71.13827"><ele>6</ele></trkpt>      <trkpt lat="42.45695" lon="-71.13807"><ele>5</ele></trkpt>      <trkpt lat="42.45691" lon="-71.13784"><ele>5</ele></trkpt>      <trkpt lat="42.45691" lon="-71.13760"><ele>5</ele></trkpt>      <trkpt lat="42.45688" lon="-71.13740"><ele>5</ele></trkpt>      <trkpt lat="42.45670" lon="-71.13694"><ele>5</ele></trkpt>      <trkpt lat="42.45666" lon="-71.13683"><ele>5</ele></trkpt>      <trkpt lat="42.45661" lon="-71.13670"><ele>5</ele></trkpt>      <trkpt lat="42.45658" lon="-71.13656"><ele>5</ele></trkpt>      <trkpt lat="42.45657" lon="-71.13641"><ele>5</ele></trkpt>      <trkpt lat="42.45659" lon="-71.13625"><ele>5</ele></trkpt>      <trkpt lat="42.45666" lon="-71.13605"><ele>6</ele></trkpt>      <trkpt lat="42.45674" lon="-71.13595"><ele>6</ele></trkpt>      <trkpt lat="42.45685" lon="-71.13585"><ele>6</ele></trkpt>      <trkpt lat="42.45741" lon="-71.13563"><ele>6</ele></trkpt>      <trkpt lat="42.45744" lon="-71.13561"><ele>6</ele></trkpt>      <trkpt lat="42.45742" lon="-71.13549"><ele>7</ele></trkpt>      <trkpt lat="42.45735" lon="-71.13520"><ele>7</ele></trkpt>      <trkpt lat="42.45748" lon="-71.13515"><ele>7</ele></trkpt>      <trkpt lat="42.45754" lon="-71.13503"><ele>7</ele></trkpt>      <trkpt lat="42.45751" lon="-71.13471"><ele>7</ele></trkpt>      <trkpt lat="42.45740" lon="-71.13463"><ele>7</ele></trkpt>      <trkpt lat="42.45734" lon="-71.13445"><ele>7</ele></trkpt>      <trkpt lat="42.45720" lon="-71.13401"><ele>7</ele></trkpt>      <trkpt lat="42.45718" lon="-71.13395"><ele>7</ele></trkpt>      <trkpt lat="42.45809" lon="-71.13349"><ele>9</ele></trkpt>      <trkpt lat="42.45874" lon="-71.13317"><ele>11</ele></trkpt>      <trkpt lat="42.45889" lon="-71.13310"><ele>12</ele></trkpt>      <trkpt lat="42.45931" lon="-71.13284"><ele>12</ele></trkpt>      <trkpt lat="42.45977" lon="-71.13256"><ele>13</ele></trkpt>      <trkpt lat="42.45968" lon="-71.13228"><ele>13</ele></trkpt>      <trkpt lat="42.45994" lon="-71.13211"><ele>14</ele></trkpt>      <trkpt lat="42.46047" lon="-71.13178"><ele>15</ele></trkpt>      <trkpt lat="42.46080" lon="-71.13157"><ele>15</ele></trkpt>      <trkpt lat="42.46113" lon="-71.13136"><ele>15</ele></trkpt>      <trkpt lat="42.46162" lon="-71.13108"><ele>13</ele></trkpt>      <trkpt lat="42.46212" lon="-71.13082"><ele>12</ele></trkpt>      <trkpt lat="42.46223" lon="-71.13120"><ele>11</ele></trkpt>      <trkpt lat="42.46251" lon="-71.13106"><ele>10</ele></trkpt>      <trkpt lat="42.46268" lon="-71.13098"><ele>10</ele></trkpt>      <trkpt lat="42.46292" lon="-71.13084"><ele>9</ele></trkpt>      <trkpt lat="42.46286" lon="-71.13061"><ele>8</ele></trkpt>      <trkpt lat="42.46305" lon="-71.13051"><ele>8</ele></trkpt>      <trkpt lat="42.46322" lon="-71.13070"><ele>7</ele></trkpt>      <trkpt lat="42.46358" lon="-71.13050"><ele>6</ele></trkpt>      <trkpt lat="42.46368" lon="-71.13043"><ele>6</ele></trkpt>      <trkpt lat="42.46406" lon="-71.13023"><ele>6</ele></trkpt>      <trkpt lat="42.46410" lon="-71.13010"><ele>6</ele></trkpt>      <trkpt lat="42.46418" lon="-71.12975"><ele>6</ele></trkpt>      <trkpt lat="42.46426" lon="-71.12959"><ele>6</ele></trkpt>      <trkpt lat="42.46436" lon="-71.12951"><ele>6</ele></trkpt>      <trkpt lat="42.46490" lon="-71.12950"><ele>7</ele></trkpt>      <trkpt lat="42.46504" lon="-71.12952"><ele>7</ele></trkpt>      <trkpt lat="42.46520" lon="-71.12958"><ele>7</ele></trkpt>      <trkpt lat="42.46531" lon="-71.12966"><ele>7</ele></trkpt>      <trkpt lat="42.46548" lon="-71.12998"><ele>6</ele></trkpt>      <trkpt lat="42.46570" lon="-71.13006"><ele>6</ele></trkpt>      <trkpt lat="42.46582" lon="-71.13006"><ele>6</ele></trkpt>      <trkpt lat="42.46604" lon="-71.13014"><ele>6</ele></trkpt>      <trkpt lat="42.46637" lon="-71.13032"><ele>6</ele></trkpt>      <trkpt lat="42.46669" lon="-71.13051"><ele>6</ele></trkpt>      <trkpt lat="42.46683" lon="-71.13054"><ele>5</ele></trkpt>      <trkpt lat="42.46703" lon="-71.13055"><ele>5</ele></trkpt>      <trkpt lat="42.46716" lon="-71.13051"><ele>5</ele></trkpt>      <trkpt lat="42.46727" lon="-71.13048"><ele>5</ele></trkpt>      <trkpt lat="42.46732" lon="-71.13064"><ele>5</ele></trkpt>      <trkpt lat="42.46735" lon="-71.13075"><ele>5</ele></trkpt>      <trkpt lat="42.46750" lon="-71.13070"><ele>5</ele></trkpt>      <trkpt lat="42.46767" lon="-71.13062"><ele>5</ele></trkpt>      <trkpt lat="42.46783" lon="-71.13063"><ele>5</ele></trkpt>      <trkpt lat="42.46799" lon="-71.13060"><ele>5</ele></trkpt>      <trkpt lat="42.46857" lon="-71.13021"><ele>4</ele></trkpt>      <trkpt lat="42.46867" lon="-71.13014"><ele>4</ele></trkpt>      <trkpt lat="42.46889" lon="-71.13003"><ele>4</ele></trkpt>      <trkpt lat="42.46903" lon="-71.12995"><ele>4</ele></trkpt>      <trkpt lat="42.46911" lon="-71.12990"><ele>4</ele></trkpt>      <trkpt lat="42.46918" lon="-71.12983"><ele>4</ele></trkpt>      <trkpt lat="42.46928" lon="-71.12971"><ele>5</ele></trkpt>      <trkpt lat="42.46937" lon="-71.12951"><ele>5</ele></trkpt>      <trkpt lat="42.46941" lon="-71.12926"><ele>5</ele></trkpt>      <trkpt lat="42.46942" lon="-71.12907"><ele>5</ele></trkpt>      <trkpt lat="42.46943" lon="-71.12892"><ele>5</ele></trkpt>      <trkpt lat="42.46945" lon="-71.12876"><ele>5</ele></trkpt>      <trkpt lat="42.46947" lon="-71.12855"><ele>5</ele></trkpt>      <trkpt lat="42.46942" lon="-71.12832"><ele>5</ele></trkpt>      <trkpt lat="42.46935" lon="-71.12809"><ele>5</ele></trkpt>      <trkpt lat="42.46932" lon="-71.12788"><ele>5</ele></trkpt>      <trkpt lat="42.46932" lon="-71.12763"><ele>5</ele></trkpt>      <trkpt lat="42.46935" lon="-71.12742"><ele>5</ele></trkpt>      <trkpt lat="42.46938" lon="-71.12703"><ele>5</ele></trkpt>      <trkpt lat="42.46942" lon="-71.12654"><ele>5</ele></trkpt>      <trkpt lat="42.46945" lon="-71.12622"><ele>5</ele></trkpt>      <trkpt lat="42.46959" lon="-71.12592"><ele>5</ele></trkpt>      <trkpt lat="42.46961" lon="-71.12574"><ele>5</ele></trkpt>      <trkpt lat="42.46964" lon="-71.12511"><ele>6</ele></trkpt>      <trkpt lat="42.47010" lon="-71.12512"><ele>6</ele></trkpt>      <trkpt lat="42.47023" lon="-71.12509"><ele>6</ele></trkpt>      <trkpt lat="42.47045" lon="-71.12505"><ele>6</ele></trkpt>      <trkpt lat="42.47072" lon="-71.12495"><ele>6</ele></trkpt>      <trkpt lat="42.47090" lon="-71.12486"><ele>6</ele></trkpt>      <trkpt lat="42.47119" lon="-71.12470"><ele>6</ele></trkpt>      <trkpt lat="42.47144" lon="-71.12456"><ele>7</ele></trkpt>      <trkpt lat="42.47176" lon="-71.12445"><ele>7</ele></trkpt>      <trkpt lat="42.47246" lon="-71.12422"><ele>8</ele></trkpt>      <trkpt lat="42.47316" lon="-71.12396"><ele>10</ele></trkpt>      <trkpt lat="42.47336" lon="-71.12492"><ele>13</ele></trkpt>      <trkpt lat="42.47344" lon="-71.12534"><ele>14</ele></trkpt>      <trkpt lat="42.47350" lon="-71.12562"><ele>14</ele></trkpt>      <trkpt lat="42.47369" lon="-71.12649"><ele>14</ele></trkpt>      <trkpt lat="42.47398" lon="-71.12639"><ele>15</ele></trkpt>      <trkpt lat="42.47416" lon="-71.12632"><ele>15</ele></trkpt>      <trkpt lat="42.47442" lon="-71.12622"><ele>15</ele></trkpt>      <trkpt lat="42.47474" lon="-71.12609"><ele>15</ele></trkpt>      <trkpt lat="42.47495" lon="-71.12601"><ele>15</ele></trkpt>      <trkpt lat="42.47504" lon="-71.12598"><ele>15</ele></trkpt>      <trkpt lat="42.47530" lon="-71.12587"><ele>15</ele></trkpt>      <trkpt lat="42.47549" lon="-71.12580"><ele>15</ele></trkpt>      <trkpt lat="42.47581" lon="-71.12568"><ele>15</ele></trkpt>      <trkpt lat="42.47627" lon="-71.12549"><ele>15</ele></trkpt>      <trkpt lat="42.47655" lon="-71.12538"><ele>15</ele></trkpt>      <trkpt lat="42.47712" lon="-71.12515"><ele>15</ele></trkpt>      <trkpt lat="42.47730" lon="-71.12509"><ele>15</ele></trkpt>      <trkpt lat="42.47801" lon="-71.12482"><ele>15</ele></trkpt>      <trkpt lat="42.47851" lon="-71.12464"><ele>15</ele></trkpt>      <trkpt lat="42.47901" lon="-71.12444"><ele>15</ele></trkpt>      <trkpt lat="42.47916" lon="-71.12438"><ele>15</ele></trkpt>      <trkpt lat="42.47931" lon="-71.12432"><ele>15</ele></trkpt>      <trkpt lat="42.47948" lon="-71.12426"><ele>15</ele></trkpt>      <trkpt lat="42.47980" lon="-71.12415"><ele>15</ele></trkpt>      <trkpt lat="42.47989" lon="-71.12410"><ele>15</ele></trkpt>      <trkpt lat="42.47999" lon="-71.12405"><ele>15</ele></trkpt>      <trkpt lat="42.48027" lon="-71.12395"><ele>15</ele></trkpt>      <trkpt lat="42.48069" lon="-71.12379"><ele>15</ele></trkpt>      <trkpt lat="42.48082" lon="-71.12374"><ele>15</ele></trkpt>      <trkpt lat="42.48100" lon="-71.12367"><ele>15</ele></trkpt>      <trkpt lat="42.48140" lon="-71.12351"><ele>16</ele></trkpt>      <trkpt lat="42.48207" lon="-71.12325"><ele>16</ele></trkpt>      <trkpt lat="42.48299" lon="-71.12290"><ele>18</ele></trkpt>      <trkpt lat="42.48325" lon="-71.12281"><ele>18</ele></trkpt>      <trkpt lat="42.48335" lon="-71.12277"><ele>18</ele></trkpt>      <trkpt lat="42.48352" lon="-71.12270"><ele>17</ele></trkpt>      <trkpt lat="42.48404" lon="-71.12227"><ele>15</ele></trkpt>      <trkpt lat="42.48421" lon="-71.12215"><ele>15</ele></trkpt>      <trkpt lat="42.48437" lon="-71.12204"><ele>15</ele></trkpt>      <trkpt lat="42.48447" lon="-71.12197"><ele>14</ele></trkpt>      <trkpt lat="42.48456" lon="-71.12192"><ele>14</ele></trkpt>      <trkpt lat="42.48466" lon="-71.12188"><ele>14</ele></trkpt>      <trkpt lat="42.48481" lon="-71.12186"><ele>13</ele></trkpt>      <trkpt lat="42.48492" lon="-71.12187"><ele>13</ele></trkpt>      <trkpt lat="42.48513" lon="-71.12188"><ele>13</ele></trkpt>      <trkpt lat="42.48527" lon="-71.12189"><ele>13</ele></trkpt>      <trkpt lat="42.48540" lon="-71.12188"><ele>12</ele></trkpt>      <trkpt lat="42.48552" lon="-71.12180"><ele>12</ele></trkpt>      <trkpt lat="42.48558" lon="-71.12169"><ele>12</ele></trkpt>      <trkpt lat="42.48573" lon="-71.12137"><ele>12</ele></trkpt>      <trkpt lat="42.48594" lon="-71.12089"><ele>11</ele></trkpt>      <trkpt lat="42.48608" lon="-71.12059"><ele>11</ele></trkpt>      <trkpt lat="42.48620" lon="-71.12035"><ele>11</ele></trkpt>      <trkpt lat="42.48636" lon="-71.12035"><ele>11</ele></trkpt>      <trkpt lat="42.48644" lon="-71.12035"><ele>11</ele></trkpt>      <trkpt lat="42.48659" lon="-71.12037"><ele>11</ele></trkpt>      <trkpt lat="42.48672" lon="-71.12039"><ele>11</ele></trkpt>      <trkpt lat="42.48680" lon="-71.12041"><ele>11</ele></trkpt>      <trkpt lat="42.48690" lon="-71.12044"><ele>11</ele></trkpt>      <trkpt lat="42.48704" lon="-71.12049"><ele>12</ele></trkpt>      <trkpt lat="42.48731" lon="-71.12062"><ele>12</ele></trkpt>      <trkpt lat="42.48775" lon="-71.12086"><ele>13</ele></trkpt>      <trkpt lat="42.48812" lon="-71.12105"><ele>13</ele></trkpt>      <trkpt lat="42.48847" lon="-71.12123"><ele>13</ele></trkpt>      <trkpt lat="42.48865" lon="-71.12133"><ele>13</ele></trkpt>      <trkpt lat="42.48894" lon="-71.12148"><ele>14</ele></trkpt>      <trkpt lat="42.48968" lon="-71.12186"><ele>14</ele></trkpt>      <trkpt lat="42.49032" lon="-71.12221"><ele>14</ele></trkpt>      <trkpt lat="42.49045" lon="-71.12228"><ele>15</ele></trkpt>      <trkpt lat="42.49109" lon="-71.12262"><ele>18</ele></trkpt>      <trkpt lat="42.49138" lon="-71.12278"><ele>19</ele></trkpt>      <trkpt lat="42.49196" lon="-71.12309"><ele>20</ele></trkpt>      <trkpt lat="42.49302" lon="-71.12367"><ele>21</ele></trkpt>      <trkpt lat="42.49326" lon="-71.12378"><ele>21</ele></trkpt>      <trkpt lat="42.49341" lon="-71.12383"><ele>21</ele></trkpt>      <trkpt lat="42.49366" lon="-71.12391"><ele>21</ele></trkpt>      <trkpt lat="42.49396" lon="-71.12401"><ele>21</ele></trkpt>      <trkpt lat="42.49412" lon="-71.12406"><ele>21</ele></trkpt>      <trkpt lat="42.49427" lon="-71.12412"><ele>22</ele></trkpt>      <trkpt lat="42.49444" lon="-71.12419"><ele>22</ele></trkpt>      <trkpt lat="42.49469" lon="-71.12429"><ele>22</ele></trkpt>      <trkpt lat="42.49487" lon="-71.12435"><ele>22</ele></trkpt>      <trkpt lat="42.49514" lon="-71.12445"><ele>22</ele></trkpt>      <trkpt lat="42.49529" lon="-71.12451"><ele>22</ele></trkpt>      <trkpt lat="42.49542" lon="-71.12456"><ele>22</ele></trkpt>      <trkpt lat="42.49550" lon="-71.12459"><ele>22</ele></trkpt>      <trkpt lat="42.49560" lon="-71.12462"><ele>22</ele></trkpt>      <trkpt lat="42.49577" lon="-71.12466"><ele>22</ele></trkpt>      <trkpt lat="42.49594" lon="-71.12469"><ele>22</ele></trkpt>      <trkpt lat="42.49602" lon="-71.12470"><ele>22</ele></trkpt>      <trkpt lat="42.49624" lon="-71.12474"><ele>22</ele></trkpt>      <trkpt lat="42.49635" lon="-71.12476"><ele>22</ele></trkpt>      <trkpt lat="42.49645" lon="-71.12479"><ele>22</ele></trkpt>      <trkpt lat="42.49661" lon="-71.12483"><ele>22</ele></trkpt>      <trkpt lat="42.49676" lon="-71.12489"><ele>22</ele></trkpt>      <trkpt lat="42.49716" lon="-71.12502"><ele>22</ele></trkpt>      <trkpt lat="42.49738" lon="-71.12510"><ele>23</ele></trkpt>      <trkpt lat="42.49747" lon="-71.12513"><ele>23</ele></trkpt>      <trkpt lat="42.49767" lon="-71.12519"><ele>23</ele></trkpt>      <trkpt lat="42.49787" lon="-71.12524"><ele>23</ele></trkpt>      <trkpt lat="42.49805" lon="-71.12529"><ele>24</ele></trkpt>      <trkpt lat="42.49850" lon="-71.12540"><ele>24</ele></trkpt>      <trkpt lat="42.49893" lon="-71.12551"><ele>25</ele></trkpt>      <trkpt lat="42.49919" lon="-71.12558"><ele>25</ele></trkpt>      <trkpt lat="42.49927" lon="-71.12560"><ele>25</ele></trkpt>      <trkpt lat="42.49944" lon="-71.12565"><ele>26</ele></trkpt>      <trkpt lat="42.49961" lon="-71.12570"><ele>26</ele></trkpt>      <trkpt lat="42.50028" lon="-71.12589"><ele>28</ele></trkpt>      <trkpt lat="42.50040" lon="-71.12593"><ele>28</ele></trkpt>      <trkpt lat="42.50073" lon="-71.12603"><ele>29</ele></trkpt>      <trkpt lat="42.50087" lon="-71.12608"><ele>29</ele></trkpt>      <trkpt lat="42.50123" lon="-71.12618"><ele>29</ele></trkpt>      <trkpt lat="42.50174" lon="-71.12633"><ele>29</ele></trkpt>      <trkpt lat="42.50186" lon="-71.12635"><ele>29</ele></trkpt>      <trkpt lat="42.50205" lon="-71.12639"><ele>29</ele></trkpt>      <trkpt lat="42.50225" lon="-71.12641"><ele>29</ele></trkpt>      <trkpt lat="42.50252" lon="-71.12643"><ele>29</ele></trkpt>      <trkpt lat="42.50331" lon="-71.12649"><ele>32</ele></trkpt>      <trkpt lat="42.50359" lon="-71.12653"><ele>32</ele></trkpt>      <trkpt lat="42.50404" lon="-71.12657"><ele>32</ele></trkpt>      <trkpt lat="42.50416" lon="-71.12657"><ele>31</ele></trkpt>      <trkpt lat="42.50437" lon="-71.12656"><ele>31</ele></trkpt>      <trkpt lat="42.50473" lon="-71.12655"><ele>30</ele></trkpt>      <trkpt lat="42.50474" lon="-71.12691"><ele>30</ele></trkpt>      <trkpt lat="42.50474" lon="-71.12716"><ele>30</ele></trkpt>      <trkpt lat="42.50472" lon="-71.12734"><ele>29</ele></trkpt>      <trkpt lat="42.50470" lon="-71.12747"><ele>29</ele></trkpt>      <trkpt lat="42.50466" lon="-71.12765"><ele>29</ele></trkpt>      <trkpt lat="42.50464" lon="-71.12778"><ele>28</ele></trkpt>      <trkpt lat="42.50441" lon="-71.12908"><ele>22</ele></trkpt>      <trkpt lat="42.50435" lon="-71.12940"><ele>20</ele></trkpt>      <trkpt lat="42.50432" lon="-71.13018"><ele>18</ele></trkpt>      <trkpt lat="42.50440" lon="-71.13039"><ele>18</ele></trkpt>      <trkpt lat="42.50451" lon="-71.13054"><ele>17</ele></trkpt>      <trkpt lat="42.50461" lon="-71.13057"><ele>17</ele></trkpt>      <trkpt lat="42.50482" lon="-71.13062"><ele>17</ele></trkpt>      <trkpt lat="42.50500" lon="-71.13068"><ele>17</ele></trkpt>      <trkpt lat="42.50544" lon="-71.13081"><ele>17</ele></trkpt>      <trkpt lat="42.50574" lon="-71.13088"><ele>16</ele></trkpt>      <trkpt lat="42.50585" lon="-71.13091"><ele>16</ele></trkpt>      <trkpt lat="42.50646" lon="-71.13103"><ele>16</ele></trkpt>      <trkpt lat="42.50682" lon="-71.13111"><ele>16</ele></trkpt>      <trkpt lat="42.50732" lon="-71.13123"><ele>16</ele></trkpt>      <trkpt lat="42.50795" lon="-71.13139"><ele>16</ele></trkpt>      <trkpt lat="42.50810" lon="-71.13144"><ele>16</ele></trkpt>      <trkpt lat="42.50827" lon="-71.13150"><ele>16</ele></trkpt>      <trkpt lat="42.50846" lon="-71.13157"><ele>16</ele></trkpt>      <trkpt lat="42.50867" lon="-71.13166"><ele>16</ele></trkpt>      <trkpt lat="42.50876" lon="-71.13171"><ele>16</ele></trkpt>      <trkpt lat="42.50891" lon="-71.13180"><ele>16</ele></trkpt>      <trkpt lat="42.50902" lon="-71.13186"><ele>16</ele></trkpt>      <trkpt lat="42.50916" lon="-71.13195"><ele>16</ele></trkpt>      <trkpt lat="42.50928" lon="-71.13204"><ele>16</ele></trkpt>      <trkpt lat="42.50937" lon="-71.13210"><ele>16</ele></trkpt>      <trkpt lat="42.50958" lon="-71.13224"><ele>16</ele></trkpt>      <trkpt lat="42.50973" lon="-71.13235"><ele>16</ele></trkpt>      <trkpt lat="42.50993" lon="-71.13249"><ele>16</ele></trkpt>      <trkpt lat="42.51031" lon="-71.13276"><ele>16</ele></trkpt>      <trkpt lat="42.51079" lon="-71.13309"><ele>16</ele></trkpt>      <trkpt lat="42.51180" lon="-71.13377"><ele>16</ele></trkpt>      <trkpt lat="42.51252" lon="-71.13423"><ele>16</ele></trkpt>      <trkpt lat="42.51278" lon="-71.13440"><ele>16</ele></trkpt>      <trkpt lat="42.51297" lon="-71.13452"><ele>17</ele></trkpt>      <trkpt lat="42.51306" lon="-71.13459"><ele>17</ele></trkpt>      <trkpt lat="42.51391" lon="-71.13509"><ele>17</ele></trkpt>      <trkpt lat="42.51417" lon="-71.13525"><ele>17</ele></trkpt>      <trkpt lat="42.51436" lon="-71.13536"><ele>17</ele></trkpt>      <trkpt lat="42.51447" lon="-71.13542"><ele>18</ele></trkpt>      <trkpt lat="42.51461" lon="-71.13551"><ele>18</ele></trkpt>      <trkpt lat="42.51474" lon="-71.13559"><ele>18</ele></trkpt>      <trkpt lat="42.51488" lon="-71.13569"><ele>18</ele></trkpt>      <trkpt lat="42.51498" lon="-71.13577"><ele>18</ele></trkpt>      <trkpt lat="42.51507" lon="-71.13585"><ele>18</ele></trkpt>      <trkpt lat="42.51526" lon="-71.13600"><ele>18</ele></trkpt>      <trkpt lat="42.51549" lon="-71.13622"><ele>18</ele></trkpt>      <trkpt lat="42.51560" lon="-71.13633"><ele>18</ele></trkpt>      <trkpt lat="42.51578" lon="-71.13650"><ele>19</ele></trkpt>      <trkpt lat="42.51602" lon="-71.13673"><ele>19</ele></trkpt>      <trkpt lat="42.51630" lon="-71.13700"><ele>19</ele></trkpt>      <trkpt lat="42.51651" lon="-71.13722"><ele>19</ele></trkpt>      <trkpt lat="42.51664" lon="-71.13733"><ele>19</ele></trkpt>      <trkpt lat="42.51676" lon="-71.13745"><ele>19</ele></trkpt>      <trkpt lat="42.51690" lon="-71.13757"><ele>20</ele></trkpt>      <trkpt lat="42.51702" lon="-71.13768"><ele>20</ele></trkpt>      <trkpt lat="42.51714" lon="-71.13779"><ele>20</ele></trkpt>      <trkpt lat="42.51730" lon="-71.13795"><ele>20</ele></trkpt>      <trkpt lat="42.51744" lon="-71.13806"><ele>20</ele></trkpt>      <trkpt lat="42.51765" lon="-71.13820"><ele>20</ele></trkpt>      <trkpt lat="42.51801" lon="-71.13841"><ele>20</ele></trkpt>      <trkpt lat="42.51810" lon="-71.13847"><ele>20</ele></trkpt>      <trkpt lat="42.51826" lon="-71.13855"><ele>20</ele></trkpt>      <trkpt lat="42.51868" lon="-71.13872"><ele>20</ele></trkpt>      <trkpt lat="42.51880" lon="-71.13876"><ele>20</ele></trkpt>      <trkpt lat="42.51930" lon="-71.13896"><ele>20</ele></trkpt>      <trkpt lat="42.51963" lon="-71.13908"><ele>20</ele></trkpt>      <trkpt lat="42.51984" lon="-71.13916"><ele>20</ele></trkpt>      <trkpt lat="42.51994" lon="-71.13919"><ele>20</ele></trkpt>      <trkpt lat="42.52005" lon="-71.13922"><ele>20</ele></trkpt>      <trkpt lat="42.52026" lon="-71.13920"><ele>20</ele></trkpt>      <trkpt lat="42.52045" lon="-71.13912"><ele>20</ele></trkpt>      <trkpt lat="42.52094" lon="-71.13876"><ele>20</ele></trkpt>      <trkpt lat="42.52135" lon="-71.13850"><ele>19</ele></trkpt>      <trkpt lat="42.52121" lon="-71.13819"><ele>19</ele></trkpt>      <trkpt lat="42.52113" lon="-71.13797"><ele>19</ele></trkpt>      <trkpt lat="42.52109" lon="-71.13778"><ele>18</ele></trkpt>      <trkpt lat="42.52107" lon="-71.13764"><ele>18</ele></trkpt>      <trkpt lat="42.52105" lon="-71.13750"><ele>18</ele></trkpt>      <trkpt lat="42.52137" lon="-71.13743"><ele>19</ele></trkpt>      <trkpt lat="42.52154" lon="-71.13732"><ele>19</ele></trkpt>      <trkpt lat="42.52162" lon="-71.13727"><ele>20</ele></trkpt>      <trkpt lat="42.52171" lon="-71.13718"><ele>20</ele></trkpt>      <trkpt lat="42.52192" lon="-71.13691"><ele>20</ele></trkpt>      <trkpt lat="42.52182" lon="-71.13678"><ele>20</ele></trkpt>      <trkpt lat="42.52173" lon="-71.13665"><ele>20</ele></trkpt>    </trkseg>  </trk></gpx>